{"type":"FeatureCollection","features":[{"type":"Feature","properties":{"name:sr":"22225 Бачинци","opening_hours":"Mo-Fr 07:00-14:00; PH off","addr:housenumber":"1","name":"22225 Бачинци","amenity":"post_office","phone":"+381 22 743-321","ref":"22225","name:sr-Latn":"22225 Bačinci","addr:pak":"328273","addr:street":"Сремска"},"geometry":{"type":"Point","coordinates":[19.3079827084757,45.0827431813604]}},{"type":"Feature","properties":{"name:sr":"22244 Адашевци","opening_hours":"Mo-Fr 07:00-14:00; PH off","addr:housenumber":"4","name":"22244 Адашевци","amenity":"post_office","phone":"+381 22 737-219","ref":"22244","name:sr-Latn":"22244 Adaševci","addr:pak":"328418","addr:street":"Бранка Радичевића"},"geometry":{"type":"Point","coordinates":[19.221716435629,45.0820451935984]}},{"type":"Feature","properties":{"amenity":"post_office","name":"22245 Моровић","name:sr":"22245 Моровић","name:sr-Latn":"22245 Morović","ref":"22245","opening_hours":"Mo-Fr 07:00-14:00; PH off","phone":"+381 22 736-021","addr:pak":"328604"},"geometry":{"type":"Point","coordinates":[19.2170279602433,45.0087678254363]}},{"type":"Feature","properties":{"name:sr":"22246 Вишњићево","opening_hours":"Mo-Fr 07:00-14:00; PH off","addr:housenumber":"2","name":"22246 Вишњићево","amenity":"post_office","phone":"+381 22 745-710","ref":"22246","name:sr-Latn":"22246 Višnjićevo","addr:pak":"328846","addr:street":"Босутска"},"geometry":{"type":"Point","coordinates":[19.2891206511849,44.9655546515593]}},{"type":"Feature","properties":{"name:sr":"22247 Сремска Рача","opening_hours":"Mo-Fr 07:00-10:30; PH off","addr:housenumber":"12","name":"22247 Сремска Рача","amenity":"post_office","phone":"+381 22 667819","ref":"22247","name:sr-Latn":"22247 Sremska Rača","addr:pak":"323605","addr:street":"Пионирска"},"geometry":{"type":"Point","coordinates":[19.2886351912924,44.9191555678455]}},{"type":"Feature","properties":{"name:sr":"22248 Јамена","opening_hours":"Mo-Fr 07:00-10:30; PH off","addr:housenumber":"24","name":"22248 Јамена","amenity":"post_office","phone":"+381 22 734-110","ref":"22248","name:sr-Latn":"22248 Jamena","addr:pak":"328904","addr:street":"кнеза Лазара"},"geometry":{"type":"Point","coordinates":[19.063394079672,44.8843379170665]}},{"type":"Feature","properties":{"name:sr":"22251 Батровци","opening_hours":"Tu,Th 07:30-12:00; PH off","addr:housenumber":"47","name":"22251 Батровци","amenity":"post_office","phone":"+381 22 2733-246","ref":"22251","name:sr-Latn":"22251 Batrovci","addr:pak":"329326","addr:street":"ЈНА"},"geometry":{"type":"Point","coordinates":[19.1267877786116,45.0536853064891]}},{"type":"Feature","properties":{"amenity":"post_office","name":"22249 Сремска Рача","name:sr":"22249 Сремска Рача","name:sr-Latn":"22249 Sremska Rača","ref":"22249","opening_hours":"Mo-Su,PH 00:00-24:00","phone":"+381 22 667-827","addr:pak":"323675"},"geometry":{"type":"Point","coordinates":[19.3066126227036,44.9174051879587]}},{"type":"Feature","properties":{"amenity":"post_office","name":"22259 Батровци","name:sr":"22259 Батровци","name:sr-Latn":"22259 Batrovci","ref":"22259","opening_hours":"Mo-Su,PH 00:00-24:00","phone":"+381 22 2733-050;+381 22 2733-001","addr:pak":"329342"},"geometry":{"type":"Point","coordinates":[19.1072263719664,45.0464051820793]}}]}