{"type":"FeatureCollection","features":[{"type":"Feature","properties":{"name:sr":"26224 Дубовац","opening_hours":"Mo-Fr 07:00-11:00; PH off","addr:housenumber":"53","name":"26224 Дубовац","amenity":"post_office","phone":"+381 13 767-220","ref":"26224","name:sr-Latn":"26224 Dubovac","addr:pak":"306808","addr:street":"Цара Лазара"},"geometry":{"type":"Point","coordinates":[21.2048606018403,44.7953137372817]}},{"type":"Feature","properties":{"name:sr":"12000 Пожаревац 1","opening_hours":"Mo-Fr 08:00-19:00; Sa 08:00-13:00; PH off","addr:housenumber":"3","name":"12000 Пожаревац 1","amenity":"post_office","phone":"+381 12 538013;+381 12 538015;+381 12 538016","ref":"12000","name:sr-Latn":"12000 Požarevac 1","addr:pak":"290909","addr:street":"Јована Шербановића"},"geometry":{"type":"Point","coordinates":[21.1875149555128,44.620010168824]}},{"type":"Feature","properties":{"name:sr":"12208 Костолац","opening_hours":"Mo-Fr 08:00-17:00; Sa 08:00-13:00; PH off","addr:housenumber":"2","name":"12208 Костолац","amenity":"post_office","phone":"+381 12 241666;+381 12 241638;+381 12 243312","ref":"12208","name:sr-Latn":"12208 Kostolac","addr:pak":"293816","addr:street":"Трг братства и јединства"},"geometry":{"type":"Point","coordinates":[21.1759518822538,44.7180994801331]}},{"type":"Feature","properties":{"name:sr":"12209 Кличевац","opening_hours":"Mo-Fr 07:00-13:00; PH off","addr:housenumber":"ББ","name":"12209 Кличевац","amenity":"post_office","phone":"+381 12 565025","ref":"12209","name:sr-Latn":"12209 Kličevac","addr:pak":"293610","addr:street":"Пожаревачка"},"geometry":{"type":"Point","coordinates":[21.2889497410678,44.7569314539603]}},{"type":"Feature","properties":{"amenity":"post_office","name":"12221 Мајиловац","name:sr":"12221 Мајиловац","name:sr-Latn":"12221 Majilovac","ref":"12221","opening_hours":"Mo-Fr 08:00-14:00; PH off","phone":"+381 12 274906","addr:pak":"295701"},"geometry":{"type":"Point","coordinates":[21.3629925997307,44.6922155719369]}},{"type":"Feature","properties":{"amenity":"post_office","name":"12226 Тополовник","name:sr":"12226 Тополовник","name:sr-Latn":"12226 Topolovnik","ref":"12226","opening_hours":"Mo-Fr 08:00-14:00; PH off","phone":"+381 12 664209","addr:pak":"296001"},"geometry":{"type":"Point","coordinates":[21.4421992580633,44.720075378312]}},{"type":"Feature","properties":{"name:sr":"12227 Баре","opening_hours":"Mo-Fr 07:00-10:00; PH off","addr:housenumber":"ББ","name":"12227 Баре","amenity":"post_office","phone":"+381 12 587526","ref":"12227","name:sr-Latn":"12227 Bare","addr:pak":"294902","addr:street":"Маршала Тита"},"geometry":{"type":"Point","coordinates":[21.3299855672829,44.6473848919417]}},{"type":"Feature","properties":{"amenity":"post_office","name":"12312 Смољинац","name:sr":"12312 Смољинац","name:sr-Latn":"12312 Smoljinac","ref":"12312","opening_hours":"Mo-Fr 08:00-14:00; PH off","phone":"+381 12 283273","addr:pak":"299701"},"geometry":{"type":"Point","coordinates":[21.3462712655906,44.6057927679344]}},{"type":"Feature","properties":{"name:sr":"12103 Пожаревац 3","opening_hours":"Mo-Fr 07:00-17:00; Sa 07:00-13:00; PH off","addr:housenumber":"74","name":"12103 Пожаревац 3","amenity":"post_office","phone":"+381 12 224410;+381 12 227876","ref":"12103","name:sr-Latn":"12103 Požarevac 3","addr:pak":"290220","addr:street":"Чеде Васовића"},"geometry":{"type":"Point","coordinates":[21.1767644659062,44.61289323948]}},{"type":"Feature","properties":{"name:sr":"12104 Пожаревац 4","opening_hours":"Mo-Fr 08:00-15:00; PH off","addr:housenumber":"21","name":"12104 Пожаревац 4","amenity":"post_office","phone":"+381 12 222-969;+381 12 212950","ref":"12104","name:sr-Latn":"12104 Požarevac 4","addr:pak":"291408","addr:street":"Ратарска"},"geometry":{"type":"Point","coordinates":[21.175375929918,44.6242812817893]}},{"type":"Feature","properties":{"name:sr":"12102 Пожаревац 2","opening_hours":"Mo-Fr 08:30-14:00; PH off","addr:housenumber":"ББ","name":"12102 Пожаревац 2","amenity":"post_office","phone":"+381 12 553295","ref":"12102","name:sr-Latn":"12102 Požarevac 2","addr:pak":"292802","addr:street":"Забелска"},"geometry":{"type":"Point","coordinates":[21.1486761796219,44.6511155439712]}},{"type":"Feature","properties":{"name:sr":"12206 Брадарац","opening_hours":"Mo-Fr 07:00-13:00; PH off","addr:housenumber":"ББ","name":"12206 Брадарац","amenity":"post_office","phone":"+381 12 261512","ref":"12206","name:sr-Latn":"12206 Bradarac","addr:pak":"294802","addr:street":"Светосавска"},"geometry":{"type":"Point","coordinates":[21.2292433841924,44.6909294130624]}}]}