{"type":"FeatureCollection","features":[{"type":"Feature","properties":{"name:sr":"26323 Црвена Црква","opening_hours":"Mo-Fr 07:00-13:00; PH off","addr:housenumber":"39","name":"26323 Црвена Црква","amenity":"post_office","phone":"+381 13 846-100","ref":"26323","name:sr-Latn":"26323 Crvena Crkva","addr:pak":"315001","addr:street":"Светог Саве"},"geometry":{"type":"Point","coordinates":[21.3645018819793,44.9010990837702]}},{"type":"Feature","properties":{"name:sr":"26328 Дупљаја","opening_hours":"Mo,Tu,Th,Fr 07:00-11:00; PH off","addr:housenumber":"84","name":"26328 Дупљаја","amenity":"post_office","phone":"+381 13 845-019","ref":"26328","name:sr-Latn":"26328 Dupljaja","addr:pak":"315105","addr:street":"Другог октобра"},"geometry":{"type":"Point","coordinates":[21.2732151765496,44.9269063510074]}},{"type":"Feature","properties":{"name:sr":"26330 Уљма","opening_hours":"Mo-Fr 07:00-14:00; PH off","addr:housenumber":"96","name":"26330 Уљма","amenity":"post_office","phone":"+381 13 898-122","ref":"26330","name:sr-Latn":"26330 Uljma","addr:pak":"313007","addr:street":"Вршачка"},"geometry":{"type":"Point","coordinates":[21.1575389054566,45.0437379502226]}},{"type":"Feature","properties":{"name:sr":"26332 Влајковац","opening_hours":"Mo-Fr 07:00-14:00; PH off","addr:housenumber":"42","name":"26332 Влајковац","amenity":"post_office","phone":"+381 13 827-000","ref":"26332","name:sr-Latn":"26332 Vlajkovac","addr:pak":"313206","addr:street":"Вршачка"},"geometry":{"type":"Point","coordinates":[21.2012417586822,45.0719337249958]}},{"type":"Feature","properties":{"name:sr":"26336 Куштиљ","opening_hours":"Mo-Fr 07:00-11:00; PH off","addr:housenumber":"27","name":"26336 Куштиљ","amenity":"post_office","phone":"+381 13 883-454","ref":"26336","name:sr-Latn":"26336 Kuštilj","addr:pak":"312401","addr:street":"Војвођанска"},"geometry":{"type":"Point","coordinates":[21.3773395974006,45.034703468853]}},{"type":"Feature","properties":{"amenity":"post_office","name":"26340 Бела Црква","name:sr":"26340 Бела Црква","name:sr-Latn":"26340 Bela Crkva","ref":"26340","opening_hours":"Mo-Fr 07:00-19:00; Sa 07:00-13:00; PH off","phone":"+381 13 309-109;+381 13 851-149","addr:pak":"314230"},"geometry":{"type":"Point","coordinates":[21.4231088270216,44.8993741981045]}},{"type":"Feature","properties":{"name:sr":"26343 Избиште","opening_hours":"Mo-Fr 07:00-14:00; PH off","addr:housenumber":"17","name":"26343 Избиште","amenity":"post_office","phone":"+381 13 893-010","ref":"26343","name:sr-Latn":"26343 Izbište","addr:pak":"312918","addr:street":"Исе Јовановића"},"geometry":{"type":"Point","coordinates":[21.1878862253937,45.0194923647438]}},{"type":"Feature","properties":{"name:sr":"26344 Загајица","opening_hours":"Mo-Fr 07:00-11:00; PH off","addr:housenumber":"5","name":"26344 Загајица","amenity":"post_office","phone":"+381 13 894-214","ref":"26344","name:sr-Latn":"26344 Zagajica","addr:pak":"312802","addr:street":"Милоша Обилића"},"geometry":{"type":"Point","coordinates":[21.2322359604036,44.9840754049049]}},{"type":"Feature","properties":{"name:sr":"26345 Стража","opening_hours":"Mo-Fr 07:00-13:00; PH off","addr:housenumber":"28","name":"26345 Стража","amenity":"post_office","phone":"+381 13 2882-039","ref":"26345","name:sr-Latn":"26345 Straža","addr:pak":"312601","addr:street":"Маршала Тита"},"geometry":{"type":"Point","coordinates":[21.3011344631296,44.9729056854492]}},{"type":"Feature","properties":{"name:sr":"26346 Јасеново","opening_hours":"Mo-Fr 07:00-14:00; PH off","addr:housenumber":"30","name":"26346 Јасеново","amenity":"post_office","phone":"+381 13 855-119","ref":"26346","name:sr-Latn":"26346 Jasenovo","addr:pak":"314401","addr:street":"Маршала Тита"},"geometry":{"type":"Point","coordinates":[21.2979565919473,44.936733448032]}},{"type":"Feature","properties":{"name:sr":"26347 Гребенац","opening_hours":"Mo-Fr 07:00-11:00; PH off","addr:housenumber":"2","name":"26347 Гребенац","amenity":"post_office","phone":"+381 13 857-208","ref":"26347","name:sr-Latn":"26347 Grebenac","addr:pak":"314516","addr:street":"Фискултурна"},"geometry":{"type":"Point","coordinates":[21.2350673034602,44.9001207204449]}},{"type":"Feature","properties":{"name:sr":"26348 Врачев Гај","opening_hours":"Mo-Fr 07:00-13:00; PH off","addr:housenumber":"219","name":"26348 Врачев Гај","amenity":"post_office","phone":"+381 13 856-207","ref":"26348","name:sr-Latn":"26348 Vračev Gaj","addr:pak":"314602","addr:street":"Марка Стојановића"},"geometry":{"type":"Point","coordinates":[21.3670402333921,44.8791189441495]}},{"type":"Feature","properties":{"name:sr":"26324 Банатска Паланка","opening_hours":"Mo-Fr 07:00-11:00; PH off","addr:housenumber":"ББ","name":"26324 Банатска Паланка","amenity":"post_office","phone":"+381 13 841-230","ref":"26324","name:sr-Latn":"26324 Banatska Palanka","addr:pak":"315306","addr:street":"Дунавска"},"geometry":{"type":"Point","coordinates":[21.3320470673632,44.844374115249]}}]}