{"type":"FeatureCollection","features":[{"type":"Feature","properties":{"name:sr":"26300 Вршац 1","opening_hours":"Mo-Fr 08:00-19:00; Sa 08:00-14:00; PH off","addr:housenumber":"15","name":"26300 Вршац 1","amenity":"post_office","phone":"+381 13 309-072;+381 13 309-074","ref":"26300","name:sr-Latn":"26300 Vršac 1","addr:pak":"311048","addr:street":"Жарка Зрењанина"},"geometry":{"type":"Point","coordinates":[21.3016312802718,45.1203328430988]}},{"type":"Feature","properties":{"name:sr":"26333 Павлиш","opening_hours":"Mo-Fr 07:00-14:00; PH off","addr:housenumber":"85","name":"26333 Павлиш","amenity":"post_office","phone":"+381 13 2891-146","ref":"26333","name:sr-Latn":"26333 Pavliš","addr:pak":"312108","addr:street":"Жарка Зрењанина"},"geometry":{"type":"Point","coordinates":[21.2389089810076,45.1052628628646]}},{"type":"Feature","properties":{"name:sr":"26334 Велико Средиште","opening_hours":"Mo-Fr 07:00-11:00; PH off","addr:housenumber":"6","name":"26334 Велико Средиште","amenity":"post_office","phone":"+381 13 892-110","ref":"26334","name:sr-Latn":"26334 Veliko Središte","addr:pak":"312205","addr:street":"Стеријина"},"geometry":{"type":"Point","coordinates":[21.4025303682308,45.1781115033701]}},{"type":"Feature","properties":{"name:sr":"26335 Гудурица","opening_hours":"Mo-Fr 07:30-14:00; PH off","addr:housenumber":"113","name":"26335 Гудурица","amenity":"post_office","phone":"+381 13 881-026","ref":"26335","name:sr-Latn":"26335 Gudurica","addr:pak":"312308","addr:street":"Отона Жупанчића"},"geometry":{"type":"Point","coordinates":[21.4447798921411,45.167730574944]}},{"type":"Feature","properties":{"name:sr":"26360 Пландиште","opening_hours":"Mo-Fr 08:00-14:00; Sa 08:00-12:00; PH off","addr:housenumber":"23","name":"26360 Пландиште","amenity":"post_office","phone":"+381 13 309-090;+381 13 861-065","ref":"26360","name:sr-Latn":"26360 Plandište","addr:pak":"316008","addr:street":"Михајла Пупина"},"geometry":{"type":"Point","coordinates":[21.1269115897795,45.2308787728936]}},{"type":"Feature","properties":{"name:sr":"26364 Маргита","opening_hours":"Mo-Fr 07:00-11:00; PH off","addr:housenumber":"2","name":"26364 Маргита","amenity":"post_office","phone":"+381 13 2863-000","ref":"26364","name:sr-Latn":"26364 Margita","addr:pak":"317206","addr:street":"Вука Караџића"},"geometry":{"type":"Point","coordinates":[21.1733022038961,45.2141315244519]}},{"type":"Feature","properties":{"name:sr":"26365 Велики Гај","opening_hours":"Mo-Fr 09:00-13:00; PH off","addr:housenumber":"12","name":"26365 Велики Гај","amenity":"post_office","phone":"+381 13 873-010","ref":"26365","name:sr-Latn":"26365 Veliki Gaj","addr:pak":"316506","addr:street":"Ђуре Јакшића"},"geometry":{"type":"Point","coordinates":[21.1723724520421,45.2892903651825]}},{"type":"Feature","properties":{"name:sr":"26368 Купиник","opening_hours":"Tu,Th 08:00-12:00; PH off","addr:housenumber":"2","name":"26368 Купиник","amenity":"post_office","phone":"+381 13 872-061","ref":"26368","name:sr-Latn":"26368 Kupinik","addr:pak":"316607","addr:street":"Вука Караџића"},"geometry":{"type":"Point","coordinates":[21.1371617740193,45.2910085607103]}},{"type":"Feature","properties":{"name:sr":"26304 Вршац 4","opening_hours":"Mo-Fr 07:00-18:00; Sa 07:00-13:00; PH off","addr:housenumber":"2","name":"26304 Вршац 4","amenity":"post_office","phone":"+381 13 830-749","ref":"26304","name:sr-Latn":"26304 Vršac 4","addr:pak":"310358","addr:street":"Лазе Нанчића"},"geometry":{"type":"Point","coordinates":[21.2931994163174,45.1176162345093]}},{"type":"Feature","properties":{"name:sr":"26303 Вршац 3","opening_hours":"Mo-Fr 07:00-18:00; Sa 07:00-13:00; PH off","addr:housenumber":"28","name":"26303 Вршац 3","amenity":"post_office","phone":"+381 13 821-065","ref":"26303","name:sr-Latn":"26303 Vršac 3","addr:pak":"310818","addr:street":"Војнички трг"},"geometry":{"type":"Point","coordinates":[21.296327510356,45.1134719826785]}},{"type":"Feature","properties":{"name:sr":"26302 Вршац 2","opening_hours":"Mo-Fr 07:00-14:00; PH off","addr:housenumber":"13","name":"26302 Вршац 2","amenity":"post_office","phone":"+381 13 807-544","ref":"26302","name:sr-Latn":"26302 Vršac 2","addr:pak":"310517","addr:street":"Булевар ослобођења"},"geometry":{"type":"Point","coordinates":[21.2834252526009,45.1065034224369]}},{"type":"Feature","properties":{"name:sr":"26305 Вршац 5","opening_hours":"Mo-Fr 07:00-14:00; PH off","addr:housenumber":"17","name":"26305 Вршац 5","amenity":"post_office","phone":"+381 13 834-002","ref":"26305","name:sr-Latn":"26305 Vršac 5","addr:pak":"311318","addr:street":"Омладински Трг"},"geometry":{"type":"Point","coordinates":[21.3108388884929,45.1176687634002]}}]}