{"type":"FeatureCollection","features":[{"type":"Feature","properties":{"name:sr":"17520 Бујановац","opening_hours":"Mo-Fr 08:00-17:00; Sa 08:00-13:00; PH off","addr:housenumber":"244","name":"17520 Бујановац","amenity":"post_office","phone":"+381 17 407-052","ref":"17520","name:sr-Latn":"17520 Bujanovac","addr:pak":"634126","addr:street":"Карађорђа Петровића"},"geometry":{"type":"Point","coordinates":[21.7669277849139,42.4612063294935]}},{"type":"Feature","properties":{"name:sr":"17523 Прешево 1","opening_hours":"Mo-Fr 08:00-17:00; Sa 08:00-13:00; PH off","addr:housenumber":"1","name":"17523 Прешево 1","amenity":"post_office","phone":"+381 17 407-053","ref":"17523","name:sr-Latn":"17523 Preševo 1","addr:pak":"637001","addr:street":"Саве Ковачевића"},"geometry":{"type":"Point","coordinates":[21.6497996397099,42.3071601690377]}},{"type":"Feature","properties":{"amenity":"post_office","name":"17528 Велики Трновац","name:sr":"17528 Велики Трновац","name:sr-Latn":"17528 Veliki Trnovac","ref":"17528","opening_hours":"Mo-Fr 08:00-14:30; PH off","phone":"+381 17 657-375","addr:pak":"634812"},"geometry":{"type":"Point","coordinates":[21.7401016809262,42.4770581497323]}},{"type":"Feature","properties":{"amenity":"post_office","name":"17522 Биљача","name:sr":"17522 Биљача","name:sr-Latn":"17522 Biljača","ref":"17522","opening_hours":"Mo-Fr 08:00-12:00; PH off","phone":"+381 17 647-510","addr:pak":"634702"},"geometry":{"type":"Point","coordinates":[21.7467801431491,42.3554356804383]}},{"type":"Feature","properties":{"amenity":"post_office","name":"38267 Ранилуг","name:sr":"38267 Ранилуг","name:sr-Latn":"38267 Ranilug","ref":"38267","opening_hours":"Mo-Fr 07:00-14:00; Sa 07:00-12:00; PH off","phone":"+381 280 76-276;+381 28 75-176","addr:pak":"990102"},"geometry":{"type":"Point","coordinates":[21.5979607021515,42.492882153704]}},{"type":"Feature","properties":{"name:sr":"38266 Пасјане","opening_hours":"Mo-Fr 07:00-15:00; PH off","addr:housenumber":"ББ","name":"38266 Пасјане","amenity":"post_office","phone":"+381 280 74-501","ref":"38266","name:sr-Latn":"38266 Pasjane","addr:pak":"991914","addr:street":"Карађорђева"},"geometry":{"type":"Point","coordinates":[21.4926369662111,42.4048705154891]}},{"type":"Feature","properties":{"name:sr":"38252 Шилово","opening_hours":"Mo-Fr 07:00-15:00; PH off","addr:housenumber":"ББ","name":"38252 Шилово","amenity":"post_office","phone":"+381 280 79-001;+381 49 785-016","ref":"38252","name:sr-Latn":"38252 Šilovo","addr:pak":"992001","addr:street":"Краља Петра"},"geometry":{"type":"Point","coordinates":[21.500860613061,42.4771558647698]}},{"type":"Feature","properties":{"name:sr":"17557 Ораовица","opening_hours":"Mo,Tu,We,Th,Fr 07:00-15:00; PH off","addr:housenumber":"ББ","name":"17557 Ораовица","amenity":"post_office","phone":"+381 17 7671-111","ref":"17557","name:sr-Latn":"17557 Oraovica","addr:pak":"637121","addr:street":"Ораовица"},"geometry":{"type":"Point","coordinates":[21.6603654398501,42.3255966197514]}}]}