{"type":"FeatureCollection","features":[{"type":"Feature","properties":{"amenity":"post_office","name":"17529 Муховац","name:sr":"17529 Муховац","name:sr-Latn":"17529 Muhovac","ref":"17529","opening_hours":"Mo 09:00-12:00; We 08:00-11:00; Th 09:00-12:00; Fr 08:00-12:00; PH off","phone":"+381 17 661-040","addr:pak":"634901"},"geometry":{"type":"Point","coordinates":[21.7538079291421,42.5667698646206]}},{"type":"Feature","properties":{"name:sr":"16246 Сијаринска Бања","opening_hours":"Mo-Fr 08:00-11:00; PH off","addr:housenumber":"24","name":"16246 Сијаринска Бања","amenity":"post_office","phone":"+381 16 895138;+381 64 6663078","ref":"16246","name:sr-Latn":"16246 Sijarinska Banja","addr:pak":"647001","addr:street":"Краља Милана"},"geometry":{"type":"Point","coordinates":[21.6041028503615,42.773867484857]}},{"type":"Feature","properties":{"amenity":"post_office","name":"38260 КОСОВСКА Каменица","name:sr":"38260 КОСОВСКА Каменица","name:sr-Latn":"38260 KOSOVSKA Kamenica","ref":"38260","opening_hours":"Mo-Fr 07:00-15:00; PH off","phone":"+381 280 372-020","addr:pak":"994525"},"geometry":{"type":"Point","coordinates":[21.5808787520073,42.5799935297924]}}]}