{"type":"FeatureCollection","features":[{"type":"Feature","properties":{"name:sr":"16230 Лебане","opening_hours":"Mo-Fr 07:00-14:00; Sa 08:00-13:00; PH off","addr:housenumber":"99","name":"16230 Лебане","amenity":"post_office","phone":"+381 16 843049;+381 16 843988","ref":"16230","name:sr-Latn":"16230 Lebane","addr:pak":"647499","addr:street":"Цара Душана"},"geometry":{"type":"Point","coordinates":[21.7357899855819,42.9168255270521]}},{"type":"Feature","properties":{"name:sr":"16205 Бојник","opening_hours":"Mo-Fr 07:00-14:00; Sa 08:00-13:00; PH off","addr:housenumber":"23","name":"16205 Бојник","amenity":"post_office","phone":"+381 16 821103","ref":"16205","name:sr-Latn":"16205 Bojnik","addr:pak":"646413","addr:street":"Трг Слободе"},"geometry":{"type":"Point","coordinates":[21.7223278225046,43.0122820415206]}},{"type":"Feature","properties":{"amenity":"post_office","name":"16248 Леце","name:sr":"16248 Леце","name:sr-Latn":"16248 Lece","ref":"16248","opening_hours":"Mo-Fr 08:00-11:00; PH off","phone":"+381 16 267400;+381 64 6658496","addr:pak":"647101"},"geometry":{"type":"Point","coordinates":[21.5338118809133,42.9084144301363]}},{"type":"Feature","properties":{"name:sr":"16240 Медвеђа","opening_hours":"Mo-Fr 08:00-15:00; Sa 08:00-13:00; PH off","addr:housenumber":"30","name":"16240 Медвеђа","amenity":"post_office","phone":"+381 16 891657;+381 16 891111","ref":"16240","name:sr-Latn":"16240 Medveđa","addr:pak":"648033","addr:street":"Јабланичка"},"geometry":{"type":"Point","coordinates":[21.585329923476,42.8446121124782]}},{"type":"Feature","properties":{"amenity":"post_office","name":"16234 Шумане","name:sr":"16234 Шумане","name:sr-Latn":"16234 Šumane","ref":"16234","opening_hours":"Mo-Fr 07:30-11:00; PH off","phone":"+381 16-843-399","addr:pak":"647616"},"geometry":{"type":"Point","coordinates":[21.7555559319851,42.9055356022436]}}]}