{"type":"FeatureCollection","features":[{"type":"Feature","properties":{"amenity":"post_office","name":"18251 Мрамор","name:sr":"18251 Мрамор","name:sr-Latn":"18251 Mramor","ref":"18251","opening_hours":"Mo-Fr 07:00-10:00; PH off","phone":"+381 18 694-000","addr:pak":"702610"},"geometry":{"type":"Point","coordinates":[21.7837644762461,43.3125315658392]}},{"type":"Feature","properties":{"name:sr":"18252 Мерошина","opening_hours":"Mo-Fr 07:00-17:00; Sa 07:00-12:00; PH off","addr:housenumber":"11","name":"18252 Мерошина","amenity":"post_office","phone":"+381 18 4892-011;+381 18 4892-119","ref":"18252","name:sr-Latn":"18252 Merošina","addr:pak":"694001","addr:street":"Цара Лазара"},"geometry":{"type":"Point","coordinates":[21.7211232051607,43.2832879066149]}},{"type":"Feature","properties":{"amenity":"post_office","name":"18253 Југ Богдановац","name:sr":"18253 Југ Богдановац","name:sr-Latn":"18253 Jug Bogdanovac","ref":"18253","opening_hours":"Mo-Fr 07:00-10:00; PH off","phone":"+381 18 4895-219","addr:pak":"694610"},"geometry":{"type":"Point","coordinates":[21.6567883345112,43.258251130406]}},{"type":"Feature","properties":{"name:sr":"18400 Прокупље","opening_hours":"Mo-Fr 07:00-19:00; Sa 07:30-15:00; PH off","addr:housenumber":"6","name":"18400 Прокупље","amenity":"post_office","phone":"+381 27 320-313;+381 27 320-315","ref":"18400","name:sr-Latn":"18400 Prokuplje","addr:pak":"650401","addr:street":"Југ Богданова"},"geometry":{"type":"Point","coordinates":[21.586216624833,43.2338018756831]}},{"type":"Feature","properties":{"amenity":"post_office","name":"18404 Доња Речица","name:sr":"18404 Доња Речица","name:sr-Latn":"18404 Donja Rečica","ref":"18404","opening_hours":"Mo-Fr 07:00-14:30; PH off","phone":"+381 27 84-55-564","addr:pak":"652701"},"geometry":{"type":"Point","coordinates":[21.4953153531162,43.2913790276563]}},{"type":"Feature","properties":{"amenity":"post_office","name":"18406 Дубово","name:sr":"18406 Дубово","name:sr-Latn":"18406 Dubovo","ref":"18406","opening_hours":"Mo-Fr 07:00-11:00; PH off","phone":"+381 27 67-100","addr:pak":"659401"},"geometry":{"type":"Point","coordinates":[21.6944150809315,43.1084200849117]}},{"type":"Feature","properties":{"amenity":"post_office","name":"18407 Житни Поток","name:sr":"18407 Житни Поток","name:sr-Latn":"18407 Žitni Potok","ref":"18407","opening_hours":"Mo-Fr 07:00-14:30; PH off","phone":"+381 27 364-100","addr:pak":"653101"},"geometry":{"type":"Point","coordinates":[21.5747851270733,43.0904103771735]}},{"type":"Feature","properties":{"amenity":"post_office","name":"18412 Житорађа","name:sr":"18412 Житорађа","name:sr-Latn":"18412 Žitorađa","ref":"18412","opening_hours":"Mo-Fr 07:30-14:00; Sa 07:30-12:00; PH off","phone":"+381 27 8362-120;+381 27 8362-130","addr:pak":"658101"},"geometry":{"type":"Point","coordinates":[21.7106860314834,43.189098386391]}},{"type":"Feature","properties":{"amenity":"post_office","name":"18413 Пејковац","name:sr":"18413 Пејковац","name:sr-Latn":"18413 Pejkovac","ref":"18413","opening_hours":"Mo-Fr 07:00-14:30; PH off","phone":"+381 27 66-100","addr:pak":"659501"},"geometry":{"type":"Point","coordinates":[21.7285763549724,43.2243602594741]}},{"type":"Feature","properties":{"amenity":"post_office","name":"18414 Доње Црнатово","name:sr":"18414 Доње Црнатово","name:sr-Latn":"18414 Donje Crnatovo","ref":"18414","opening_hours":"Mo-Fr 07:00-14:30; PH off","phone":"+381 27 65-232","addr:pak":"659701"},"geometry":{"type":"Point","coordinates":[21.7738049506545,43.1523820493669]}},{"type":"Feature","properties":{"amenity":"post_office","name":"18421 Доња Трнава","name:sr":"18421 Доња Трнава","name:sr-Latn":"18421 Donja Trnava","ref":"18421","opening_hours":"Mo,Tu,Th 07:00-11:00; PH off","phone":"+381 27 351-897","addr:pak":"653301"},"geometry":{"type":"Point","coordinates":[21.5394710982097,43.2508612091019]}},{"type":"Feature","properties":{"amenity":"post_office","name":"18423 Мала Плана","name:sr":"18423 Мала Плана","name:sr-Latn":"18423 Mala Plana","ref":"18423","opening_hours":"Mo-Fr 07:00-14:30; PH off","phone":"+381 27 343-525","addr:pak":"653401"},"geometry":{"type":"Point","coordinates":[21.483054999506,43.2418931632884]}},{"type":"Feature","properties":{"amenity":"post_office","name":"16206 Косанчић","name:sr":"16206 Косанчић","name:sr-Latn":"16206 Kosančić","ref":"16206","opening_hours":"Mo-Fr 08:00-11:00; PH off","phone":"+381 16 827670;+381 64 6658430","addr:pak":"646601"},"geometry":{"type":"Point","coordinates":[21.7804639772548,43.0890028892293]}},{"type":"Feature","properties":{"name:sr":"18402 Прокупље","opening_hours":"Mo-Fr 07:00-19:00; Sa 07:30-15:00; PH off","addr:housenumber":"251","name":"18402 Прокупље","amenity":"post_office","phone":"+381 27 323-039","ref":"18402","name:sr-Latn":"18402 Prokuplje","addr:pak":"650134","addr:street":"Ратка Павловића Ћићка"},"geometry":{"type":"Point","coordinates":[21.6023600925021,43.2396687521709]}}]}