{"type":"FeatureCollection","features":[{"type":"Feature","properties":{"amenity":"post_office","name":"37203 Здравиње","name:sr":"37203 Здравиње","name:sr-Latn":"37203 Zdravinje","ref":"37203","opening_hours":"Mo-Fr 07:00-10:00; PH off","phone":"+381 37 691-100","addr:pak":"675001"},"geometry":{"type":"Point","coordinates":[21.4547380590767,43.4885528285794]}},{"type":"Feature","properties":{"amenity":"post_office","name":"37204 Велики Шиљеговац","name:sr":"37204 Велики Шиљеговац","name:sr-Latn":"37204 Veliki Šiljegovac","ref":"37204","opening_hours":"Mo-Fr 07:00-14:00; PH off","phone":"+381 37 851-105","addr:pak":"675533"},"geometry":{"type":"Point","coordinates":[21.529306128442,43.5181415309721]}},{"type":"Feature","properties":{"amenity":"post_office","name":"37205 Рибарска Бања","name:sr":"37205 Рибарска Бања","name:sr-Latn":"37205 Ribarska Banja","ref":"37205","opening_hours":"Mo-Fr 07:30-14:30; PH off","phone":"+381 37 865-232","addr:pak":"676001"},"geometry":{"type":"Point","coordinates":[21.5066953726856,43.4258343298312]}},{"type":"Feature","properties":{"amenity":"post_office","name":"37256 Каоник","name:sr":"37256 Каоник","name:sr-Latn":"37256 Kaonik","ref":"37256","opening_hours":"Mo-Fr 07:00-14:00; PH off","phone":"+381 37 866-111","addr:pak":"674530"},"geometry":{"type":"Point","coordinates":[21.4976833891155,43.5653863981899]}},{"type":"Feature","properties":{"amenity":"post_office","name":"18203 Сечаница","name:sr":"18203 Сечаница","name:sr-Latn":"18203 Sečanica","ref":"18203","opening_hours":"Mo-Fr 07:00-11:00; PH off","phone":"+381 18 4601-319","addr:pak":"705410"},"geometry":{"type":"Point","coordinates":[21.7489743987477,43.372349969203]}},{"type":"Feature","properties":{"name:sr":"18210 Житковац","opening_hours":"Mo-Fr 07:30-14:00; Sa 07:00-12:00; PH off","addr:housenumber":"22","name":"18210 Житковац","amenity":"post_office","phone":"+381 18 518-124;+381 18 802-133","ref":"18210","name:sr-Latn":"18210 Žitkovac","addr:pak":"680143","addr:street":"Ратка Јовића"},"geometry":{"type":"Point","coordinates":[21.6952074277531,43.5079400126758]}},{"type":"Feature","properties":{"name:sr":"18212 Тешица","opening_hours":"Mo-Fr 08:00-11:00; PH off","addr:housenumber":"3","name":"18212 Тешица","amenity":"post_office","phone":"+381 18 4845-550","ref":"18212","name:sr-Latn":"18212 Tešica","addr:pak":"680402","addr:street":"Цара Душана"},"geometry":{"type":"Point","coordinates":[21.743656830278,43.4508708102771]}},{"type":"Feature","properties":{"amenity":"post_office","name":"18213 Трњане","name:sr":"18213 Трњане","name:sr-Latn":"18213 Trnjane","ref":"18213","opening_hours":"Mo-Fr 08:00-11:00; PH off","phone":"+381 18 4844-571","addr:pak":"680610"},"geometry":{"type":"Point","coordinates":[21.6304605564531,43.5399465169123]}},{"type":"Feature","properties":{"amenity":"post_office","name":"18214 Кулина","name:sr":"18214 Кулина","name:sr-Latn":"18214 Kulina","ref":"18214","opening_hours":"Mo,We,Fr 07:00-10:00; PH off","phone":"+381 18 613-900","addr:pak":"680910"},"geometry":{"type":"Point","coordinates":[21.6170660712027,43.4267291121002]}},{"type":"Feature","properties":{"amenity":"post_office","name":"18216 Корман","name:sr":"18216 Корман","name:sr-Latn":"18216 Korman","ref":"18216","opening_hours":"Mo,We,Fr 07:00-11:00; PH off","phone":"+381 18 4844-562","addr:pak":"681010"},"geometry":{"type":"Point","coordinates":[21.6120748415373,43.5537724939433]}},{"type":"Feature","properties":{"name:sr":"18220 Алексинац","opening_hours":"Mo-Fr 07:00-18:00; Sa 07:00-14:00; PH off","addr:housenumber":"125","name":"18220 Алексинац","amenity":"post_office","phone":"+381 18 518-154;+381 18 518-153;+381 18 802-151","ref":"18220","name:sr-Latn":"18220 Aleksinac","addr:pak":"683003","addr:street":"Књаза Милоша"},"geometry":{"type":"Point","coordinates":[21.7092413780111,43.5397171773085]}},{"type":"Feature","properties":{"amenity":"post_office","name":"18223 Дражевац","name:sr":"18223 Дражевац","name:sr-Latn":"18223 Draževac","ref":"18223","opening_hours":"Mo-Fr 07:00-11:00; PH off","phone":"+381 18 4849-600","addr:pak":"684110"},"geometry":{"type":"Point","coordinates":[21.7910072778364,43.4500999790174]}},{"type":"Feature","properties":{"amenity":"post_office","name":"18225 Катун","name:sr":"18225 Катун","name:sr-Latn":"18225 Katun","ref":"18225","opening_hours":"Mo-Fr 07:30-11:00; PH off","phone":"+381 18 4848-106","addr:pak":"684410"},"geometry":{"type":"Point","coordinates":[21.7857485749102,43.4930188337494]}},{"type":"Feature","properties":{"name:sr":"18226 Алексиначки Рудник","opening_hours":"Tu,Th 07:00-11:00; PH off","addr:housenumber":"1","name":"18226 Алексиначки Рудник","amenity":"post_office","phone":"+381 18 801-830","ref":"18226","name:sr-Latn":"18226 Aleksinački Rudnik","addr:pak":"684911","addr:street":"Трг рудара"},"geometry":{"type":"Point","coordinates":[21.690269216373,43.5569429617811]}},{"type":"Feature","properties":{"amenity":"post_office","name":"18258 Крајковац","name:sr":"18258 Крајковац","name:sr-Latn":"18258 Krajkovac","ref":"18258","opening_hours":"Mo-Fr 07:00-10:00; PH off","phone":"+381 18 897-218","addr:pak":"695210"},"geometry":{"type":"Point","coordinates":[21.6561344373362,43.3399061634373]}},{"type":"Feature","properties":{"amenity":"post_office","name":"18405 Џигољ","name:sr":"18405 Џигољ","name:sr-Latn":"18405 DŽigolj","ref":"18405","opening_hours":"Mo-Fr 07:00-10:00; PH off","phone":"+381 27 52-600","addr:pak":"652801"},"geometry":{"type":"Point","coordinates":[21.5677492749127,43.3300442384092]}},{"type":"Feature","properties":{"amenity":"post_office","name":"18221 Врћеновица","name:sr":"18221 Врћеновица","name:sr-Latn":"18221 Vrćenovica","ref":"18221","opening_hours":"Mo-Fr 07:00-11:00; PH off","phone":"+381 18 613-500","addr:pak":"683910"},"geometry":{"type":"Point","coordinates":[21.6720142546002,43.4329177131921]}}]}