{"type":"FeatureCollection","features":[{"type":"Feature","properties":{"name:sr":"35247 Плана","opening_hours":"Mo-Fr 07:00-11:00; PH off","addr:housenumber":"ББ","name":"35247 Плана","amenity":"post_office","phone":"+381 35 532-400","ref":"35247","name:sr-Latn":"35247 Plana","addr:pak":"593113","addr:street":"Иве Андрића"},"geometry":{"type":"Point","coordinates":[21.544870879492,43.8208994722373]}},{"type":"Feature","properties":{"amenity":"post_office","name":"35249 Бусиловац","name:sr":"35249 Бусиловац","name:sr-Latn":"35249 Busilovac","ref":"35249","opening_hours":"Mo-Fr 07:00-13:00; PH off","phone":"+381 35 8542-013","addr:pak":"593304"},"geometry":{"type":"Point","coordinates":[21.4819626192001,43.7985173335694]}},{"type":"Feature","properties":{"amenity":"post_office","name":"37202 Ђунис","name:sr":"37202 Ђунис","name:sr-Latn":"37202 Đunis","ref":"37202","opening_hours":"Mo-Fr 07:00-10:00; PH off","phone":"+381 37 867-110","addr:pak":"674602"},"geometry":{"type":"Point","coordinates":[21.5098045395748,43.5869000599476]}},{"type":"Feature","properties":{"amenity":"post_office","name":"37213 Витошевац","name:sr":"37213 Витошевац","name:sr-Latn":"37213 Vitoševac","ref":"37213","opening_hours":"Mo-Fr 07:00-14:00; PH off","phone":"+381 37 845-226","addr:pak":"669801"},"geometry":{"type":"Point","coordinates":[21.5833200817194,43.7472710652718]}},{"type":"Feature","properties":{"name:sr":"37214 Појате","opening_hours":"Mo,We,Fr 07:00-11:00; PH off","addr:housenumber":"58","name":"37214 Појате","amenity":"post_office","phone":"+381 37 805-100","ref":"37214","name:sr-Latn":"37214 Pojate","addr:pak":"669441","addr:street":"Краља Александра"},"geometry":{"type":"Point","coordinates":[21.4548190251794,43.7406383355183]}},{"type":"Feature","properties":{"name:sr":"37215 Ражањ","opening_hours":"Mo-Fr 07:00-14:00; Sa 08:00-13:00; PH off","addr:housenumber":"2","name":"37215 Ражањ","amenity":"post_office","phone":"+381 37 841-200","ref":"37215","name:sr-Latn":"37215 Ražanj","addr:pak":"669557","addr:street":"Михајла Вујића"},"geometry":{"type":"Point","coordinates":[21.5499026474324,43.6723713414972]}},{"type":"Feature","properties":{"name:sr":"37216 Нови Брачин","opening_hours":"Mo-Fr 07:00-10:00; PH off","addr:housenumber":"ББ","name":"37216 Нови Брачин","amenity":"post_office","phone":"+381 37 842-100","ref":"37216","name:sr-Latn":"37216 Novi Bračin","addr:pak":"669905","addr:street":"Нови Брачин"},"geometry":{"type":"Point","coordinates":[21.509408645585,43.7494209000895]}},{"type":"Feature","properties":{"name:sr":"18224 Рутевац","opening_hours":"Mo-Fr 07:00-11:00; PH off","addr:housenumber":"50","name":"18224 Рутевац","amenity":"post_office","phone":"+381 18 802-334","ref":"18224","name:sr-Latn":"18224 Rutevac","addr:pak":"684204","addr:street":"Партизанска"},"geometry":{"type":"Point","coordinates":[21.6136250967966,43.5926322104112]}},{"type":"Feature","properties":{"name:sr":"18227 Суботинац","opening_hours":"Mo-Fr 07:00-10:00; PH off","addr:housenumber":"ББ","name":"18227 Суботинац","amenity":"post_office","phone":"+381 18 877-410","ref":"18227","name:sr-Latn":"18227 Subotinac","addr:pak":"684506","addr:street":"Банета Савића"},"geometry":{"type":"Point","coordinates":[21.7018276656871,43.6034949632805]}},{"type":"Feature","properties":{"name:sr":"18229 Мозгово","opening_hours":"Mo-Fr 07:00-10:00; PH off","addr:housenumber":"54","name":"18229 Мозгово","amenity":"post_office","phone":"+381 18 840-010","ref":"18229","name:sr-Latn":"18229 Mozgovo","addr:pak":"684706","addr:street":"Леле Поповић"},"geometry":{"type":"Point","coordinates":[21.6626433986549,43.6577280328739]}},{"type":"Feature","properties":{"amenity":"post_office","name":"18234 Јошаница","name:sr":"18234 Јошаница","name:sr-Latn":"18234 Jošanica","ref":"18234","opening_hours":"Mo,We,Fr 07:00-10:00; PH off","phone":"+381 18 836-250","addr:pak":"686910"},"geometry":{"type":"Point","coordinates":[21.7731209701779,43.7268084907504]}},{"type":"Feature","properties":{"amenity":"post_office","name":"37218 Скорица","name:sr":"37218 Скорица","name:sr-Latn":"37218 Skorica","ref":"37218","opening_hours":"Mo-Fr 08:00-11:00; PH off","phone":"+381 37 847110","addr:pak":"669841"},"geometry":{"type":"Point","coordinates":[21.5638730547008,43.7885623282212]}}]}