{"type":"FeatureCollection","features":[{"type":"Feature","properties":{"name:sr":"22240 Шид","opening_hours":"Mo-Fr 08:00-19:00; Sa 08:00-14:00; PH off","addr:housenumber":"1","name":"22240 Шид","amenity":"post_office","phone":"+381 22 600-680;+381 22 711-144","ref":"22240","name:sr-Latn":"22240 Šid","addr:pak":"326406","addr:street":"Карађорђева"},"geometry":{"type":"Point","coordinates":[19.2266051867285,45.1279334975202]}},{"type":"Feature","properties":{"name:sr":"22241 Вашица","opening_hours":"Mo-Fr 07:00-14:00; PH off","addr:housenumber":"2","name":"22241 Вашица","amenity":"post_office","phone":"+381 22 731-612","ref":"22241","name:sr-Latn":"22241 Vašica","addr:pak":"329182","addr:street":"Вука Караџића"},"geometry":{"type":"Point","coordinates":[19.1855570467944,45.095022252573]}},{"type":"Feature","properties":{"name:sr":"22242 Беркасово","opening_hours":"Mo-Fr 07:00-10:30; PH off","addr:housenumber":"1","name":"22242 Беркасово","amenity":"post_office","phone":"+381 22 718-112","ref":"22242","name:sr-Latn":"22242 Berkasovo","addr:pak":"327450","addr:street":"Светог Саве"},"geometry":{"type":"Point","coordinates":[19.2633341671538,45.1502666565842]}},{"type":"Feature","properties":{"name:sr":"22243 Сот","opening_hours":"Mo,We,Fr 07:30-12:00; PH off","addr:housenumber":"1","name":"22243 Сот","amenity":"post_office","phone":"+381 22 2741-013","ref":"22243","name:sr-Latn":"22243 Sot","addr:pak":"329505","addr:street":"Маршала Тита"},"geometry":{"type":"Point","coordinates":[19.3188076681848,45.1583433639428]}},{"type":"Feature","properties":{"name:sr":"22250 Илинци","opening_hours":"Mo,We,Fr 07:30-12:00; PH off","addr:housenumber":"2","name":"22250 Илинци","amenity":"post_office","phone":"+381 22 732-131","ref":"22250","name:sr-Latn":"22250 Ilinci","addr:pak":"329290","addr:street":"Пролетерска"},"geometry":{"type":"Point","coordinates":[19.1246978310348,45.113835893676]}},{"type":"Feature","properties":{"name:sr":"22254 Бикић До","opening_hours":"Mo,We,Fr 07:30-12:00; PH off","addr:housenumber":"25","name":"22254 Бикић До","amenity":"post_office","phone":"+381 22 739-125","ref":"22254","name:sr-Latn":"22254 Bikić Do","addr:pak":"329610","addr:street":"Чапајева"},"geometry":{"type":"Point","coordinates":[19.2899432034323,45.1534196838916]}},{"type":"Feature","properties":{"name:sr":"22256 Моловин","opening_hours":"Tu,Th 07:30-12:00; PH off","addr:housenumber":"34","name":"22256 Моловин","amenity":"post_office","phone":"+381 22 2741-010","ref":"22256","name:sr-Latn":"22256 Molovin","addr:pak":"329709","addr:street":"Фрушкогорска"},"geometry":{"type":"Point","coordinates":[19.3128060871026,45.1822505715021]}},{"type":"Feature","properties":{"name:sr":"22257 Привина Глава","opening_hours":"Tu,Th 07:30-12:00; PH off","addr:housenumber":"10","name":"22257 Привина Глава","amenity":"post_office","phone":"+381 22 739-141","ref":"22257","name:sr-Latn":"22257 Privina Glava","addr:pak":"329884","addr:street":"ЈНА"},"geometry":{"type":"Point","coordinates":[19.2975644809956,45.1393804605225]}},{"type":"Feature","properties":{"name:sr":"22258 Гибарац","opening_hours":"Mo-Fr 07:30-12:00; PH off","addr:housenumber":"6","name":"22258 Гибарац","amenity":"post_office","phone":"+381 22 2713-605","ref":"22258","name:sr-Latn":"22258 Gibarac","addr:pak":"327304","addr:street":"Карађорђева"},"geometry":{"type":"Point","coordinates":[19.2673497834146,45.1052001090793]}},{"type":"Feature","properties":{"name:sr":"21421 Карађорђево","opening_hours":"Tu,Th 07:00-11:00; PH off","addr:housenumber":"13","name":"21421 Карађорђево","amenity":"post_office","phone":"+381 21 765-003","ref":"21421","name:sr-Latn":"21421 Karađorđevo","addr:pak":"393421","addr:street":"Краља Петра првог"},"geometry":{"type":"Point","coordinates":[19.3036882123752,45.2936391589606]}},{"type":"Feature","properties":{"name:sr":"21422 Младеново","opening_hours":"Mo-Fr 08:00-14:00; PH off","addr:housenumber":"13","name":"21422 Младеново","amenity":"post_office","phone":"+381 21 2067-002","ref":"21422","name:sr-Latn":"21422 Mladenovo","addr:pak":"393567","addr:street":"Младена Стојановића"},"geometry":{"type":"Point","coordinates":[19.2618548094516,45.3047240858258]}},{"type":"Feature","properties":{"amenity":"post_office","name":"21429 Бачко Ново Село","name:sr":"21429 Бачко Ново Село","name:sr-Latn":"21429 Bačko Novo Selo","ref":"21429","opening_hours":"Mo-Fr 08:00-11:00; PH off","phone":"+381 21 779-002","addr:pak":"390501"},"geometry":{"type":"Point","coordinates":[19.1414853974908,45.2939801582657]}},{"type":"Feature","properties":{"name:sr":"22239 Шид","opening_hours":"Mo-Fr 09:00-16:00; PH off","addr:housenumber":"5","name":"22239 Шид","amenity":"post_office","phone":"+381 22 711-797","ref":"22239","name:sr-Latn":"22239 Šid","addr:pak":"326389","addr:street":"Насеље Исток"},"geometry":{"type":"Point","coordinates":[19.2412552544307,45.1223856483712]}},{"type":"Feature","properties":{"amenity":"post_office","name":"22260 Шид","name:sr":"22260 Шид","name:sr-Latn":"22260 Šid","ref":"22260","opening_hours":"Mo-Su,PH 00:00-24:00","phone":"+381 22 716-869","addr:pak":"326580"},"geometry":{"type":"Point","coordinates":[19.1754332690336,45.154572255245]}}]}