{"type":"FeatureCollection","features":[{"type":"Feature","properties":{"amenity":"post_office","name":"35215 Стењевац","name:sr":"35215 Стењевац","name:sr-Latn":"35215 Stenjevac","ref":"35215","opening_hours":"Mo-Fr 08:00-11:00; PH off","phone":"+381 35 8633-000","addr:pak":"599201"},"geometry":{"type":"Point","coordinates":[21.5334634519914,44.0861820536614]}},{"type":"Feature","properties":{"name:sr":"35233 Сење","opening_hours":"Mo-Fr 08:00-11:00; PH off","addr:housenumber":"ББ","name":"35233 Сење","amenity":"post_office","phone":"+381 35 434-500","ref":"35233","name:sr-Latn":"35233 Senje","addr:pak":"596410","addr:street":"Центар"},"geometry":{"type":"Point","coordinates":[21.4827693524509,43.964891007109]}},{"type":"Feature","properties":{"amenity":"post_office","name":"35234 Сењски Рудник","name:sr":"35234 Сењски Рудник","name:sr-Latn":"35234 Senjski Rudnik","ref":"35234","opening_hours":"Mo-Fr 07:00-10:00; PH off","phone":"+381 35 620-700","addr:pak":"599601"},"geometry":{"type":"Point","coordinates":[21.5716008900403,43.9947309588917]}},{"type":"Feature","properties":{"name:sr":"35237 Ресавица","opening_hours":"Mo-Fr 08:00-15:00; PH off","addr:housenumber":"7","name":"35237 Ресавица","amenity":"post_office","phone":"+381 35 627-660","ref":"35237","name:sr-Latn":"35237 Resavica","addr:pak":"599701","addr:street":"Шести август"},"geometry":{"type":"Point","coordinates":[21.5811079480535,44.0390444123449]}},{"type":"Feature","properties":{"amenity":"post_office","name":"35238 Бигреница","name:sr":"35238 Бигреница","name:sr-Latn":"35238 Bigrenica","ref":"35238","opening_hours":"Mo-Fr 08:00-11:00; PH off","phone":"+381 35 429-519","addr:pak":"595101"},"geometry":{"type":"Point","coordinates":[21.4633926942031,44.0179253120367]}},{"type":"Feature","properties":{"amenity":"post_office","name":"35254 Поповац","name:sr":"35254 Поповац","name:sr-Latn":"35254 Popovac","ref":"35254","opening_hours":"Mo-Fr 07:00-14:00; PH off","phone":"+381 35 541-018","addr:pak":"592001"},"geometry":{"type":"Point","coordinates":[21.5033562148688,43.9073626079096]}},{"type":"Feature","properties":{"amenity":"post_office","name":"35255 Доња Мутница","name:sr":"35255 Доња Мутница","name:sr-Latn":"35255 Donja Mutnica","ref":"35255","opening_hours":"Mo-Fr 07:00-14:00; PH off","phone":"+381 35 540-583","addr:pak":"592340"},"geometry":{"type":"Point","coordinates":[21.5594649600947,43.8534194879063]}}]}