{"type":"FeatureCollection","features":[{"type":"Feature","properties":{"amenity":"post_office","name":"12309 Шетоње","name:sr":"12309 Шетоње","name:sr-Latn":"12309 Šetonje","ref":"12309","opening_hours":"Mo-Fr 08:00-14:00; PH off","phone":"+381 12 347400","addr:pak":"282801"},"geometry":{"type":"Point","coordinates":[21.4738462830446,44.2736723112621]}},{"type":"Feature","properties":{"amenity":"post_office","name":"12316 Крепољин","name:sr":"12316 Крепољин","name:sr-Latn":"12316 Krepoljin","ref":"12316","opening_hours":"Mo-Fr 08:00-14:00; Sa 08:00-12:00; PH off","phone":"+381 12 7642103","addr:pak":"284402"},"geometry":{"type":"Point","coordinates":[21.602786786737,44.2583813095366]}},{"type":"Feature","properties":{"amenity":"post_office","name":"12317 Осаница","name:sr":"12317 Осаница","name:sr-Latn":"12317 Osanica","ref":"12317","opening_hours":"Mo-Sa 08:00-13:00; PH off","phone":"+381 12 630213","addr:pak":"285102"},"geometry":{"type":"Point","coordinates":[21.6701199140345,44.2803606879776]}},{"type":"Feature","properties":{"name:sr":"12318 Вуковац","opening_hours":"Mo-Fr 07:00-14:00; PH off","addr:housenumber":"ББ","name":"12318 Вуковац","amenity":"post_office","phone":"+381 12 645214","ref":"12318","name:sr-Latn":"12318 Vukovac","addr:pak":"285202","addr:street":"Млавска"},"geometry":{"type":"Point","coordinates":[21.7148090203111,44.2337519877489]}},{"type":"Feature","properties":{"name:sr":"12320 Жагубица","opening_hours":"Mo-Fr 08:00-14:00; Sa 08:00-12:00; PH off","addr:housenumber":"17","name":"12320 Жагубица","amenity":"post_office","phone":"+381 12 643102;+381 12 643585","ref":"12320","name:sr-Latn":"12320 Žagubica","addr:pak":"284002","addr:street":"Краља Милана"},"geometry":{"type":"Point","coordinates":[21.7849670181544,44.1977627316591]}},{"type":"Feature","properties":{"amenity":"post_office","name":"12322 Суви До","name:sr":"12322 Суви До","name:sr-Latn":"12322 Suvi Do","ref":"12322","opening_hours":"Mo-Fr 07:00-13:00; PH off","phone":"+381 12 632113","addr:pak":"285802"},"geometry":{"type":"Point","coordinates":[21.7285790968582,44.2068916658979]}}]}