{"type":"FeatureCollection","features":[{"type":"Feature","properties":{"name:sr":"12220 Велико Градиште","opening_hours":"Mo-Fr 08:00-14:00; Sa 08:00-12:00; PH off","addr:housenumber":"15","name":"12220 Велико Градиште","amenity":"post_office","phone":"+381 12 663029;+381 12 662212","ref":"12220","name:sr-Latn":"12220 Veliko Gradište","addr:pak":"295101","addr:street":"кнеза Лазара"},"geometry":{"type":"Point","coordinates":[21.5178054444185,44.7649523177129]}},{"type":"Feature","properties":{"amenity":"post_office","name":"12222 Браничево","name:sr":"12222 Браничево","name:sr-Latn":"12222 Braničevo","ref":"12222","opening_hours":"Mo-Fr 08:00-14:00; PH off","phone":"+381 12 666840","addr:pak":"298101"},"geometry":{"type":"Point","coordinates":[21.5360886926436,44.6998834391721]}},{"type":"Feature","properties":{"amenity":"post_office","name":"12223 Голубац","name:sr":"12223 Голубац","name:sr-Latn":"12223 Golubac","ref":"12223","opening_hours":"Mo-Fr 08:00-14:00; Sa 08:00-12:00; PH off","phone":"+381 12 678262;+381 12 678208","addr:pak":"297101"},"geometry":{"type":"Point","coordinates":[21.6276086230278,44.6537463342341]}},{"type":"Feature","properties":{"amenity":"post_office","name":"12253 Средњево","name:sr":"12253 Средњево","name:sr-Latn":"12253 Srednjevo","ref":"12253","opening_hours":"Mo-Fr 08:00-14:00; PH off","phone":"+381 12 667209","addr:pak":"296301"},"geometry":{"type":"Point","coordinates":[21.4933506126447,44.6452886761317]}},{"type":"Feature","properties":{"amenity":"post_office","name":"12258 Клење","name:sr":"12258 Клење","name:sr-Latn":"12258 Klenje","ref":"12258","opening_hours":"Mo-Fr 07:00-12:00; PH off","phone":"+381 12 887180","addr:pak":"298601"},"geometry":{"type":"Point","coordinates":[21.5300632865682,44.6012837535058]}}]}