{"type":"FeatureCollection","features":[{"type":"Feature","properties":{"name:sr":"17501 Врање 1","opening_hours":"Mo-Fr 07:00-19:00; Sa 08:00-16:00; PH off","addr:housenumber":"49","name":"17501 Врање 1","amenity":"post_office","phone":"+381 17 407-015;+381 17 407-013","ref":"17501","name:sr-Latn":"17501 Vranje 1","addr:pak":"630402","addr:street":"Краља Стефана Првовенчаног"},"geometry":{"type":"Point","coordinates":[21.8993696543903,42.5514861402458]}},{"type":"Feature","properties":{"amenity":"post_office","name":"17521 Ристовац","name:sr":"17521 Ристовац","name:sr-Latn":"17521 Ristovac","ref":"17521","opening_hours":"Mo-Fr 08:00-14:30; PH off","phone":"+381 17 50-270","addr:pak":"635001"},"geometry":{"type":"Point","coordinates":[21.8425116874292,42.4671633077811]}},{"type":"Feature","properties":{"amenity":"post_office","name":"17524 Кленике","name:sr":"17524 Кленике","name:sr-Latn":"17524 Klenike","ref":"17524","opening_hours":"Mo,Tu,We,Th 07:00-11:00; Fr 07:00-15:00; PH off","phone":"+381 17 58-102","addr:pak":"634651"},"geometry":{"type":"Point","coordinates":[21.8892264717271,42.3881429534365]}},{"type":"Feature","properties":{"name:sr":"17525 Трговиште","opening_hours":"Mo-Fr 08:00-15:00; Sa 08:00-12:30; PH off","addr:housenumber":"4","name":"17525 Трговиште","amenity":"post_office","phone":"+381 17 452-130","ref":"17525","name:sr-Latn":"17525 Trgovište","addr:pak":"637701","addr:street":"Осма српска ударна бригада"},"geometry":{"type":"Point","coordinates":[22.0844237809355,42.3635613776308]}},{"type":"Feature","properties":{"amenity":"post_office","name":"17542 Врањска Бања","name:sr":"17542 Врањска Бања","name:sr-Latn":"17542 Vranjska Banja","ref":"17542","opening_hours":"Mo-Fr 08:00-14:30; Sa 08:00-12:30; PH off","phone":"+381 17 407-057","addr:pak":"632501"},"geometry":{"type":"Point","coordinates":[22.0016444726585,42.5469650356353]}},{"type":"Feature","properties":{"amenity":"post_office","name":"17503 Врање 3","name:sr":"17503 Врање 3","name:sr-Latn":"17503 Vranje 3","ref":"17503","opening_hours":"Mo-Fr 07:00-19:00; Sa 07:00-15:00; PH off","phone":"+381 17 7413-337;+381 17 7424-997","addr:pak":"630922"},"geometry":{"type":"Point","coordinates":[21.8997281649097,42.5451002246502]}},{"type":"Feature","properties":{"name:sr":"17504 Врање 4","opening_hours":"Mo-Fr 07:00-14:30; PH off","addr:housenumber":"1","name":"17504 Врање 4","amenity":"post_office","phone":"+381 17 417-121","ref":"17504","name:sr-Latn":"17504 Vranje 4","addr:pak":"631245","addr:street":"Милентија Поповића"},"geometry":{"type":"Point","coordinates":[21.884184874065,42.5471482521473]}}]}