{"type":"FeatureCollection","features":[{"type":"Feature","properties":{"amenity":"post_office","name":"17507 Власе","name:sr":"17507 Власе","name:sr-Latn":"17507 Vlase","ref":"17507","opening_hours":"Mo,Tu,We 08:30-12:00; Th 08:00-14:30; Fr 08:30-12:00; PH off","phone":"+381 17 7457-343","addr:pak":"632921"},"geometry":{"type":"Point","coordinates":[21.8670040806399,42.6968082163253]}},{"type":"Feature","properties":{"name:sr":"17510 Владичин Хан","opening_hours":"Mo-Fr 08:00-17:00; Sa 08:00-13:00; PH off","addr:housenumber":"39","name":"17510 Владичин Хан","amenity":"post_office","phone":"+381 17 407-050","ref":"17510","name:sr-Latn":"17510 Vladičin Han","addr:pak":"633201","addr:street":"Светосавска"},"geometry":{"type":"Point","coordinates":[22.0609389707832,42.7095752356974]}},{"type":"Feature","properties":{"amenity":"post_office","name":"17513 Лепеница","name:sr":"17513 Лепеница","name:sr-Latn":"17513 Lepenica","ref":"17513","opening_hours":"Mo-Sa 07:30-14:00; PH off","phone":"+381 17 476-899","addr:pak":"633921"},"geometry":{"type":"Point","coordinates":[22.0453369582001,42.6613638599216]}},{"type":"Feature","properties":{"amenity":"post_office","name":"17514 Џеп","name:sr":"17514 Џеп","name:sr-Latn":"17514 Džep","ref":"17514","opening_hours":"Mo 07:00-11:00; Tu 07:00-14:30; We 07:00-11:00; Th 07:00-14:30; Fr 07:00-11:00; PH off","phone":"+381 17 479-109","addr:pak":"634001"},"geometry":{"type":"Point","coordinates":[22.0878406710145,42.7678136060657]}},{"type":"Feature","properties":{"amenity":"post_office","name":"17531 Јелашница","name:sr":"17531 Јелашница","name:sr-Latn":"17531 Jelašnica","ref":"17531","opening_hours":"Mo-Fr 07:00-15:00; PH off","phone":"+381 17 476-266","addr:pak":"638502"},"geometry":{"type":"Point","coordinates":[22.0940411310326,42.6423982514761]}},{"type":"Feature","properties":{"amenity":"post_office","name":"17545 Корбевац","name:sr":"17545 Корбевац","name:sr-Latn":"17545 Korbevac","ref":"17545","opening_hours":"Tu,Th 09:00-12:00; PH off","phone":"+381 17 448-230","addr:pak":"632621"},"geometry":{"type":"Point","coordinates":[22.0339487247679,42.5862144807599]}},{"type":"Feature","properties":{"amenity":"post_office","name":"17512 Стубал","name:sr":"17512 Стубал","name:sr-Latn":"17512 Stubal","ref":"17512","opening_hours":"Mo-Fr 08:00-11:00; PH off","phone":"+381 17 484-427","addr:pak":"633811"},"geometry":{"type":"Point","coordinates":[22.0337982823611,42.6359657565427]}},{"type":"Feature","properties":{"name:sr":"17505 Врање 5","opening_hours":"Mo 08:00-14:30; Tu 08:00-13:30; We,Th 08:00-14:30; Fr 08:00-13:30; PH off","addr:housenumber":"1","name":"17505 Врање 5","amenity":"post_office","phone":"+381 17 416-601","ref":"17505","name:sr-Latn":"17505 Vranje 5","addr:pak":"630315","addr:street":"Краља Милана"},"geometry":{"type":"Point","coordinates":[21.8978909847275,42.5561973109851]}},{"type":"Feature","properties":{"amenity":"post_office","name":"17517 Житорађе","name:sr":"17517 Житорађе","name:sr-Latn":"17517 Žitorađe","ref":"17517","opening_hours":"Mo-Fr 07:00-11:00; PH off","phone":"+381 17 470099","addr:pak":"633478"},"geometry":{"type":"Point","coordinates":[22.1171957355241,42.7092507419414]}},{"type":"Feature","properties":{"name:sr":"17506 Врање 6","opening_hours":"Mo-Fr 08:30-15:30; Sa 08:00-12:00; PH off","addr:housenumber":"1","name":"17506 Врање 6","amenity":"post_office","phone":"+381 17 410-878","ref":"17506","name:sr-Latn":"17506 Vranje 6","addr:pak":"630362","addr:street":"Трг Слободе"},"geometry":{"type":"Point","coordinates":[21.9012570023106,42.5601548661197]}}]}