{"type":"FeatureCollection","features":[{"type":"Feature","properties":{"name:sr":"16000 Лесковац","opening_hours":"Mo-Fr 07:00-19:00; Sa 07:00-15:00; PH off","addr:housenumber":"ББ","name":"16000 Лесковац","amenity":"post_office","phone":"+381 16 230740;+381 16 230720","ref":"16000","name:sr-Latn":"16000 Leskovac","addr:pak":"640641","addr:street":"Краља Петра првог"},"geometry":{"type":"Point","coordinates":[21.9434570368148,42.9941842479556]}},{"type":"Feature","properties":{"name:sr":"16104 Лесковац","opening_hours":"Mo-Fr 08:00-15:00; Sa 08:00-13:00; PH off","addr:housenumber":"9","name":"16104 Лесковац","amenity":"post_office","phone":"+381 16 255215;+381 16 253966","ref":"16104","name:sr-Latn":"16104 Leskovac","addr:pak":"640403","addr:street":"Косте Стаменковића"},"geometry":{"type":"Point","coordinates":[21.9481906126524,42.9947919076912]}},{"type":"Feature","properties":{"name:sr":"16106 Лесковац","opening_hours":"Mo-Fr 08:00-15:00; PH off","addr:housenumber":"98","name":"16106 Лесковац","amenity":"post_office","phone":"+381 16 252246","ref":"16106","name:sr-Latn":"16106 Leskovac","addr:pak":"640706","addr:street":"Булевар ослобођења"},"geometry":{"type":"Point","coordinates":[21.950790066697,42.9961018876457]}},{"type":"Feature","properties":{"name:sr":"16203 Вучје","opening_hours":"Mo-Fr 07:00-14:00; PH off","addr:housenumber":"ББ","name":"16203 Вучје","amenity":"post_office","phone":"+381 16 3427001","ref":"16203","name:sr-Latn":"16203 Vučje","addr:pak":"643889","addr:street":"Косте Стаменковића"},"geometry":{"type":"Point","coordinates":[21.9116677554433,42.8656345018379]}},{"type":"Feature","properties":{"name:sr":"16210 Власотинце","opening_hours":"Mo-Fr 08:00-17:00; Sa 08:00-13:00; PH off","addr:housenumber":"1","name":"16210 Власотинце","amenity":"post_office","phone":"+381 16 875138;+381 16 875844","ref":"16210","name:sr-Latn":"16210 Vlasotince","addr:pak":"645401","addr:street":"Душанова"},"geometry":{"type":"Point","coordinates":[22.127187839831,42.9642831044559]}},{"type":"Feature","properties":{"name:sr":"16220 Грделица","opening_hours":"Mo-Fr 07:30-14:30; PH off","addr:housenumber":"ББ","name":"16220 Грделица","amenity":"post_office","phone":"+381 16 3426037;+381 16 3426724","ref":"16220","name:sr-Latn":"16220 Grdelica","addr:pak":"644104","addr:street":"Двадесетдеветог новембра"},"geometry":{"type":"Point","coordinates":[22.0728487145605,42.8923611556782]}},{"type":"Feature","properties":{"name:sr":"16105 Лесковац","opening_hours":"Mo-Fr 08:00-14:00; Sa 08:00-13:00; PH off","addr:housenumber":"4","name":"16105 Лесковац","amenity":"post_office","phone":"+381 16 216169","ref":"16105","name:sr-Latn":"16105 Leskovac","addr:pak":"641922","addr:street":"Мајора Тепића"},"geometry":{"type":"Point","coordinates":[21.9328390353007,42.9995173547873]}},{"type":"Feature","properties":{"name:sr":"16107 Лесковац","opening_hours":"Mo-Fr 07:00-14:00; PH off","addr:housenumber":"3","name":"16107 Лесковац","amenity":"post_office","phone":"+381 16 216731;+381 16 214727","ref":"16107","name:sr-Latn":"16107 Leskovac","addr:pak":"640222","addr:street":"Радничка"},"geometry":{"type":"Point","coordinates":[21.9527614930148,42.9858604949588]}},{"type":"Feature","properties":{"name:sr":"16222 Предејане","opening_hours":"Mo-Fr 07:00-14:00; PH off","addr:housenumber":"117","name":"16222 Предејане","amenity":"post_office","phone":"+381 16 3406160","ref":"16222","name:sr-Latn":"16222 Predejane","addr:pak":"644512","addr:street":"Маршала Тита"},"geometry":{"type":"Point","coordinates":[22.1312665015173,42.8272449238288]}},{"type":"Feature","properties":{"amenity":"post_office","name":"16221 Велика Грабовница","name:sr":"16221 Велика Грабовница","name:sr-Latn":"16221 Velika Grabovnica","ref":"16221","opening_hours":"Mo-Fr 07:00-14:00; PH off","phone":"+381 16 3481903","addr:pak":"644310"},"geometry":{"type":"Point","coordinates":[22.0111158245225,42.9253730060464]}},{"type":"Feature","properties":{"amenity":"post_office","name":"16204 Мирошевце","name:sr":"16204 Мирошевце","name:sr-Latn":"16204 Miroševce","ref":"16204","opening_hours":"Mo-Fr 08:00-15:00; PH off","phone":"+381 16 3487155","addr:pak":"644004"},"geometry":{"type":"Point","coordinates":[21.8385802307895,42.8638024456051]}},{"type":"Feature","properties":{"amenity":"post_office","name":"16201 Манојловце","name:sr":"16201 Манојловце","name:sr-Latn":"16201 Manojlovce","ref":"16201","opening_hours":"Mo-Fr 07:00-14:00; PH off","phone":"+381 16 785200","addr:pak":"643766"},"geometry":{"type":"Point","coordinates":[22.0175221894104,43.0152341578145]}},{"type":"Feature","properties":{"amenity":"post_office","name":"16231 Турековац","name:sr":"16231 Турековац","name:sr-Latn":"16231 Turekovac","ref":"16231","opening_hours":"Mo-Fr 07:00-11:00; PH off","phone":"+381 16 796006","addr:pak":"644602"},"geometry":{"type":"Point","coordinates":[21.8810808267753,42.9836912903103]}},{"type":"Feature","properties":{"name:sr":"16232 Бошњаце","opening_hours":"Mo-Fr 07:00-14:00; PH off","addr:housenumber":"ББ","name":"16232 Бошњаце","amenity":"post_office","phone":"+381 16 855600","ref":"16232","name:sr-Latn":"16232 Bošnjace","addr:pak":"647201","addr:street":"Иве Лоле Рибара"},"geometry":{"type":"Point","coordinates":[21.8286240453056,42.9491590563123]}},{"type":"Feature","properties":{"amenity":"post_office","name":"16211 Губеревац","name:sr":"16211 Губеревац","name:sr-Latn":"16211 Guberevac","ref":"16211","opening_hours":"Mo-Fr 07:00-14:00; PH off","phone":"+381 16 3488511;+381 16 3488363","addr:pak":"649734"},"geometry":{"type":"Point","coordinates":[22.0270468510063,42.9568340370915]}},{"type":"Feature","properties":{"amenity":"post_office","name":"16254 Богојевце","name:sr":"16254 Богојевце","name:sr-Latn":"16254 Bogojevce","ref":"16254","opening_hours":"Mo-Fr 07:00-13:00; PH off","phone":"+381 16 732666","addr:pak":"649004"},"geometry":{"type":"Point","coordinates":[21.9591636296488,43.0494337170925]}},{"type":"Feature","properties":{"name:sr":"16103 Лесковац 3","opening_hours":"Mo-Fr 07:00-19:00; Sa 07:00-15:00; PH off","addr:housenumber":"1","name":"16103 Лесковац 3","amenity":"post_office","phone":"+381 16 230713;+381 16 230715","ref":"16103","name:sr-Latn":"16103 Leskovac 3","addr:pak":"642202","addr:street":"Светозара Марковића"},"geometry":{"type":"Point","coordinates":[21.9570040723345,42.9962007213057]}},{"type":"Feature","properties":{"amenity":"post_office","name":"16214 Стајковце","name:sr":"16214 Стајковце","name:sr-Latn":"16214 Stajkovce","ref":"16214","opening_hours":"Mo-Fr 08:00-11:00; PH off","phone":"+381 16 3869-012","addr:pak":"645604"},"geometry":{"type":"Point","coordinates":[22.0618576333383,42.9856419042817]}},{"type":"Feature","properties":{"amenity":"post_office","name":"16202 Бунушки Чифлук","name:sr":"16202 Бунушки Чифлук","name:sr-Latn":"16202 Bunuški Čifluk","ref":"16202","opening_hours":"Mo-Fr 08:00-11:00; PH off","phone":"+381 16 3427-707","addr:pak":"643900"},"geometry":{"type":"Point","coordinates":[21.8826340042811,42.8850371400615]}}]}