{"type":"FeatureCollection","features":[{"type":"Feature","properties":{"name:sr":"18106 Ниш","opening_hours":"Mo-Fr 08:00-19:00; Sa 07:00-13:00; PH off","addr:housenumber":"26","name":"18106 Ниш","amenity":"post_office","phone":"+381 18 509-301;+381 18 509-315","ref":"18106","name:sr-Latn":"18106 Niš","addr:pak":"701001","addr:street":"Димитрија Туцовића"},"geometry":{"type":"Point","coordinates":[21.8757724520306,43.31582733302]}},{"type":"Feature","properties":{"name:sr":"18110 Ниш","opening_hours":"Mo-Fr 07:30-14:00; PH off","addr:housenumber":"19","name":"18110 Ниш","amenity":"post_office","phone":"+381 18 541-115","ref":"18110","name:sr-Latn":"18110 Niš","addr:pak":"708205","addr:street":"Заплањска"},"geometry":{"type":"Point","coordinates":[21.984250772664,43.3002004208977]}},{"type":"Feature","properties":{"name:sr":"18205 Нишка Бања","opening_hours":"Mo-Fr 08:00-18:00; Sa 08:00-13:00; PH off","addr:housenumber":"1","name":"18205 Нишка Бања","amenity":"post_office","phone":"+381 18 518-156;+381 18 4548-312","ref":"18205","name:sr-Latn":"18205 Niška Banja","addr:pak":"708140","addr:street":"Синђелићева"},"geometry":{"type":"Point","coordinates":[22.0056872596229,43.2917203479943]}},{"type":"Feature","properties":{"name:sr":"18206 Јелашница","opening_hours":"Mo-Fr 07:00-10:00; PH off","addr:housenumber":"1","name":"18206 Јелашница","amenity":"post_office","phone":"+381 18 4649-268","ref":"18206","name:sr-Latn":"18206 Jelašnica","addr:pak":"708505","addr:street":"Задругарска"},"geometry":{"type":"Point","coordinates":[22.0572245804618,43.2906852615332]}},{"type":"Feature","properties":{"name:sr":"18240 Гаџин Хан","opening_hours":"Mo-Fr 07:30-15:00; Sa 07:00-11:00; PH off","addr:housenumber":"ББ","name":"18240 Гаџин Хан","amenity":"post_office","phone":"+381 18 861-221","ref":"18240","name:sr-Latn":"18240 Gadžin Han","addr:pak":"692001","addr:street":"Милоша Обилића"},"geometry":{"type":"Point","coordinates":[22.0320772575048,43.2215749390325]}},{"type":"Feature","properties":{"amenity":"post_office","name":"18241 Горњи Барбеш","name:sr":"18241 Горњи Барбеш","name:sr-Latn":"18241 Gornji Barbeš","ref":"18241","opening_hours":"Mo,We,Fr 07:30-10:30; PH off","phone":"+381 18 4868-321","addr:pak":"692310"},"geometry":{"type":"Point","coordinates":[21.956837547659,43.2002013245123]}},{"type":"Feature","properties":{"amenity":"post_office","name":"18242 Доњи Душник","name:sr":"18242 Доњи Душник","name:sr-Latn":"18242 Donji Dušnik","ref":"18242","opening_hours":"Mo,We,Fr 07:00-10:00; PH off","phone":"+381 18 867-082","addr:pak":"692410"},"geometry":{"type":"Point","coordinates":[22.1096578494431,43.1626272818186]}},{"type":"Feature","properties":{"amenity":"post_office","name":"18245 Лички ханови","name:sr":"18245 Лички ханови","name:sr-Latn":"18245 Lički hanovi","ref":"18245","opening_hours":"Mo-Fr 07:00-10:00; PH off","phone":"+381 18 4865-365","addr:pak":"692850"},"geometry":{"type":"Point","coordinates":[22.1473417834664,43.1094513626557]}},{"type":"Feature","properties":{"amenity":"post_office","name":"18250 Ново Село","name:sr":"18250 Ново Село","name:sr-Latn":"18250 Novo Selo","ref":"18250","opening_hours":"Mo-Fr 08:00-15:00; Sa 07:00-12:00; PH off","phone":"+381 18 4513-023","addr:pak":"702842"},"geometry":{"type":"Point","coordinates":[21.8173991597641,43.3164513308151]}},{"type":"Feature","properties":{"name:sr":"18254 Доње Међурово","opening_hours":"Mo,We,Fr 08:00-11:00; PH off","addr:housenumber":"3","name":"18254 Доње Међурово","amenity":"post_office","phone":"+381 18 4268-895","ref":"18254","name:sr-Latn":"18254 Donje Međurovo","addr:pak":"702903","addr:street":"Маршала Тита"},"geometry":{"type":"Point","coordinates":[21.8290235581357,43.2977477331519]}},{"type":"Feature","properties":{"name:sr":"18255 Пуковац","opening_hours":"Mo-Fr 07:00-14:00; Sa 07:00-12:00; PH off","addr:housenumber":"94","name":"18255 Пуковац","amenity":"post_office","phone":"+381 18 813-333","ref":"18255","name:sr-Latn":"18255 Pukovac","addr:pak":"696358","addr:street":"Кнез Михајлова"},"geometry":{"type":"Point","coordinates":[21.8544928530715,43.166452717808]}},{"type":"Feature","properties":{"name:sr":"18410 Дољевац","opening_hours":"Mo-Fr 08:00-15:30; Sa 07:00-12:00; PH off","addr:housenumber":"30","name":"18410 Дољевац","amenity":"post_office","phone":"+381 18 518-157;+381 18 810-477","ref":"18410","name:sr-Latn":"18410 Doljevac","addr:pak":"696036","addr:street":"Николе Тесле"},"geometry":{"type":"Point","coordinates":[21.8333759832737,43.1983284812269]}},{"type":"Feature","properties":{"name:sr":"18411 Белотинац","opening_hours":"Mo-Fr 08:00-11:00; PH off","addr:housenumber":"49","name":"18411 Белотинац","amenity":"post_office","phone":"+381 18 818-218","ref":"18411","name:sr-Latn":"18411 Belotinac","addr:pak":"696719","addr:street":"Његошева"},"geometry":{"type":"Point","coordinates":[21.8492292540575,43.2661176757108]}},{"type":"Feature","properties":{"name:sr":"18415 Малошиште","opening_hours":"Mo-Fr 07:00-11:00; PH off","addr:housenumber":"9","name":"18415 Малошиште","amenity":"post_office","phone":"+381 18 815-699","ref":"18415","name:sr-Latn":"18415 Malošište","addr:pak":"696528","addr:street":"Трг Светог Илије"},"geometry":{"type":"Point","coordinates":[21.8522252853224,43.2367722880002]}},{"type":"Feature","properties":{"amenity":"post_office","name":"18417 Чечина","name:sr":"18417 Чечина","name:sr-Latn":"18417 Čečina","ref":"18417","opening_hours":"Mo,We,Fr 07:00-10:00; PH off","phone":"+381 18 817-511","addr:pak":"696620"},"geometry":{"type":"Point","coordinates":[21.8707850254999,43.198527548095]}},{"type":"Feature","properties":{"name:sr":"18101 Ниш","opening_hours":"Mo-Sa 07:00-19:00; Su,PH 08:00-14:00","addr:housenumber":"13","name":"18101 Ниш","amenity":"post_office","phone":"+381 18 518-013;+381 18 518-015;+381 18 518-026","ref":"18101","name:sr-Latn":"18101 Niš","addr:pak":"700106","addr:street":"Вожда Карађорђа"},"geometry":{"type":"Point","coordinates":[21.8987749227444,43.3207717713191]}},{"type":"Feature","properties":{"name:sr":"18104 Ниш","opening_hours":"Mo-Fr 07:00-19:00; Sa 07:00-13:00; PH off","addr:housenumber":"27","name":"18104 Ниш","amenity":"post_office","phone":"+381 18 524-970","ref":"18104","name:sr-Latn":"18104 Niš","addr:pak":"704126","addr:street":"Булевар 12. фебруар"},"geometry":{"type":"Point","coordinates":[21.889985294912,43.3241654022739]}},{"type":"Feature","properties":{"amenity":"post_office","name":"18105 Ниш","name:sr":"18105 Ниш","name:sr-Latn":"18105 Niš","ref":"18105","opening_hours":"Mo-Fr 08:00-19:00; Sa 08:00-13:30; PH off","phone":"+381 18 4523-780;+381 18 518-151","addr:pak":"700306"},"geometry":{"type":"Point","coordinates":[21.8952336246712,43.314231993819]}},{"type":"Feature","properties":{"name:sr":"18108 Ниш","opening_hours":"Mo-Fr 08:00-19:00; Sa 08:00-13:00; PH off","addr:housenumber":"76","name":"18108 Ниш","amenity":"post_office","phone":"+381 18 232-818;+381 18 237-190","ref":"18108","name:sr-Latn":"18108 Niš","addr:pak":"700910","addr:street":"Драгише Цветковића"},"geometry":{"type":"Point","coordinates":[21.918544501462,43.3183090145581]}},{"type":"Feature","properties":{"name:sr":"18112 Ниш","opening_hours":"Mo-Fr 10:00-17:00; Sa 08:00-14:00; PH off","addr:housenumber":"999","name":"18112 Ниш","amenity":"post_office","phone":"+381 18 518-152;+381 18 257-329","ref":"18112","name:sr-Latn":"18112 Niš","addr:pak":"700309","addr:street":"Обреновићева"},"geometry":{"type":"Point","coordinates":[21.8937384343924,43.3179703694799]}},{"type":"Feature","properties":{"name:sr":"18111 Ниш","opening_hours":"Mo-Fr 08:00-15:00; Sa 08:00-13:00; PH off","addr:housenumber":"85","name":"18111 Ниш","amenity":"post_office","phone":"+381 18 532-767","ref":"18111","name:sr-Latn":"18111 Niš","addr:pak":"700684","addr:street":"Булевар Немањића"},"geometry":{"type":"Point","coordinates":[21.9240245083826,43.3176142155614]}},{"type":"Feature","properties":{"name:sr":"16251 Печењевце","opening_hours":"Mo-Fr 07:30-14:30; PH off","addr:housenumber":"55","name":"16251 Печењевце","amenity":"post_office","phone":"+381 16 791110","ref":"16251","name:sr-Latn":"16251 Pečenjevce","addr:pak":"644709","addr:street":"Маршала Тита"},"geometry":{"type":"Point","coordinates":[21.9257068659716,43.1020767113201]}},{"type":"Feature","properties":{"name:sr":"16252 Разгојна","opening_hours":"Mo-Fr 07:00-13:00; PH off","addr:housenumber":"33","name":"16252 Разгојна","amenity":"post_office","phone":"+381 16 730333","ref":"16252","name:sr-Latn":"16252 Razgojna","addr:pak":"644801","addr:street":"Маршала Тита"},"geometry":{"type":"Point","coordinates":[21.9543595505162,43.11669012312]}},{"type":"Feature","properties":{"name:sr":"16253 Брестовац","opening_hours":"Mo-Fr 07:00-14:00; PH off","addr:housenumber":"1","name":"16253 Брестовац","amenity":"post_office","phone":"+381 16 782357","ref":"16253","name:sr-Latn":"16253 Brestovac","addr:pak":"644928","addr:street":"Трг Слободе"},"geometry":{"type":"Point","coordinates":[21.8776569699213,43.1530325441784]}},{"type":"Feature","properties":{"name:sr":"18107 Ниш","opening_hours":"Mo-Fr 07:00-14:00; PH off","addr:housenumber":"23","name":"18107 Ниш","amenity":"post_office","phone":"+381 18 522-400","ref":"18107","name:sr-Latn":"18107 Niš","addr:pak":"700562","addr:street":"Вожда Карађорђа"},"geometry":{"type":"Point","coordinates":[21.9007969941941,43.3206113767767]}},{"type":"Feature","properties":{"name:sr":"18113 Ниш","opening_hours":"Mo-Fr 08:00-15:30; PH off","addr:housenumber":"999","name":"18113 Ниш","amenity":"post_office","phone":"+381 18 513-196","ref":"18113","name:sr-Latn":"18113 Niš","addr:pak":"700605","addr:street":"Париске Комуне"},"geometry":{"type":"Point","coordinates":[21.9188911509782,43.3217844559918]}},{"type":"Feature","properties":{"name:sr":"18116 Ниш 16","opening_hours":"Mo-Fr 07:30-14:00; PH off","addr:housenumber":"11А","name":"18116 Ниш 16","amenity":"post_office","phone":"+381 18 4513-055","ref":"18116","name:sr-Latn":"18116 Niš 16","addr:pak":"709042","addr:street":"Павла Софрића"},"geometry":{"type":"Point","coordinates":[21.9660779902271,43.3091494512164]}}]}