{"type":"FeatureCollection","features":[{"type":"Feature","properties":{"name:sr":"25244 Српски Милетић","opening_hours":"Mo-Fr 07:30-14:30; PH off","addr:housenumber":"13","name":"25244 Српски Милетић","amenity":"post_office","phone":"+381 25 5764-628","ref":"25244","name:sr-Latn":"25244 Srpski Miletić","addr:pak":"434343","addr:street":"Светог Саве"},"geometry":{"type":"Point","coordinates":[19.2017462911636,45.5586910885988]}},{"type":"Feature","properties":{"name:sr":"25245 Богојево","opening_hours":"Mo-Fr 07:30-14:30; PH off","addr:housenumber":"1","name":"25245 Богојево","amenity":"post_office","phone":"+381 25 5875-611","ref":"25245","name:sr-Latn":"25245 Bogojevo","addr:pak":"434612","addr:street":"Шумска"},"geometry":{"type":"Point","coordinates":[19.130651014957,45.5304039050182]}},{"type":"Feature","properties":{"name:sr":"25250 Оџаци","opening_hours":"Mo-Fr 07:00-19:00; Sa 07:00-13:00; PH off","addr:housenumber":"29","name":"25250 Оџаци","amenity":"post_office","phone":"+381 25 ;+381 25 465-160","ref":"25250","name:sr-Latn":"25250 Odžaci","addr:pak":"433369","addr:street":"Сомборска"},"geometry":{"type":"Point","coordinates":[19.2577223459657,45.5070743694336]}},{"type":"Feature","properties":{"name:sr":"25252 Бачки Грачац","opening_hours":"Mo-Fr 07:00-14:00; PH off","addr:housenumber":"21","name":"25252 Бачки Грачац","amenity":"post_office","phone":"+381 25 5767-014","ref":"25252","name:sr-Latn":"25252 Bački Gračac","addr:pak":"434165","addr:street":"Личка"},"geometry":{"type":"Point","coordinates":[19.3269578194086,45.5528547066906]}},{"type":"Feature","properties":{"name:sr":"25254 Дероње","opening_hours":"Mo-Fr 07:30-14:30; PH off","addr:housenumber":"14","name":"25254 Дероње","amenity":"post_office","phone":"+381 25 5872-325","ref":"25254","name:sr-Latn":"25254 Deronje","addr:pak":"435609","addr:street":"Арсенија трећег Чарнојевића"},"geometry":{"type":"Point","coordinates":[19.2189811175547,45.4536120999007]}},{"type":"Feature","properties":{"name:sr":"25255 Каравуково","opening_hours":"Mo-Fr 07:00-14:00; PH off","addr:housenumber":"86","name":"25255 Каравуково","amenity":"post_office","phone":"+381 25 762-011","ref":"25255","name:sr-Latn":"25255 Karavukovo","addr:pak":"435334","addr:street":"Жарка Зрењанина"},"geometry":{"type":"Point","coordinates":[19.1974325536269,45.499122130394]}},{"type":"Feature","properties":{"name:sr":"21420 Бач","opening_hours":"Mo-Fr 08:00-14:00; Sa 08:00-13:00; PH off","addr:housenumber":"8","name":"21420 Бач","amenity":"post_office","phone":"+381 21 4807-086;+381 21 770-500","ref":"21420","name:sr-Latn":"21420 Bač","addr:pak":"390301","addr:street":"Трг др Зорана Ђинђића"},"geometry":{"type":"Point","coordinates":[19.2292660838825,45.3929884759309]}},{"type":"Feature","properties":{"name:sr":"21424 Товаришево","opening_hours":"Mo-Fr 08:00-14:00; PH off","addr:housenumber":"63","name":"21424 Товаришево","amenity":"post_office","phone":"+381 21 758-002","ref":"21424","name:sr-Latn":"21424 Tovariševo","addr:pak":"394641","addr:street":"Маршала Тита"},"geometry":{"type":"Point","coordinates":[19.3232916118807,45.3544192783742]}},{"type":"Feature","properties":{"name:sr":"21425 Селенча","opening_hours":"Mo-Fr 08:00-14:00; PH off","addr:housenumber":"124","name":"21425 Селенча","amenity":"post_office","phone":"+381 21 774-002","ref":"21425","name:sr-Latn":"21425 Selenča","addr:pak":"391001","addr:street":"Маршала Тита"},"geometry":{"type":"Point","coordinates":[19.3001876531352,45.4104855754624]}},{"type":"Feature","properties":{"name:sr":"21426 Вајска","opening_hours":"Mo-Fr 08:00-14:00; PH off","addr:housenumber":"27","name":"21426 Вајска","amenity":"post_office","phone":"+381 21 775-906","ref":"21426","name:sr-Latn":"21426 Vajska","addr:pak":"390711","addr:street":"Маршала Тита"},"geometry":{"type":"Point","coordinates":[19.1008899179057,45.4105973400579]}},{"type":"Feature","properties":{"amenity":"post_office","name":"21427 Бођани","name:sr":"21427 Бођани","name:sr-Latn":"21427 Bođani","ref":"21427","opening_hours":"Mo-Fr 08:00-11:00; PH off","phone":"+381 21 2076-286","addr:pak":"390623"},"geometry":{"type":"Point","coordinates":[19.1036229397362,45.3889489800729]}},{"type":"Feature","properties":{"name:sr":"21428 Плавна","opening_hours":"Mo-Fr 08:00-11:00; PH off","addr:housenumber":"28","name":"21428 Плавна","amenity":"post_office","phone":"+381 21 2078-003","ref":"21428","name:sr-Latn":"21428 Plavna","addr:pak":"390901","addr:street":"Моше Пијаде"},"geometry":{"type":"Point","coordinates":[19.1256851098584,45.3495910216449]}}]}