{"type":"FeatureCollection","features":[{"type":"Feature","properties":{"amenity":"post_office","name":"18201 Лалинац","name:sr":"18201 Лалинац","name:sr-Latn":"18201 Lalinac","ref":"18201","opening_hours":"Mo-Fr 07:00-14:00; PH off","phone":"+381 18 614-937","addr:pak":"688730"},"geometry":{"type":"Point","coordinates":[22.0207291615304,43.4433293972142]}},{"type":"Feature","properties":{"name:sr":"18202 Горња Топоница","opening_hours":"Mo-Fr 07:00-14:00; PH off","addr:housenumber":"43","name":"18202 Горња Топоница","amenity":"post_office","phone":"+381 18 4601-234","ref":"18202","name:sr-Latn":"18202 Gornja Toponica","addr:pak":"705631","addr:street":"Стевана Синђелића"},"geometry":{"type":"Point","coordinates":[21.8063019971401,43.4016407199217]}},{"type":"Feature","properties":{"name:sr":"18204 Горњи Матејевац","opening_hours":"Mo-Fr 07:00-14:00; PH off","addr:housenumber":"3","name":"18204 Горњи Матејевац","amenity":"post_office","phone":"+381 18 651-223","ref":"18204","name:sr-Latn":"18204 Gornji Matejevac","addr:pak":"707325","addr:street":"Виноградарска"},"geometry":{"type":"Point","coordinates":[21.9677391562352,43.3630780817536]}},{"type":"Feature","properties":{"amenity":"post_office","name":"18207 Малча","name:sr":"18207 Малча","name:sr-Latn":"18207 Malča","ref":"18207","opening_hours":"Mo-Fr 07:00-11:00; PH off","phone":"+381 18 4661-655","addr:pak":"707603"},"geometry":{"type":"Point","coordinates":[22.0299586951542,43.3332311217185]}},{"type":"Feature","properties":{"name:sr":"18211 Трупале","opening_hours":"Mo-Fr 07:00-11:00; PH off","addr:housenumber":"7А","name":"18211 Трупале","amenity":"post_office","phone":"+381 18 4691-399","ref":"18211","name:sr-Latn":"18211 Trupale","addr:pak":"705301","addr:street":"Железничка"},"geometry":{"type":"Point","coordinates":[21.8081267035638,43.3538190656788]}},{"type":"Feature","properties":{"amenity":"post_office","name":"18311 Сићево","name:sr":"18311 Сићево","name:sr-Latn":"18311 Sićevo","ref":"18311","opening_hours":"Tu,Th 07:00-10:00; PH off","phone":"+381 18 671-099","addr:pak":"708710"},"geometry":{"type":"Point","coordinates":[22.0859466254824,43.3402220267348]}},{"type":"Feature","properties":{"name:sr":"18360 Сврљиг","opening_hours":"Mo-Fr 08:00-15:00; Sa 07:00-12:00; PH off","addr:housenumber":"6","name":"18360 Сврљиг","amenity":"post_office","phone":"+381 18 518-159;+381 18 821-520","ref":"18360","name:sr-Latn":"18360 Svrljig","addr:pak":"688036","addr:street":"Душана Трифунца"},"geometry":{"type":"Point","coordinates":[22.1223878551261,43.4127309725395]}},{"type":"Feature","properties":{"name:sr":"18103 Ниш","opening_hours":"Mo-Fr 08:00-19:00; Sa 08:00-13:00; PH off","addr:housenumber":"103","name":"18103 Ниш","amenity":"post_office","phone":"+381 18 212-500;+381 18 518-150","ref":"18103","name:sr-Latn":"18103 Niš","addr:pak":"706601","addr:street":"Књажевачка"},"geometry":{"type":"Point","coordinates":[21.9224363190945,43.3295841524606]}},{"type":"Feature","properties":{"name:sr":"18114 Ниш","opening_hours":"Mo-Fr 08:00-15:30; PH off","addr:housenumber":"10","name":"18114 Ниш","amenity":"post_office","phone":"+381 18 582-818","ref":"18114","name:sr-Latn":"18114 Niš","addr:pak":"704245","addr:street":"Ратка Јовића"},"geometry":{"type":"Point","coordinates":[21.8744640371469,43.3445399577121]}},{"type":"Feature","properties":{"name:sr":"18115 Ниш","opening_hours":"Mo-Fr 08:00-15:00; PH off","addr:housenumber":"14","name":"18115 Ниш","amenity":"post_office","phone":"+381 18 588-001","ref":"18115","name:sr-Latn":"18115 Niš","addr:pak":"704150","addr:street":"Александра Медведева"},"geometry":{"type":"Point","coordinates":[21.8928423953056,43.3314914140469]}},{"type":"Feature","properties":{"name:sr":"18118 Хум","opening_hours":"Mo-Fr 08:00-11:00; PH off","addr:housenumber":"92","name":"18118 Хум","amenity":"post_office","phone":"+381 18 4693-144","ref":"18118","name:sr-Latn":"18118 Hum","addr:pak":"705011","addr:street":"Данила Прице"},"geometry":{"type":"Point","coordinates":[21.9009798542066,43.3729525580117]}}]}