{"type":"FeatureCollection","features":[{"type":"Feature","properties":{"amenity":"post_office","name":"19368 Вина","name:sr":"19368 Вина","name:sr-Latn":"19368 Vina","ref":"19368","opening_hours":"Tu,Th 08:00-11:00; PH off","phone":"+381 19 ;+381 19 771-011","addr:pak":"618503"},"geometry":{"type":"Point","coordinates":[22.1443667154135,43.6185138809163]}},{"type":"Feature","properties":{"amenity":"post_office","name":"19369 Бучје","name:sr":"19369 Бучје","name:sr-Latn":"19369 Bučje","ref":"19369","opening_hours":"Mo,Tu,Th 08:00-12:00; PH off","phone":"+381 19 773-011","addr:pak":"618601"},"geometry":{"type":"Point","coordinates":[22.1269863683968,43.6801091173673]}},{"type":"Feature","properties":{"name:sr":"18230 Сокобања","opening_hours":"Mo-Fr 08:00-20:00; Sa 08:00-14:00; PH off","addr:housenumber":"21","name":"18230 Сокобања","amenity":"post_office","phone":"+381 18 518-158;+381 18 833-310","ref":"18230","name:sr-Latn":"18230 Sokobanja","addr:pak":"686101","addr:street":"Двадесетседмог марта"},"geometry":{"type":"Point","coordinates":[21.8703762766848,43.6448422769405]}},{"type":"Feature","properties":{"name:sr":"19370 Бољевац","opening_hours":"Mo-Fr 08:00-16:00; Sa 08:00-12:00; PH off","addr:housenumber":"2","name":"19370 Бољевац","amenity":"post_office","phone":"+381 30 453-333;+381 30 463-600","ref":"19370","name:sr-Latn":"19370 Boljevac","addr:pak":"607044","addr:street":"Кнеза Милоша"},"geometry":{"type":"Point","coordinates":[21.9584410604418,43.8300240393512]}}]}