{"type":"FeatureCollection","features":[{"type":"Feature","properties":{"amenity":"post_office","name":"19204 Метовница","name:sr":"19204 Метовница","name:sr-Latn":"19204 Metovnica","ref":"19204","opening_hours":"Mo-Fr 08:30-12:00; PH off","phone":"+381 30 474-490","addr:pak":"603201"},"geometry":{"type":"Point","coordinates":[22.1405583520155,43.9553937911667]}},{"type":"Feature","properties":{"name:sr":"19210 Бор 1","opening_hours":"Mo-Fr 07:00-19:00; Sa 08:00-14:00; PH off","addr:housenumber":"1","name":"19210 Бор 1","amenity":"post_office","phone":"+381 30 453-313;+381 30 453-323","ref":"19210","name:sr-Latn":"19210 Bor 1","addr:pak":"601010","addr:street":"Ђорђа Вајферта"},"geometry":{"type":"Point","coordinates":[22.0984294516382,44.0781560286896]}},{"type":"Feature","properties":{"amenity":"post_office","name":"19215 Злот","name:sr":"19215 Злот","name:sr-Latn":"19215 Zlot","ref":"19215","opening_hours":"Mo-Fr 07:00-14:00; Sa 08:00-12:00; PH off","phone":"+381 30 2561-222","addr:pak":"602601"},"geometry":{"type":"Point","coordinates":[21.9854692550498,44.0097277958889]}},{"type":"Feature","properties":{"name:sr":"19216 БрестОВАЧКА БАЊА","opening_hours":"Mo-Fr 07:00-12:00; Sa 08:00-12:00; PH off","addr:housenumber":"4А","name":"19216 БрестОВАЧКА БАЊА","amenity":"post_office","phone":"+381 30 477-001","ref":"19216","name:sr-Latn":"19216 BrestOVAČKA BANjA","addr:pak":"602310","addr:street":"Војводе Радомира Путника"},"geometry":{"type":"Point","coordinates":[22.053727776081,44.0627835941718]}},{"type":"Feature","properties":{"amenity":"post_office","name":"19229 Брестовац","name:sr":"19229 Брестовац","name:sr-Latn":"19229 Brestovac","ref":"19229","opening_hours":"Mo-Fr 07:00-13:00; PH off","phone":"+381 30 434-277","addr:pak":"603409"},"geometry":{"type":"Point","coordinates":[22.0931715068219,44.0365834578608]}},{"type":"Feature","properties":{"amenity":"post_office","name":"19233 Подгорац","name:sr":"19233 Подгорац","name:sr-Latn":"19233 Podgorac","ref":"19233","opening_hours":"Mo-Fr 07:00-11:00; PH off","phone":"+381 30 2460-266","addr:pak":"608101"},"geometry":{"type":"Point","coordinates":[21.9500596485228,43.9452199125453]}},{"type":"Feature","properties":{"amenity":"post_office","name":"19372 Боговина","name:sr":"19372 Боговина","name:sr-Latn":"19372 Bogovina","ref":"19372","opening_hours":"Mo-Fr 07:00-11:00; PH off","phone":"+381 30 460-804","addr:pak":"607912"},"geometry":{"type":"Point","coordinates":[21.9509130179606,43.9046255962624]}},{"type":"Feature","properties":{"amenity":"post_office","name":"19373 Шарбановац","name:sr":"19373 Шарбановац","name:sr-Latn":"19373 Šarbanovac","ref":"19373","opening_hours":"Mo-Fr 07:00-13:00; PH off","phone":"+381 30 472-022","addr:pak":"603101"},"geometry":{"type":"Point","coordinates":[22.0747947421134,43.9616436947691]}},{"type":"Feature","properties":{"amenity":"post_office","name":"19376 Сумраковац","name:sr":"19376 Сумраковац","name:sr-Latn":"19376 Sumrakovac","ref":"19376","opening_hours":"Mo,We,Fr 07:00-12:00; PH off","phone":"+381 30 2466-222","addr:pak":"607801"},"geometry":{"type":"Point","coordinates":[22.0315904094091,43.9384511903247]}},{"type":"Feature","properties":{"amenity":"post_office","name":"19377 Савинац","name:sr":"19377 Савинац","name:sr-Latn":"19377 Savinac","ref":"19377","opening_hours":"Tu,Th 07:00-12:00; PH off","phone":"+381 30 468-511","addr:pak":"607704"},"geometry":{"type":"Point","coordinates":[22.0340937696676,43.9023069703368]}},{"type":"Feature","properties":{"name:sr":"19211 Бор 3","opening_hours":"Mo-Fr 07:00-19:00; Sa 08:00-14:00; PH off","addr:housenumber":"49А","name":"19211 Бор 3","amenity":"post_office","phone":"+381 30 421-348;+381 30 453-334","ref":"19211","name:sr-Latn":"19211 Bor 3","addr:pak":"601619","addr:street":"Моше Пијаде"},"geometry":{"type":"Point","coordinates":[22.0987424245727,44.0691216560916]}},{"type":"Feature","properties":{"name:sr":"19212 Бор 4","opening_hours":"Mo-Fr 09:00-16:00; Sa 08:00-12:00; PH off","addr:housenumber":"19А","name":"19212 Бор 4","amenity":"post_office","phone":"+381 30 2495-650","ref":"19212","name:sr-Latn":"19212 Bor 4","addr:pak":"601928","addr:street":"Радничка"},"geometry":{"type":"Point","coordinates":[22.1078231896957,44.0561403815289]}},{"type":"Feature","properties":{"name:sr":"19218 Бор 5","opening_hours":"Mo-Fr 09:00-16:00; Sa 08:00-12:00; PH off","addr:housenumber":"16","name":"19218 Бор 5","amenity":"post_office","phone":"+381 30 433-500","ref":"19218","name:sr-Latn":"19218 Bor 5","addr:pak":"601713","addr:street":"Краља Петра првог"},"geometry":{"type":"Point","coordinates":[22.0989188043585,44.0624603796897]}}]}