{"type":"FeatureCollection","features":[{"type":"Feature","properties":{"amenity":"post_office","name":"19219 Кривељ","name:sr":"19219 Кривељ","name:sr-Latn":"19219 Krivelj","ref":"19219","opening_hours":"Mo-Fr 07:00-11:00; PH off","phone":"+381 30 473-415","addr:pak":"602701"},"geometry":{"type":"Point","coordinates":[22.0952673714655,44.1298171344488]}},{"type":"Feature","properties":{"amenity":"post_office","name":"19257 Рудна Глава","name:sr":"19257 Рудна Глава","name:sr-Latn":"19257 Rudna Glava","ref":"19257","opening_hours":"Mo-Fr 07:00-15:00; PH off","phone":"+381 30 2585-600","addr:pak":"606501"},"geometry":{"type":"Point","coordinates":[22.0867231957356,44.3262193454207]}},{"type":"Feature","properties":{"name:sr":"12321 Лазница","opening_hours":"Mo-Fr 07:00-13:00; PH off","addr:housenumber":"ББ","name":"12321 Лазница","amenity":"post_office","phone":"+381 12 649333","ref":"12321","name:sr-Latn":"12321 Laznica","addr:pak":"285603","addr:street":"Главна"},"geometry":{"type":"Point","coordinates":[21.8081352379355,44.2402555545368]}},{"type":"Feature","properties":{"amenity":"post_office","name":"19256 Јасиково","name:sr":"19256 Јасиково","name:sr-Latn":"19256 Jasikovo","ref":"19256","opening_hours":"Mo-Fr 08:00-11:30; PH off","phone":"+381 30 2585-100","addr:pak":"606608"},"geometry":{"type":"Point","coordinates":[21.9421753886642,44.2841748217796]}}]}