{"type":"FeatureCollection","features":[{"type":"Feature","properties":{"amenity":"post_office","name":"17540 Босилеград","name:sr":"17540 Босилеград","name:sr-Latn":"17540 Bosilegrad","ref":"17540","opening_hours":"Mo-Fr 08:00-14:30; Sa 08:00-12:30; PH off","phone":"+381 17 407-056","addr:pak":"636101"},"geometry":{"type":"Point","coordinates":[22.4724269498608,42.5013815764217]}},{"type":"Feature","properties":{"amenity":"post_office","name":"17544 Доња Љубата","name:sr":"17544 Доња Љубата","name:sr-Latn":"17544 Donja Ljubata","ref":"17544","opening_hours":"Mo,We,Fr 09:00-12:00; PH off","phone":"+381 64 6662-191","addr:pak":"636401"},"geometry":{"type":"Point","coordinates":[22.343821849949,42.4987129761815]}},{"type":"Feature","properties":{"amenity":"post_office","name":"17546 Бистар","name:sr":"17546 Бистар","name:sr-Latn":"17546 Bistar","ref":"17546","opening_hours":"Tu,Th 09:00-12:00; PH off","phone":"+381 64 666-2193","addr:pak":"636501"},"geometry":{"type":"Point","coordinates":[22.4370014850411,42.3746557997023]}},{"type":"Feature","properties":{"amenity":"post_office","name":"17526 Доњи Стајевац","name:sr":"17526 Доњи Стајевац","name:sr-Latn":"17526 Donji Stajevac","ref":"17526","opening_hours":"Mo-Fr 07:00-11:00; PH off","phone":"+381 65 522-3154","addr:pak":"637601"},"geometry":{"type":"Point","coordinates":[22.1637720966667,42.4040594016747]}},{"type":"Feature","properties":{"amenity":"post_office","name":"17561 Радовница","name:sr":"17561 Радовница","name:sr-Latn":"17561 Radovnica","ref":"17561","opening_hours":"Mo 07:00-14:00; Tu,We,Th,Fr 07:00-11:00; PH off","phone":"+381 64 6721811","addr:pak":"637501"},"geometry":{"type":"Point","coordinates":[22.221285541409,42.414466097475]}}]}