{"type":"FeatureCollection","features":[{"type":"Feature","properties":{"name:sr":"17530 Сурдулица","opening_hours":"Mo-Fr 08:00-17:00; Sa 08:00-13:00; PH off","addr:housenumber":"3","name":"17530 Сурдулица","amenity":"post_office","phone":"+381 17407-054","ref":"17530","name:sr-Latn":"17530 Surdulica","addr:pak":"635414","addr:street":"Петог септембра"},"geometry":{"type":"Point","coordinates":[22.1733635822925,42.6905438326527]}},{"type":"Feature","properties":{"amenity":"post_office","name":"17532 Власина Округлица","name:sr":"17532 Власина Округлица","name:sr-Latn":"17532 Vlasina Okruglica","ref":"17532","opening_hours":"Tu,Fr 07:30-14:30; PH off","phone":"+381 17 409-100","addr:pak":"638214"},"geometry":{"type":"Point","coordinates":[22.3196723840842,42.6692397312457]}},{"type":"Feature","properties":{"amenity":"post_office","name":"17543 Крива Феја","name:sr":"17543 Крива Феја","name:sr-Latn":"17543 Kriva Feja","ref":"17543","opening_hours":"We,Fr 09:00-12:00; PH off","phone":"+381 17 427-508","addr:pak":"632801"},"geometry":{"type":"Point","coordinates":[22.1744492552723,42.5586073203327]}},{"type":"Feature","properties":{"amenity":"post_office","name":"17537 Божица","name:sr":"17537 Божица","name:sr-Latn":"17537 Božica","ref":"17537","opening_hours":"Tu,Fr 07:00-11:00; PH off","phone":"+381 17 879-100","addr:pak":"638706"},"geometry":{"type":"Point","coordinates":[22.3992491692836,42.6155647418217]}},{"type":"Feature","properties":{"name:sr":"17535 Клисура","opening_hours":"Mo,We,Th 09:00-13:00; PH off","addr:housenumber":"ББ","name":"17535 Клисура","amenity":"post_office","phone":"+381 17 829-663","ref":"17535","name:sr-Latn":"17535 Klisura","addr:pak":"638601","addr:street":"Клисура"},"geometry":{"type":"Point","coordinates":[22.4082460585365,42.756826814517]}},{"type":"Feature","properties":{"amenity":"post_office","name":"16215 Црна Трава","name:sr":"16215 Црна Трава","name:sr-Latn":"16215 Crna Trava","ref":"16215","opening_hours":"Mo-Fr 07:00-14:00; PH off","phone":"+381 16 811101","addr:pak":"646201"},"geometry":{"type":"Point","coordinates":[22.2994291087856,42.8109703342925]}},{"type":"Feature","properties":{"amenity":"post_office","name":"17538 Горња Лисина","name:sr":"17538 Горња Лисина","name:sr-Latn":"17538 Gornja Lisina","ref":"17538","opening_hours":"Mo,We,Th 07:00-11:00; PH off","phone":"+381 64 6327936","addr:pak":"638801"},"geometry":{"type":"Point","coordinates":[22.3628245186291,42.5595348613336]}}]}