{"type":"FeatureCollection","features":[{"type":"Feature","properties":{"amenity":"post_office","name":"18215 Велико Боњинце","name:sr":"18215 Велико Боњинце","name:sr-Latn":"18215 Veliko Bonjince","ref":"18215","opening_hours":"Mo-Fr 08:00-11:00; PH off","phone":"+381 10 2681-364","addr:pak":"628101"},"geometry":{"type":"Point","coordinates":[22.265252835455,43.0112847205209]}},{"type":"Feature","properties":{"amenity":"post_office","name":"18217 Љуберађа","name:sr":"18217 Љуберађа","name:sr-Latn":"18217 Ljuberađa","ref":"18217","opening_hours":"Mo,Tu,We,Th 07:00-10:00; Fr 07:00-08:30; PH off","phone":"+381 10 2680-333","addr:pak":"628401"},"geometry":{"type":"Point","coordinates":[22.3829954873758,43.0256575631264]}},{"type":"Feature","properties":{"amenity":"post_office","name":"18330 Бабушница","name:sr":"18330 Бабушница","name:sr-Latn":"18330 Babušnica","ref":"18330","opening_hours":"Mo-Fr 08:00-15:00; Sa 08:00-13:00; PH off","phone":"+381 10 385-190;+381 10 386-190","addr:pak":"627215"},"geometry":{"type":"Point","coordinates":[22.411315984172,43.0654566216236]}},{"type":"Feature","properties":{"amenity":"post_office","name":"18332 Стрелац","name:sr":"18332 Стрелац","name:sr-Latn":"18332 Strelac","ref":"18332","opening_hours":"Mo-Fr 07:00-11:00; PH off","phone":"+381 10 375-210","addr:pak":"628801"},"geometry":{"type":"Point","coordinates":[22.4630315152372,42.9850297805448]}},{"type":"Feature","properties":{"amenity":"post_office","name":"16212 Свође","name:sr":"16212 Свође","name:sr-Latn":"16212 Svođe","ref":"16212","opening_hours":"Mo-Fr 07:00-11:00; PH off","phone":"+381 16 861015;+381 64 6658453","addr:pak":"646001"},"geometry":{"type":"Point","coordinates":[22.2648938742511,42.9779352894619]}},{"type":"Feature","properties":{"amenity":"post_office","name":"16213 Састав Река","name:sr":"16213 Састав Река","name:sr-Latn":"16213 Sastav Reka","ref":"16213","opening_hours":"Mo,We,Fr 07:00-11:00; PH off","phone":"+381 16 268505;+381 64 6658455","addr:pak":"646136"},"geometry":{"type":"Point","coordinates":[22.3463760366269,42.9021278522261]}}]}