{"type":"FeatureCollection","features":[{"type":"Feature","properties":{"amenity":"post_office","name":"18246 Равна Дубрава","name:sr":"18246 Равна Дубрава","name:sr-Latn":"18246 Ravna Dubrava","ref":"18246","opening_hours":"Tu,Th 07:00-10:00; PH off","phone":"+381 18 866-306","addr:pak":"693010"},"geometry":{"type":"Point","coordinates":[22.1928336017527,43.0775049373308]}},{"type":"Feature","properties":{"name:sr":"18310 Бела Паланка","opening_hours":"Mo-Fr 07:00-17:00; Sa 07:00-12:00; PH off","addr:housenumber":"2","name":"18310 Бела Паланка","amenity":"post_office","phone":"+381 18 518-093;+381 18 855-490","ref":"18310","name:sr-Latn":"18310 Bela Palanka","addr:pak":"691010","addr:street":"Крсте Јоцића"},"geometry":{"type":"Point","coordinates":[22.3111303743171,43.2179372544557]}},{"type":"Feature","properties":{"amenity":"post_office","name":"18313 Црвена Река","name:sr":"18313 Црвена Река","name:sr-Latn":"18313 Crvena Reka","ref":"18313","opening_hours":"Mo,We,Fr 07:00-10:00; PH off","phone":"+381 18 4858-180","addr:pak":"690410"},"geometry":{"type":"Point","coordinates":[22.2466023250049,43.2680833778358]}},{"type":"Feature","properties":{"amenity":"post_office","name":"18314 Долац","name:sr":"18314 Долац","name:sr-Latn":"18314 Dolac","ref":"18314","opening_hours":"Tu,Th 07:00-10:00; PH off","phone":"+381 18 4857-300","addr:pak":"690310"},"geometry":{"type":"Point","coordinates":[22.2051829217198,43.2953271152265]}},{"type":"Feature","properties":{"amenity":"post_office","name":"18304 Црноклиште","name:sr":"18304 Црноклиште","name:sr-Latn":"18304 Crnoklište","ref":"18304","opening_hours":"Mo,Tu,We,Th,Fr 07:00-10:00; PH off","phone":"+381 10 370-544","addr:pak":"623101"},"geometry":{"type":"Point","coordinates":[22.4678168711773,43.2322963551028]}}]}