{"type":"FeatureCollection","features":[{"type":"Feature","properties":{"name:sr":"25101 Сомбор","opening_hours":"Mo-Fr 08:00-19:00; Sa 07:00-13:00; PH off","addr:housenumber":"12","name":"25101 Сомбор","amenity":"post_office","phone":"+381 25 465-113;+381 25 465-115","ref":"25101","name:sr-Latn":"25101 Sombor","addr:pak":"420172","addr:street":"Доситеја Обрадовића"},"geometry":{"type":"Point","coordinates":[19.1150019337638,45.7704638048479]}},{"type":"Feature","properties":{"name:sr":"25210 Чонопља","opening_hours":"Mo-Fr 07:00-14:00; PH off","addr:housenumber":"56","name":"25210 Чонопља","amenity":"post_office","phone":"+381 25 844-011","ref":"25210","name:sr-Latn":"25210 Čonoplja","addr:pak":"425541","addr:street":"Марка Орешковића"},"geometry":{"type":"Point","coordinates":[19.2468267898163,45.8119775137016]}},{"type":"Feature","properties":{"name:sr":"25221 Кљајићево","opening_hours":"Mo-Fr 07:00-13:00; Sa 07:00-11:00; PH off","addr:housenumber":"47","name":"25221 Кљајићево","amenity":"post_office","phone":"+381 25 465-166","ref":"25221","name:sr-Latn":"25221 Kljajićevo","addr:pak":"425102","addr:street":"Иве Лоле Рибара"},"geometry":{"type":"Point","coordinates":[19.2770593071369,45.7697343687323]}},{"type":"Feature","properties":{"name:sr":"25240 Стапар","opening_hours":"Mo-Fr 07:00-14:00; PH off","addr:housenumber":"92","name":"25240 Стапар","amenity":"post_office","phone":"+381 25 5827-707","ref":"25240","name:sr-Latn":"25240 Stapar","addr:pak":"427501","addr:street":"Карађорђев плац"},"geometry":{"type":"Point","coordinates":[19.2019167223956,45.6628206238858]}},{"type":"Feature","properties":{"name:sr":"25242 Бачки Брестовац","opening_hours":"Mo-Fr 07:00-14:00; PH off","addr:housenumber":"75","name":"25242 Бачки Брестовац","amenity":"post_office","phone":"+381 25 5881-026","ref":"25242","name:sr-Latn":"25242 Bački Brestovac","addr:pak":"433835","addr:street":"Војвођанска"},"geometry":{"type":"Point","coordinates":[19.2696050850036,45.6163270056265]}},{"type":"Feature","properties":{"name:sr":"25243 Дорослово","opening_hours":"Mo-Fr 07:30-14:30; PH off","addr:housenumber":"50","name":"25243 Дорослово","amenity":"post_office","phone":"+381 25 5862-314","ref":"25243","name:sr-Latn":"25243 Doroslovo","addr:pak":"427819","addr:street":"Николе Тесле"},"geometry":{"type":"Point","coordinates":[19.1847579358242,45.6070536294617]}},{"type":"Feature","properties":{"name:sr":"25262 Купусина","opening_hours":"Mo-Fr 07:00-14:00; PH off","addr:housenumber":"4","name":"25262 Купусина","amenity":"post_office","phone":"+381 25 786-602","ref":"25262","name:sr-Latn":"25262 Kupusina","addr:pak":"431901","addr:street":"Сомборски пут"},"geometry":{"type":"Point","coordinates":[19.0153838560119,45.7406724525348]}},{"type":"Feature","properties":{"name:sr":"25263 Пригревица","opening_hours":"Mo-Fr 07:00-14:00; PH off","addr:housenumber":"15","name":"25263 Пригревица","amenity":"post_office","phone":"+381 25 822-531","ref":"25263","name:sr-Latn":"25263 Prigrevica","addr:pak":"432101","addr:street":"Вука Караџића"},"geometry":{"type":"Point","coordinates":[19.085442726197,45.6770425995721]}},{"type":"Feature","properties":{"name:sr":"25264 Сонта","opening_hours":"Mo-Fr 07:00-14:00; PH off","addr:housenumber":"20","name":"25264 Сонта","amenity":"post_office","phone":"+381 25 792-015","ref":"25264","name:sr-Latn":"25264 Sonta","addr:pak":"432743","addr:street":"Вука Караџића"},"geometry":{"type":"Point","coordinates":[19.0964691600822,45.5947294838126]}},{"type":"Feature","properties":{"name:sr":"25265 Свилојево","opening_hours":"Mo-Fr 07:00-11:00; PH off","addr:housenumber":"4","name":"25265 Свилојево","amenity":"post_office","phone":"+381 25 797-014","ref":"25265","name:sr-Latn":"25265 Svilojevo","addr:pak":"432501","addr:street":"Жељезничка"},"geometry":{"type":"Point","coordinates":[19.0649705321615,45.6472756011467]}},{"type":"Feature","properties":{"name:sr":"25106 Сомбор","opening_hours":"Mo-Fr 08:00-14:00; Sa 08:00-12:00; PH off","addr:housenumber":"ББ","name":"25106 Сомбор","amenity":"post_office","phone":"+381 25 440-950","ref":"25106","name:sr-Latn":"25106 Sombor","addr:pak":"420761","addr:street":"Спортска"},"geometry":{"type":"Point","coordinates":[19.1178497939884,45.7629585441279]}},{"type":"Feature","properties":{"name:sr":"25103 Сомбор","opening_hours":"Mo-Fr 07:00-14:00; PH off","addr:housenumber":"1","name":"25103 Сомбор","amenity":"post_office","phone":"+381 25 440-550","ref":"25103","name:sr-Latn":"25103 Sombor","addr:pak":"421652","addr:street":"Душана Ћубића"},"geometry":{"type":"Point","coordinates":[19.1115640103275,45.7903095496213]}},{"type":"Feature","properties":{"name:sr":"25107 Сомбор","opening_hours":"Mo-Fr 08:00-14:00; PH off","addr:housenumber":"1","name":"25107 Сомбор","amenity":"post_office","phone":"+381 25 413-957","ref":"25107","name:sr-Latn":"25107 Sombor","addr:pak":"420723","addr:street":"Трг цара Уроша"},"geometry":{"type":"Point","coordinates":[19.1179829096627,45.7698322555622]}},{"type":"Feature","properties":{"name:sr":"25104 Сомбор","opening_hours":"Mo-Fr 07:00-14:00; PH off","addr:housenumber":"57","name":"25104 Сомбор","amenity":"post_office","phone":"+381 25 460-021","ref":"25104","name:sr-Latn":"25104 Sombor","addr:pak":"421406","addr:street":"Дванаесте војвођанске ударне бригаде"},"geometry":{"type":"Point","coordinates":[19.1000545612366,45.7766523817583]}},{"type":"Feature","properties":{"name:sr":"25109 Сомбор 9","opening_hours":"Mo-Sa 07:30-19:30; Su 07:00-13:00; PH 07:30-19:30","addr:housenumber":"11","name":"25109 Сомбор 9","amenity":"post_office","phone":"+381 25 420-045","ref":"25109","name:sr-Latn":"25109 Sombor 9","addr:pak":"420108","addr:street":"Двадесетпрвог октобра"},"geometry":{"type":"Point","coordinates":[19.1205687170741,45.7707572530108]}}]}