{"type":"FeatureCollection","features":[{"type":"Feature","properties":{"amenity":"post_office","name":"19350 Књажевац","name:sr":"19350 Књажевац","name:sr-Latn":"19350 Knjaževac","ref":"19350","opening_hours":"Mo-Fr 07:00-19:00; Sa 07:00-14:00; PH off","phone":"+381 19 444-242;+381 19 444-244","addr:pak":"617001"},"geometry":{"type":"Point","coordinates":[22.2545782190997,43.5654618967442]}},{"type":"Feature","properties":{"amenity":"post_office","name":"19352 Доња Каменица","name:sr":"19352 Доња Каменица","name:sr-Latn":"19352 Donja Kamenica","ref":"19352","opening_hours":"Mo,We,Fr 08:00-11:00; PH off","phone":"+381 19 3777-613","addr:pak":"618001"},"geometry":{"type":"Point","coordinates":[22.3278767382635,43.487780504269]}},{"type":"Feature","properties":{"name:sr":"19353 Кална","opening_hours":"Mo-Fr 08:00-12:00; PH off","addr:housenumber":"ББ","name":"19353 Кална","amenity":"post_office","phone":"+381 19 760-611","ref":"19353","name:sr-Latn":"19353 Kalna","addr:pak":"618109","addr:street":"Видовданска"},"geometry":{"type":"Point","coordinates":[22.4251304764592,43.4087730805338]}},{"type":"Feature","properties":{"amenity":"post_office","name":"19362 Подвис","name:sr":"19362 Подвис","name:sr-Latn":"19362 Podvis","ref":"19362","opening_hours":"Mo,We,Fr 10:00-13:00; PH off","phone":"+381 19 764-625","addr:pak":"618203"},"geometry":{"type":"Point","coordinates":[22.1853519893338,43.545364260437]}},{"type":"Feature","properties":{"name:sr":"19367 Васиљ","opening_hours":"Mo,We,Fr 08:00-12:00; PH off","addr:housenumber":"ББ","name":"19367 Васиљ","amenity":"post_office","phone":"+381 19 765-011","ref":"19367","name:sr-Latn":"19367 Vasilj","addr:pak":"618402","addr:street":"Горња Мала"},"geometry":{"type":"Point","coordinates":[22.1550494784258,43.5705633199002]}}]}