{"type":"FeatureCollection","features":[{"type":"Feature","properties":{"name:sr":"19340 Минићево","opening_hours":"Mo-Fr 08:00-14:00; PH off","addr:housenumber":"ББ","name":"19340 Минићево","amenity":"post_office","phone":"+381 19 769-222","ref":"19340","name:sr-Latn":"19340 Minićevo","addr:pak":"617801","addr:street":"Трг Слободе"},"geometry":{"type":"Point","coordinates":[22.292714382451,43.6850551161877]}},{"type":"Feature","properties":{"amenity":"post_office","name":"19342 Грлиште","name:sr":"19342 Грлиште","name:sr-Latn":"19342 Grlište","ref":"19342","opening_hours":"Tu,Fr 07:00-11:00; PH off","phone":"+381 19 458-602","addr:pak":"613805"},"geometry":{"type":"Point","coordinates":[22.2431551967075,43.8141976075339]}},{"type":"Feature","properties":{"name:sr":"19343 Леновац","opening_hours":"Tu,Th 08:00-12:00; PH off","addr:housenumber":"ББ","name":"19343 Леновац","amenity":"post_office","phone":"+381 19 453-001","ref":"19343","name:sr-Latn":"19343 Lenovac","addr:pak":"613902","addr:street":"Горњи крај"},"geometry":{"type":"Point","coordinates":[22.1628309673149,43.8048190665453]}},{"type":"Feature","properties":{"name:sr":"19344 Вратарница","opening_hours":"Mo,Th 07:00-11:00; PH off","addr:housenumber":"ББ","name":"19344 Вратарница","amenity":"post_office","phone":"+381 19 464-222","ref":"19344","name:sr-Latn":"19344 Vratarnica","addr:pak":"614003","addr:street":"Мали Београд"},"geometry":{"type":"Point","coordinates":[22.310813633824,43.7914462582866]}},{"type":"Feature","properties":{"amenity":"post_office","name":"19345 Доње Зуниче","name:sr":"19345 Доње Зуниче","name:sr-Latn":"19345 Donje Zuniče","ref":"19345","opening_hours":"Mo-Fr 07:00-11:00; PH off","phone":"+381 19 759-711","addr:pak":"617906"},"geometry":{"type":"Point","coordinates":[22.2767540786014,43.623127680962]}},{"type":"Feature","properties":{"name:sr":"19347 Мали Извор","opening_hours":"Mo,We,Fr 07:00-11:00; PH off","addr:housenumber":"ББ","name":"19347 Мали Извор","amenity":"post_office","phone":"+381 19 462-022","ref":"19347","name:sr-Latn":"19347 Mali Izvor","addr:pak":"614103","addr:street":"Нова колонија"},"geometry":{"type":"Point","coordinates":[22.3096204897361,43.7272967290764]}}]}