{"type":"FeatureCollection","features":[{"type":"Feature","properties":{"name:sr":"19000 Зајечар 1","opening_hours":"Mo-Fr 07:00-19:00; Sa 07:00-14:00; PH off","addr:housenumber":"13","name":"19000 Зајечар 1","amenity":"post_office","phone":"+381 19 444-213;+381 19 444-215;+381 19 444-249","ref":"19000","name:sr-Latn":"19000 Zaječar 1","addr:pak":"611001","addr:street":"Драгослава Срејовића"},"geometry":{"type":"Point","coordinates":[22.2782162648786,43.9039607103942]}},{"type":"Feature","properties":{"amenity":"post_office","name":"19205 Градсково","name:sr":"19205 Градсково","name:sr-Latn":"19205 Gradskovo","ref":"19205","opening_hours":"Mo,We,Fr 08:00-12:00; PH off","phone":"+381 19 451-022","addr:pak":"612101"},"geometry":{"type":"Point","coordinates":[22.3831654510983,44.0210215316564]}},{"type":"Feature","properties":{"name:sr":"19206 Велики Извор","opening_hours":"Mo,We,Fr 07:00-13:00; PH off","addr:housenumber":"8","name":"19206 Велики Извор","amenity":"post_office","phone":"+381 19 467-022","ref":"19206","name:sr-Latn":"19206 Veliki Izvor","addr:pak":"612226","addr:street":"Ослобођења"},"geometry":{"type":"Point","coordinates":[22.3331802954225,43.920322354692]}},{"type":"Feature","properties":{"amenity":"post_office","name":"19208 Лубница","name:sr":"19208 Лубница","name:sr-Latn":"19208 Lubnica","ref":"19208","opening_hours":"Mo-Fr 07:00-11:00; PH off","phone":"+381 19 456-822","addr:pak":"612408"},"geometry":{"type":"Point","coordinates":[22.196251023839,43.8679991775415]}},{"type":"Feature","properties":{"amenity":"post_office","name":"19209 Мали Јасеновац","name:sr":"19209 Мали Јасеновац","name:sr-Latn":"19209 Mali Jasenovac","ref":"19209","opening_hours":"Mo-Fr 08:00-12:00; PH off","phone":"+381 19 451-000","addr:pak":"612501"},"geometry":{"type":"Point","coordinates":[22.4494534169661,44.0348451249145]}},{"type":"Feature","properties":{"name:sr":"19214 Рготина","opening_hours":"Mo-Fr 07:00-11:00; PH off","addr:housenumber":"ББ","name":"19214 Рготина","amenity":"post_office","phone":"+381 19 466-022","ref":"19214","name:sr-Latn":"19214 Rgotina","addr:pak":"612606","addr:street":"Светосавска"},"geometry":{"type":"Point","coordinates":[22.2713902808305,44.0087299102165]}},{"type":"Feature","properties":{"name:sr":"19223 Копривница","opening_hours":"Tu,Th 07:00-11:00; PH off","addr:housenumber":"ББ","name":"19223 Копривница","amenity":"post_office","phone":"+381 19 464-722","ref":"19223","name:sr-Latn":"19223 Koprivnica","addr:pak":"612701","addr:street":"Копривница"},"geometry":{"type":"Point","coordinates":[22.3223281881833,44.0465195072821]}},{"type":"Feature","properties":{"name:sr":"19227 Звездан","opening_hours":"Mo,We,Fr 07:00-11:00; PH off","addr:housenumber":"17","name":"19227 Звездан","amenity":"post_office","phone":"+381 19 3413-022","ref":"19227","name:sr-Latn":"19227 Zvezdan","addr:pak":"613002","addr:street":"Николе Пашића"},"geometry":{"type":"Point","coordinates":[22.2142715630785,43.9018036738345]}},{"type":"Feature","properties":{"amenity":"post_office","name":"19228 ГамзиградСКА БАЊА","name:sr":"19228 ГамзиградСКА БАЊА","name:sr-Latn":"19228 GamzigradSKA BANjA","ref":"19228","opening_hours":"Tu,Th 07:00-11:00; PH off","phone":"+381 19 450-022","addr:pak":"613119"},"geometry":{"type":"Point","coordinates":[22.1723491152004,43.9234635538961]}},{"type":"Feature","properties":{"amenity":"post_office","name":"19311 Николичево","name:sr":"19311 Николичево","name:sr-Latn":"19311 Nikoličevo","ref":"19311","opening_hours":"Mo,We,Fr 07:00-11:00; PH off","phone":"+381 19 452-737","addr:pak":"613403"},"geometry":{"type":"Point","coordinates":[22.2381000592271,43.959268837135]}},{"type":"Feature","properties":{"amenity":"post_office","name":"19312 Вражогрнац","name:sr":"19312 Вражогрнац","name:sr-Latn":"19312 Vražogrnac","ref":"19312","opening_hours":"Mo-Fr 07:00-11:00; PH off","phone":"+381 19 460-022","addr:pak":"613501"},"geometry":{"type":"Point","coordinates":[22.3168265071614,43.9614771985048]}},{"type":"Feature","properties":{"name:sr":"19341 Грљан","opening_hours":"Mo-Fr 07:00-13:00; PH off","addr:housenumber":"1","name":"19341 Грљан","amenity":"post_office","phone":"+381 19 468-222","ref":"19341","name:sr-Latn":"19341 Grljan","addr:pak":"613702","addr:street":"Владимира Назора"},"geometry":{"type":"Point","coordinates":[22.2957726344423,43.8601458435746]}},{"type":"Feature","properties":{"amenity":"post_office","name":"19213 Доња Бела Река","name:sr":"19213 Доња Бела Река","name:sr-Latn":"19213 Donja Bela Reka","ref":"19213","opening_hours":"Mo-Fr 07:00-13:00; PH off","phone":"+381 30 474-718","addr:pak":"602905"},"geometry":{"type":"Point","coordinates":[22.2055856370017,44.0710635387968]}},{"type":"Feature","properties":{"name:sr":"19103 Зајечар 3","opening_hours":"Mo-Fr 08:00-14:00; Sa 08:00-12:00; PH off","addr:housenumber":"1","name":"19103 Зајечар 3","amenity":"post_office","phone":"+381 19 420-120","ref":"19103","name:sr-Latn":"19103 Zaječar 3","addr:pak":"611842","addr:street":"Сокобањска"},"geometry":{"type":"Point","coordinates":[22.2631393703443,43.9061013604734]}},{"type":"Feature","properties":{"amenity":"post_office","name":"19226 Оштрељ","name:sr":"19226 Оштрељ","name:sr-Latn":"19226 Oštrelj","ref":"19226","opening_hours":"Mo-Fr 07:00-11:00; PH off","phone":"+381 30 444-805","addr:pak":"602205"},"geometry":{"type":"Point","coordinates":[22.160380040129,44.0689249691038]}},{"type":"Feature","properties":{"name:sr":"19221 Слатина","opening_hours":"Mo-Fr 07:00-13:00; PH off","addr:housenumber":"ББ","name":"19221 Слатина","amenity":"post_office","phone":"+381 30 433-404","ref":"19221","name:sr-Latn":"19221 Slatina","addr:pak":"603003","addr:street":"Слатина"},"geometry":{"type":"Point","coordinates":[22.1627585612043,44.0403571959218]}},{"type":"Feature","properties":{"name:sr":"19104 Зајечар 4","opening_hours":"Mo-Fr 08:00-14:00; Sa 08:00-12:00; PH off","addr:housenumber":"104","name":"19104 Зајечар 4","amenity":"post_office","phone":"+381 19 432-319","ref":"19104","name:sr-Latn":"19104 Zaječar 4","addr:pak":"610415","addr:street":"Љубе Нешића"},"geometry":{"type":"Point","coordinates":[22.2830225734254,43.8978911673538]}}]}