{"type":"FeatureCollection","features":[{"type":"Feature","properties":{"name:sr":"19224 Салаш","opening_hours":"Mo-Fr 07:00-13:00; Sa 07:00-11:00; PH off","addr:housenumber":"16","name":"19224 Салаш","amenity":"post_office","phone":"+381 19 470-222","ref":"19224","name:sr-Latn":"19224 Salaš","addr:pak":"612802","addr:street":"Маршала Тита"},"geometry":{"type":"Point","coordinates":[22.320314024278,44.1148498787716]}},{"type":"Feature","properties":{"name:sr":"19225 Сиколе","opening_hours":"Mo,We,Fr 08:00-12:00; PH off","addr:housenumber":"1","name":"19225 Сиколе","amenity":"post_office","phone":"+381 19 475-822","ref":"19225","name:sr-Latn":"19225 Sikole","addr:pak":"612904","addr:street":"Вука Караџића"},"geometry":{"type":"Point","coordinates":[22.3037525260331,44.1758046033168]}},{"type":"Feature","properties":{"name:sr":"19303 Штубик","opening_hours":"Mo-Fr 08:00-14:00; PH off","addr:housenumber":"ББ","name":"19303 Штубик","amenity":"post_office","phone":"+381 19 555-111","ref":"19303","name:sr-Latn":"19303 Štubik","addr:pak":"615304","addr:street":"Београдска"},"geometry":{"type":"Point","coordinates":[22.3522962453816,44.290911357256]}},{"type":"Feature","properties":{"name:sr":"19306 Трњане","opening_hours":"Mo,We,Fr 08:00-12:00; PH off","addr:housenumber":"1","name":"19306 Трњане","amenity":"post_office","phone":"+381 19 552-477","ref":"19306","name:sr-Latn":"19306 Trnjane","addr:pak":"615610","addr:street":"Трг Слободе"},"geometry":{"type":"Point","coordinates":[22.3574538542531,44.2201920375742]}},{"type":"Feature","properties":{"name:sr":"19313 Брусник","opening_hours":"Mo,We,Fr 08:00-12:00; PH off","addr:housenumber":"ББ","name":"19313 Брусник","amenity":"post_office","phone":"+381 19 465-222","ref":"19313","name:sr-Latn":"19313 Brusnik","addr:pak":"613602","addr:street":"Тимочка"},"geometry":{"type":"Point","coordinates":[22.4477176465947,44.1061544648554]}},{"type":"Feature","properties":{"amenity":"post_office","name":"19307 Плавна","name:sr":"19307 Плавна","name:sr-Latn":"19307 Plavna","ref":"19307","opening_hours":"Mo,We,Fr 08:00-13:00; PH off","phone":"+381 19 3556-454","addr:pak":"616302"},"geometry":{"type":"Point","coordinates":[22.260082879303,44.2962657556318]}},{"type":"Feature","properties":{"amenity":"post_office","name":"19232 Дубочане","name:sr":"19232 Дубочане","name:sr-Latn":"19232 Dubočane","ref":"19232","opening_hours":"Mo,We,Fr 07:00-11:00; PH off","phone":"+381 19 474-874","addr:pak":"612354"},"geometry":{"type":"Point","coordinates":[22.2782414389588,44.1063635901415]}}]}