{"type":"FeatureCollection","features":[{"type":"Feature","properties":{"name:sr":"18320 Димитровград","opening_hours":"Mo-Fr 07:00-19:00; Sa 08:00-12:30; PH off","addr:housenumber":"4","name":"18320 Димитровград","amenity":"post_office","phone":"+381 10 305-731","ref":"18320","name:sr-Latn":"18320 Dimitrovgrad","addr:pak":"625206","addr:street":"Балканска"},"geometry":{"type":"Point","coordinates":[22.7779495126317,43.0157843472723]}},{"type":"Feature","properties":{"amenity":"post_office","name":"18326 Поганово","name:sr":"18326 Поганово","name:sr-Latn":"18326 Poganovo","ref":"18326","opening_hours":"Mo 07:00-10:45; Tu,We 07:00-10:00; Th 07:00-10:45; Fr 07:00-10:00; PH off","phone":"+381 10 376-500","addr:pak":"626701"},"geometry":{"type":"Point","coordinates":[22.6647987474053,42.9707979374856]}},{"type":"Feature","properties":{"amenity":"post_office","name":"18333 Звонце","name:sr":"18333 Звонце","name:sr-Latn":"18333 Zvonce","ref":"18333","opening_hours":"Mo-Fr 08:00-11:00; PH off","phone":"+381 10 387-211","addr:pak":"629201"},"geometry":{"type":"Point","coordinates":[22.5668112112611,42.9352072872658]}},{"type":"Feature","properties":{"amenity":"post_office","name":"18321 Градина","name:sr":"18321 Градина","name:sr-Latn":"18321 Gradina","ref":"18321","opening_hours":"Mo-Su,PH 07:30-18:30","phone":"+381 10 361-781","addr:pak":"625502"},"geometry":{"type":"Point","coordinates":[22.8131010719178,42.9937189037818]}},{"type":"Feature","properties":{"amenity":"post_office","name":"18325 Жељуша","name:sr":"18325 Жељуша","name:sr-Latn":"18325 Željuša","ref":"18325","opening_hours":"Mo-Fr 07:00-11:00; PH off","phone":"+381 10 363-491","addr:pak":"625020"},"geometry":{"type":"Point","coordinates":[22.7334642333402,43.0160758143199]}}]}