{"type":"FeatureCollection","features":[{"type":"Feature","properties":{"name:sr":"18300 Пирот","opening_hours":"Mo-Fr 08:00-19:00; Sa 08:00-14:00; PH off","addr:housenumber":"68","name":"18300 Пирот","amenity":"post_office","phone":"+381 10 305-713;+381 10 305-715;+381 10 305-724","ref":"18300","name:sr-Latn":"18300 Pirot","addr:pak":"620814","addr:street":"Српских владара"},"geometry":{"type":"Point","coordinates":[22.5850131625062,43.1556485164807]}},{"type":"Feature","properties":{"amenity":"post_office","name":"18306 Височка Ржана","name:sr":"18306 Височка Ржана","name:sr-Latn":"18306 Visočka Ržana","ref":"18306","opening_hours":"Mo,Tu,We 08:30-11:30; PH off","phone":"+381 10 2353-222","addr:pak":"623301"},"geometry":{"type":"Point","coordinates":[22.8121317326743,43.1552000300566]}},{"type":"Feature","properties":{"amenity":"post_office","name":"18307 Крупац","name:sr":"18307 Крупац","name:sr-Latn":"18307 Krupac","ref":"18307","opening_hours":"Mo,Tu,We,Th,Fr 07:00-10:00; PH off","phone":"+381 10 2688-002","addr:pak":"623501"},"geometry":{"type":"Point","coordinates":[22.6722827182896,43.12220435928]}},{"type":"Feature","properties":{"amenity":"post_office","name":"18309 Гњилан","name:sr":"18309 Гњилан","name:sr-Latn":"18309 Gnjilan","ref":"18309","opening_hours":"Mo-Fr 07:00-15:00; Sa 08:00-12:00; PH off","phone":"+381 10 311-778","addr:pak":"623901"},"geometry":{"type":"Point","coordinates":[22.5587771439984,43.1623598661935]}},{"type":"Feature","properties":{"amenity":"post_office","name":"18322 Суково","name:sr":"18322 Суково","name:sr-Latn":"18322 Sukovo","ref":"18322","opening_hours":"Mo-Fr 07:00-10:00; PH off","phone":"+381 10 373-633","addr:pak":"624001"},"geometry":{"type":"Point","coordinates":[22.6679291137627,43.0719965047864]}},{"type":"Feature","properties":{"name:sr":"18323 Смиловци","opening_hours":"Mo 09:00-12:00; Tu,We 08:00-11:00; Th 09:00-12:00; Fr 08:00-11:00; PH off","addr:housenumber":"ББ","name":"18323 Смиловци","amenity":"post_office","phone":"+381 10 352-111","ref":"18323","name:sr-Latn":"18323 Smilovci","addr:pak":"626101","addr:street":"Смиловци"},"geometry":{"type":"Point","coordinates":[22.8508896832451,43.0846159377224]}},{"type":"Feature","properties":{"amenity":"post_office","name":"18355 Темска","name:sr":"18355 Темска","name:sr-Latn":"18355 Temska","ref":"18355","opening_hours":"Mo-Fr 07:00-10:00; PH off","phone":"+381 10 371-117","addr:pak":"624301"},"geometry":{"type":"Point","coordinates":[22.5429469504597,43.2613747980157]}},{"type":"Feature","properties":{"name:sr":"18308 Пирот","opening_hours":"Mo-Fr 07:00-19:00; Sa 08:00-14:00; PH off","addr:housenumber":"32","name":"18308 Пирот","amenity":"post_office","phone":"+381 10 345-660","ref":"18308","name:sr-Latn":"18308 Pirot","addr:pak":"620221","addr:street":"Хајдук Вељка"},"geometry":{"type":"Point","coordinates":[22.5859203268288,43.1491262667261]}},{"type":"Feature","properties":{"name:sr":"18303 Пирот","opening_hours":"Mo-Fr 07:00-17:00; Sa 08:00-14:00; PH off","addr:housenumber":"22","name":"18303 Пирот","amenity":"post_office","phone":"+381 10 312-294","ref":"18303","name:sr-Latn":"18303 Pirot","addr:pak":"620719","addr:street":"Николе Пашића"},"geometry":{"type":"Point","coordinates":[22.5893234943479,43.1601844486898]}},{"type":"Feature","properties":{"amenity":"post_office","name":"18328 Пољска Ржана","name:sr":"18328 Пољска Ржана","name:sr-Latn":"18328 Poljska Ržana","ref":"18328","opening_hours":"Mo-Fr 07:00-10:00; PH off","phone":"+381 10 2383-604","addr:pak":"621601"},"geometry":{"type":"Point","coordinates":[22.6283127861931,43.1267858137684]}}]}