{"type":"FeatureCollection","features":[{"type":"Feature","properties":{"name:sr":"25211 Светозар Милетић","opening_hours":"Mo-Fr 07:00-14:00; PH off","addr:housenumber":"5","name":"25211 Светозар Милетић","amenity":"post_office","phone":"+381 25 840-011","ref":"25211","name:sr-Latn":"25211 Svetozar Miletić","addr:pak":"428701","addr:street":"Доситеја Обрадовића"},"geometry":{"type":"Point","coordinates":[19.2043727720293,45.8516165557501]}},{"type":"Feature","properties":{"name:sr":"25212 Алекса Шантић","opening_hours":"Mo-Fr 07:00-14:00; PH off","addr:housenumber":"1А","name":"25212 Алекса Шантић","amenity":"post_office","phone":"+381 25 5838-222","ref":"25212","name:sr-Latn":"25212 Aleksa Šantić","addr:pak":"429019","addr:street":"Солунских добровољаца"},"geometry":{"type":"Point","coordinates":[19.3346545668734,45.9269662047014]}},{"type":"Feature","properties":{"name:sr":"25280 Риђица","opening_hours":"Mo-Fr 07:30-14:30; PH off","addr:housenumber":"59","name":"25280 Риђица","amenity":"post_office","phone":"+381 25 856-612","ref":"25280","name:sr-Latn":"25280 Riđica","addr:pak":"428402","addr:street":"Светог Саве"},"geometry":{"type":"Point","coordinates":[19.1065772307799,45.9914234408675]}},{"type":"Feature","properties":{"name:sr":"25282 Гаково","opening_hours":"Mo-Fr 07:00-14:00; PH off","addr:housenumber":"1Б","name":"25282 Гаково","amenity":"post_office","phone":"+381 25 866-611","ref":"25282","name:sr-Latn":"25282 Gakovo","addr:pak":"429301","addr:street":"Жарка Зрењанина"},"geometry":{"type":"Point","coordinates":[19.0598326974972,45.9010887098524]}},{"type":"Feature","properties":{"name:sr":"25284 Станишић","opening_hours":"Mo-Fr 07:00-14:00; PH off","addr:housenumber":"87","name":"25284 Станишић","amenity":"post_office","phone":"+381 25 830-011","ref":"25284","name:sr-Latn":"25284 Stanišić","addr:pak":"428022","addr:street":"Ослобођења"},"geometry":{"type":"Point","coordinates":[19.1650970617402,45.936503960289]}}]}