{"type":"FeatureCollection","features":[{"type":"Feature","properties":{"name:sr":"19300 Неготин","opening_hours":"Mo-Fr 07:00-19:00; Sa 07:00-14:00; PH off","addr:housenumber":"1","name":"19300 Неготин","amenity":"post_office","phone":"+381 19 444-240;+381 19 444-251","ref":"19300","name:sr-Latn":"19300 Negotin","addr:pak":"615101","addr:street":"Србе Јовановића"},"geometry":{"type":"Point","coordinates":[22.5298435458883,44.231294508203]}},{"type":"Feature","properties":{"name:sr":"19314 Рајац","opening_hours":"Tu,Th 08:00-12:00; PH off","addr:housenumber":"ББ","name":"19314 Рајац","amenity":"post_office","phone":"+381 19 554-011","ref":"19314","name:sr-Latn":"19314 Rajac","addr:pak":"615702","addr:street":"Вука Караџића"},"geometry":{"type":"Point","coordinates":[22.5572707955753,44.0940564829602]}},{"type":"Feature","properties":{"name:sr":"19316 Кобишница","opening_hours":"Mo-Fr 07:00-14:00; PH off","addr:housenumber":"60","name":"19316 Кобишница","amenity":"post_office","phone":"+381 19 551-111","ref":"19316","name:sr-Latn":"19316 Kobišnica","addr:pak":"615901","addr:street":"Слободана Пенезића"},"geometry":{"type":"Point","coordinates":[22.6008990888053,44.1973427392233]}},{"type":"Feature","properties":{"name:sr":"19317 Мокрање","opening_hours":"Tu,Th 08:00-12:00; PH off","addr:housenumber":"ББ","name":"19317 Мокрање","amenity":"post_office","phone":"+381 19 534-500","ref":"19317","name:sr-Latn":"19317 Mokranje","addr:pak":"616010","addr:street":"Светог Саве"},"geometry":{"type":"Point","coordinates":[22.5405699255032,44.1581588754755]}},{"type":"Feature","properties":{"amenity":"post_office","name":"19318 Рогљево","name:sr":"19318 Рогљево","name:sr-Latn":"19318 Rogljevo","ref":"19318","opening_hours":"Mo,We,Fr 08:00-12:00; PH off","phone":"+381 19 532-600","addr:pak":"616102"},"geometry":{"type":"Point","coordinates":[22.5657851171083,44.1233352761974]}},{"type":"Feature","properties":{"name:sr":"19330 Прахово","opening_hours":"Mo-Fr 07:30-11:30; PH off","addr:housenumber":"22","name":"19330 Прахово","amenity":"post_office","phone":"+381 19 3524-011","ref":"19330","name:sr-Latn":"19330 Prahovo","addr:pak":"616411","addr:street":"Трг Слободе"},"geometry":{"type":"Point","coordinates":[22.5844766456195,44.2950172082657]}},{"type":"Feature","properties":{"name:sr":"19334 Радујевац","opening_hours":"Mo,We,Fr 07:00-11:00; PH off","addr:housenumber":"8","name":"19334 Радујевац","amenity":"post_office","phone":"+381 19 3528-111","ref":"19334","name:sr-Latn":"19334 Radujevac","addr:pak":"616554","addr:street":"Шеснаесте српске бригаде"},"geometry":{"type":"Point","coordinates":[22.6769215534005,44.2698715933834]}},{"type":"Feature","properties":{"name:sr":"19335 Душановац","opening_hours":"Mo-Fr 08:00-12:00; PH off","addr:housenumber":"2","name":"19335 Душановац","amenity":"post_office","phone":"+381 19 560-011","ref":"19335","name:sr-Latn":"19335 Dušanovac","addr:pak":"616608","addr:street":"Неготинска"},"geometry":{"type":"Point","coordinates":[22.5264284127059,44.2923731550668]}}]}