{"type":"FeatureCollection","features":[{"type":"Feature","properties":{"name:sr":"19324 Велика Врбица","opening_hours":"Mo,We,Fr 08:00-15:00; PH off","addr:housenumber":"ББ","name":"19324 Велика Врбица","amenity":"post_office","phone":"+381 19 814-821","ref":"19324","name:sr-Latn":"19324 Velika Vrbica","addr:pak":"618716","addr:street":"Маршала Тита"},"geometry":{"type":"Point","coordinates":[22.714314072249,44.5860249528558]}},{"type":"Feature","properties":{"name:sr":"19328 Велесница","opening_hours":"Tu,Th 08:00-12:00; PH off","addr:housenumber":"ББ","name":"19328 Велесница","amenity":"post_office","phone":"+381 19 ;+381 19 883-675","ref":"19328","name:sr-Latn":"19328 Velesnica","addr:pak":"619708","addr:street":"Дунавска"},"geometry":{"type":"Point","coordinates":[22.5534979094151,44.5175592124542]}},{"type":"Feature","properties":{"name:sr":"19329 Корбово","opening_hours":"Tu,Th 08:00-15:00; PH off","addr:housenumber":"ББ","name":"19329 Корбово","amenity":"post_office","phone":"+381 19 884-229","ref":"19329","name:sr-Latn":"19329 Korbovo","addr:pak":"619814","addr:street":"Светосавска"},"geometry":{"type":"Point","coordinates":[22.7069477552165,44.5254847090491]}}]}