{"type":"FeatureCollection","features":[{"type":"Feature","properties":{"name:sr":"22222 Мартинци","opening_hours":"Mo-Fr 08:00-14:00; Sa 08:00-12:00; PH off","addr:housenumber":"8","name":"22222 Мартинци","amenity":"post_office","phone":"+381 22 668-410","ref":"22222","name:sr-Latn":"22222 Martinci","addr:pak":"323115","addr:street":"Радничка"},"geometry":{"type":"Point","coordinates":[19.4623818657667,45.0107161155979]}},{"type":"Feature","properties":{"name:sr":"22223 Кузмин","opening_hours":"Mo-Fr 08:00-14:00; Sa 08:00-12:00; PH off","addr:housenumber":"1","name":"22223 Кузмин","amenity":"post_office","phone":"+381 22 664-430","ref":"22223","name:sr-Latn":"22223 Kuzmin","addr:pak":"323312","addr:street":"Задружна"},"geometry":{"type":"Point","coordinates":[19.4074022970573,45.0218218633943]}},{"type":"Feature","properties":{"name:sr":"22224 Кукујевци","opening_hours":"Mo-Fr 07:00-14:00; PH off","addr:housenumber":"2","name":"22224 Кукујевци","amenity":"post_office","phone":"+381 22 742-216","ref":"22224","name:sr-Latn":"22224 Kukujevci","addr:pak":"328127","addr:street":"Војводе Синђелића"},"geometry":{"type":"Point","coordinates":[19.3399883419555,45.0701727935945]}},{"type":"Feature","properties":{"name:sr":"22231 Чалма","opening_hours":"Mo-Fr 07:00-10:30; PH off","addr:housenumber":"18","name":"22231 Чалма","amenity":"post_office","phone":"+381 22 2685-123","ref":"22231","name:sr-Latn":"22231 Čalma","addr:pak":"323729","addr:street":"Победа"},"geometry":{"type":"Point","coordinates":[19.5063155045699,45.0799550064514]}}]}