{"type":"FeatureCollection","features":[{"type":"Feature","properties":{"name:sr":"15211 Мачвански Причиновић","opening_hours":"Mo-Fr 08:00-14:00; PH off","addr:housenumber":"2","name":"15211 Мачвански Причиновић","amenity":"post_office","phone":"+381 15 276-121","ref":"15211","name:sr-Latn":"15211 Mačvanski Pričinović","addr:pak":"274114","addr:street":"Војводе Мишића"},"geometry":{"type":"Point","coordinates":[19.6341792788313,44.8476153915885]}},{"type":"Feature","properties":{"name:sr":"15356 Глушци","opening_hours":"Mo-Sa 08:00-14:00; PH off","addr:housenumber":"2","name":"15356 Глушци","amenity":"post_office","phone":"+381 15 449-009","ref":"15356","name:sr-Latn":"15356 Glušci","addr:pak":"276632","addr:street":"Миће Перишића"},"geometry":{"type":"Point","coordinates":[19.5493315165705,44.8889546716406]}},{"type":"Feature","properties":{"name:sr":"22202 Мачванска Митровица","opening_hours":"Mo-Fr 08:00-14:00; Sa 08:00-12:00; PH off","addr:housenumber":"45","name":"22202 Мачванска Митровица","amenity":"post_office","phone":"+381 22 623-112","ref":"22202","name:sr-Latn":"22202 Mačvanska Mitrovica","addr:pak":"322101","addr:street":"Мачвански кеј"},"geometry":{"type":"Point","coordinates":[19.5994127911738,44.9644694351295]}},{"type":"Feature","properties":{"amenity":"post_office","name":"22203 Ноћај","name:sr":"22203 Ноћај","name:sr-Latn":"22203 Noćaj","ref":"22203","opening_hours":"Mo-Fr 07:00-14:00; PH off","phone":"+381 22 657-111","addr:pak":"325710"},"geometry":{"type":"Point","coordinates":[19.5570623260431,44.9266023054967]}},{"type":"Feature","properties":{"name:sr":"22204 Салаш Ноћајски","opening_hours":"Mo-Fr 07:00-10:30; PH off","addr:housenumber":"137","name":"22204 Салаш Ноћајски","amenity":"post_office","phone":"+381 22 650-210","ref":"22204","name:sr-Latn":"22204 Salaš Noćajski","addr:pak":"322885","addr:street":"Стојана Чупића"},"geometry":{"type":"Point","coordinates":[19.5878828441684,44.9475592681589]}}]}