{"type":"FeatureCollection","features":[{"type":"Feature","properties":{"name:sr":"22000 Сремска Митровица","opening_hours":"Mo-Fr 08:00-19:00; Sa 08:00-14:00; PH off","addr:housenumber":"2","name":"22000 Сремска Митровица","amenity":"post_office","phone":"+381 22 600-633;+381 22 600-613;+381 22 600-615","ref":"22000","name:sr-Latn":"22000 Sremska Mitrovica","addr:pak":"320701","addr:street":"Краља Петра првог"},"geometry":{"type":"Point","coordinates":[19.6089543606697,44.9690167734333]}},{"type":"Feature","properties":{"name:sr":"22112 Сремска Митровица","opening_hours":"Mo-Sa 08:00-19:00; Su 10:00-15:00; PH 08:00-19:00","addr:housenumber":"1","name":"22112 Сремска Митровица","amenity":"post_office","phone":"+381 22 641676","ref":"22112","name:sr-Latn":"22112 Sremska Mitrovica","addr:pak":"320311","addr:street":"Тимочке дивизије"},"geometry":{"type":"Point","coordinates":[19.6269471973718,44.9695526300152]}},{"type":"Feature","properties":{"name:sr":"22111 Сремска Митровица","opening_hours":"Mo-Fr 07:00-13:30; PH off","addr:housenumber":"66","name":"22111 Сремска Митровица","amenity":"post_office","phone":"+381 22 610-748","ref":"22111","name:sr-Latn":"22111 Sremska Mitrovica","addr:pak":"321436","addr:street":"Радиначки пут"},"geometry":{"type":"Point","coordinates":[19.6261722215356,44.9869575315021]}},{"type":"Feature","properties":{"name:sr":"22101 Сремска Митровица","opening_hours":"Mo-Fr 07:30-13:30; PH off","addr:housenumber":"39","name":"22101 Сремска Митровица","amenity":"post_office","phone":"+381 22 600672","ref":"22101","name:sr-Latn":"22101 Sremska Mitrovica","addr:pak":"320202","addr:street":"Светог Димитрија"},"geometry":{"type":"Point","coordinates":[19.6131168138476,44.9714290467831]}},{"type":"Feature","properties":{"amenity":"post_office","name":"22113 Сремска Митровица","name:sr":"22113 Сремска Митровица","name:sr-Latn":"22113 Sremska Mitrovica","ref":"22113","opening_hours":"Mo-Fr 07:00-13:00; Sa 08:00-12:00; PH off","phone":"+381 22 600-676;+381 22 600-675","addr:pak":"321126"},"geometry":{"type":"Point","coordinates":[19.6135695845761,44.9753586486408]}}]}