{"type":"FeatureCollection","features":[{"type":"Feature","properties":{"amenity":"post_office","name":"15362 Баново Поље","name:sr":"15362 Баново Поље","name:sr-Latn":"15362 Banovo Polje","ref":"15362","opening_hours":"Mo-Fr 08:00-14:00; PH off","phone":"+381 15 430-700","addr:pak":"277119"},"geometry":{"type":"Point","coordinates":[19.4454528409083,44.9089206933914]}},{"type":"Feature","properties":{"name:sr":"22201 Засавица 1","opening_hours":"Mo-Fr 07:00-10:30; PH off","addr:housenumber":"93","name":"22201 Засавица 1","amenity":"post_office","phone":"+381 22 2659-512","ref":"22201","name:sr-Latn":"22201 Zasavica 1","addr:pak":"325303","addr:street":"Пеке Дапчевића"},"geometry":{"type":"Point","coordinates":[19.5007198545102,44.9514839184314]}},{"type":"Feature","properties":{"name:sr":"22205 Равње","opening_hours":"Mo-Fr 07:00-10:30; PH off","addr:housenumber":"3","name":"22205 Равње","amenity":"post_office","phone":"+381 22 658-819","ref":"22205","name:sr-Latn":"22205 Ravnje","addr:pak":"325530","addr:street":"Краља Петра првог"},"geometry":{"type":"Point","coordinates":[19.4322123640997,44.9437111159628]}}]}