{"type":"FeatureCollection","features":[{"type":"Feature","properties":{"name:sr":"15305 Липолист","opening_hours":"Mo-Fr 08:00-14:00; PH off","addr:housenumber":"8","name":"15305 Липолист","amenity":"post_office","phone":"+381 15 274-274","ref":"15305","name:sr-Latn":"15305 Lipolist","addr:pak":"274517","addr:street":"Карађорђева"},"geometry":{"type":"Point","coordinates":[19.5020228913709,44.6996512986143]}},{"type":"Feature","properties":{"name:sr":"15306 Прњавор","opening_hours":"Mo-Sa 08:00-14:00; PH off","addr:housenumber":"3","name":"15306 Прњавор","amenity":"post_office","phone":"+381 15 362-083;+381 15 282-210","ref":"15306","name:sr-Latn":"15306 Prnjavor","addr:pak":"274823","addr:street":"Карађорђева"},"geometry":{"type":"Point","coordinates":[19.388303278371,44.6984114744474]}},{"type":"Feature","properties":{"name:sr":"15310 Рибари","opening_hours":"Mo-Fr 08:00-14:00; PH off","addr:housenumber":"2","name":"15310 Рибари","amenity":"post_office","phone":"+381 15 270-013","ref":"15310","name:sr-Latn":"15310 Ribari","addr:pak":"274713","addr:street":"Дринска"},"geometry":{"type":"Point","coordinates":[19.423594679551,44.7095801449494]}}]}