{"type":"FeatureCollection","features":[{"type":"Feature","properties":{"name:sr":"31300 Пријепоље","opening_hours":"Mo-Fr 08:00-19:00; Sa 08:00-15:00; PH off","addr:housenumber":"1","name":"31300 Пријепоље","amenity":"post_office","phone":"+381 33 2150100;+381 33 2150103","ref":"31300","name:sr-Latn":"31300 Prijepolje","addr:pak":"510124","addr:street":"Зоре Томашевић"},"geometry":{"type":"Point","coordinates":[19.6458837371788,43.3885321260413]}},{"type":"Feature","properties":{"amenity":"post_office","name":"31303 Пријепоље","name:sr":"31303 Пријепоље","name:sr-Latn":"31303 Prijepolje","ref":"31303","opening_hours":"Mo-Fr 08:00-15:00; Sa 08:00-12:00; PH off","phone":"+381 33 2150104;+381 33 2150105","addr:pak":"512014"},"geometry":{"type":"Point","coordinates":[19.6271464038464,43.3700861994891]}},{"type":"Feature","properties":{"name:sr":"31306 Јабука","opening_hours":"Mo-Fr 08:00-14:00; PH off","addr:housenumber":"ББ","name":"31306 Јабука","amenity":"post_office","phone":"+381 33 2755-214","ref":"31306","name:sr-Latn":"31306 Jabuka","addr:pak":"513101","addr:street":"Јабука"},"geometry":{"type":"Point","coordinates":[19.5151288855451,43.3487177845434]}},{"type":"Feature","properties":{"amenity":"post_office","name":"31325 Бистрица","name:sr":"31325 Бистрица","name:sr-Latn":"31325 Bistrica","ref":"31325","opening_hours":"Mo-Fr 08:00-14:00; PH off","phone":"+381 33 80-600","addr:pak":"519002"},"geometry":{"type":"Point","coordinates":[19.6553010224313,43.4692092860282]}},{"type":"Feature","properties":{"name:sr":"31330 Прибој","opening_hours":"Mo-Fr 08:00-19:00; Sa 08:00-15:00; PH off","addr:housenumber":"60","name":"31330 Прибој","amenity":"post_office","phone":"+381 33 2150-111;+381 33 2150-113","ref":"31330","name:sr-Latn":"31330 Priboj","addr:pak":"514340","addr:street":"Немањина"},"geometry":{"type":"Point","coordinates":[19.540627357893,43.5594892832333]}},{"type":"Feature","properties":{"amenity":"post_office","name":"31335 Саставци","name:sr":"31335 Саставци","name:sr-Latn":"31335 Sastavci","ref":"31335","opening_hours":"Mo-Fr 08:00-13:00; PH off","phone":"+381 33 47-122","addr:pak":"516001"},"geometry":{"type":"Point","coordinates":[19.4266931483686,43.5560533108384]}},{"type":"Feature","properties":{"amenity":"post_office","name":"31337 БАЊА КОД ПрибојА","name:sr":"31337 БАЊА КОД ПрибојА","name:sr-Latn":"31337 BANjA KOD PribojA","ref":"31337","opening_hours":"Mo-Fr 08:00-15:00; PH off","phone":"+381 33 2448-896","addr:pak":"515610"},"geometry":{"type":"Point","coordinates":[19.5599313175855,43.5458187836721]}}]}