{"type":"FeatureCollection","features":[{"type":"Feature","properties":{"name:sr":"15232 Варна","opening_hours":"Mo-Fr 08:00-14:00; PH off","addr:housenumber":"ББ","name":"15232 Варна","amenity":"post_office","phone":"+381 15 284-530","ref":"15232","name:sr-Latn":"15232 Varna","addr:pak":"275021","addr:street":"Церска"},"geometry":{"type":"Point","coordinates":[19.6507351311755,44.6775570983471]}},{"type":"Feature","properties":{"amenity":"post_office","name":"15233 Метлић","name:sr":"15233 Метлић","name:sr-Latn":"15233 Metlić","ref":"15233","opening_hours":"Mo-Fr 08:00-14:00; PH off","phone":"+381 15-260-151","addr:pak":"275171"},"geometry":{"type":"Point","coordinates":[19.6181338246549,44.6103581906754]}},{"type":"Feature","properties":{"name:sr":"15235 Добрић","opening_hours":"Mo-Fr 08:00-14:00; PH off","addr:housenumber":"2","name":"15235 Добрић","amenity":"post_office","phone":"+381 15 295-002","ref":"15235","name:sr-Latn":"15235 Dobrić","addr:pak":"274418","addr:street":"Милачка мала"},"geometry":{"type":"Point","coordinates":[19.5798049916329,44.7001772608548]}}]}