{"type":"FeatureCollection","features":[{"type":"Feature","properties":{"name:sr":"15350 Богатић","opening_hours":"Mo-Fr 08:00-15:00; Sa 08:00-14:00; PH off","addr:housenumber":"2","name":"15350 Богатић","amenity":"post_office","phone":"+381 15 362-077;+381 15 362-076","ref":"15350","name:sr-Latn":"15350 Bogatić","addr:pak":"276115","addr:street":"Мике Митровића"},"geometry":{"type":"Point","coordinates":[19.4791016356566,44.834479606057]}},{"type":"Feature","properties":{"name:sr":"15357 Клење","opening_hours":"Mo-Fr 08:00-14:00; PH off","addr:housenumber":"1","name":"15357 Клење","amenity":"post_office","phone":"+381 15 458-002","ref":"15357","name:sr-Latn":"15357 Klenje","addr:pak":"276821","addr:street":"Цара Душана"},"geometry":{"type":"Point","coordinates":[19.4347346647473,44.8072214890433]}},{"type":"Feature","properties":{"name:sr":"15359 Дубље","opening_hours":"Mo-Fr 08:00-14:00; PH off","addr:housenumber":"7","name":"15359 Дубље","amenity":"post_office","phone":"+381 15 440-788","ref":"15359","name:sr-Latn":"15359 Dublje","addr:pak":"276723","addr:street":"Ђенерала Драже Михаиловића"},"geometry":{"type":"Point","coordinates":[19.4990946655686,44.801029848174]}}]}