{"type":"FeatureCollection","features":[{"type":"Feature","properties":{"amenity":"post_office","name":"31243 Мокра Гора","name:sr":"31243 Мокра Гора","name:sr-Latn":"31243 Mokra Gora","ref":"31243","opening_hours":"Mo-Fr 08:00-15:00; PH off","phone":"+381 31 800-325","addr:pak":"504301"},"geometry":{"type":"Point","coordinates":[19.4978274927562,43.787589886867]}},{"type":"Feature","properties":{"amenity":"post_office","name":"31244 Шљивовица","name:sr":"31244 Шљивовица","name:sr-Latn":"31244 Šljivovica","ref":"31244","opening_hours":"Mo-Fr 08:00-15:00; PH off","phone":"+381 31 3830-122","addr:pak":"509502"},"geometry":{"type":"Point","coordinates":[19.6764672089921,43.7891562174257]}},{"type":"Feature","properties":{"name:sr":"31333 Прибој","opening_hours":"Mo-Fr 08:00-15:00; Sa 08:00-12:00; PH off","addr:housenumber":"23","name":"31333 Прибој","amenity":"post_office","phone":"+381 33 2150-114;+381 33 2150-115","ref":"31333","name:sr-Latn":"31333 Priboj","addr:pak":"515105","addr:street":"Дванаестог јануара"},"geometry":{"type":"Point","coordinates":[19.5258848856398,43.582117391489]}}]}