{"type":"FeatureCollection","features":[{"type":"Feature","properties":{"amenity":"post_office","name":"31241 Биоска","name:sr":"31241 Биоска","name:sr-Latn":"31241 Bioska","ref":"31241","opening_hours":"Mo-Fr 08:00-15:00; PH off","phone":"+381 31 3807-114","addr:pak":"504101"},"geometry":{"type":"Point","coordinates":[19.6553537333707,43.8630497146537]}},{"type":"Feature","properties":{"amenity":"post_office","name":"31242 Кремна","name:sr":"31242 Кремна","name:sr-Latn":"31242 Kremna","ref":"31242","opening_hours":"Mo-Fr 08:00-15:00; PH off","phone":"+381 31 3808-446","addr:pak":"504201"},"geometry":{"type":"Point","coordinates":[19.5796823510121,43.8483431509038]}},{"type":"Feature","properties":{"name:sr":"31250 Бајина Башта","opening_hours":"Mo-Fr 08:00-19:00; Sa 08:00-15:00; PH off","addr:housenumber":"7","name":"31250 Бајина Башта","amenity":"post_office","phone":"+381 31 590-858;+381 31 590-857","ref":"31250","name:sr-Latn":"31250 Bajina Bašta","addr:pak":"506711","addr:street":"Вука Караџића"},"geometry":{"type":"Point","coordinates":[19.565574077611,43.972208508591]}},{"type":"Feature","properties":{"amenity":"post_office","name":"31251 Митровац","name:sr":"31251 Митровац","name:sr-Latn":"31251 Mitrovac","ref":"31251","opening_hours":"Mo-Fr 08:00-11:00; PH off","phone":"+381 31 3859-730","addr:pak":"507301"},"geometry":{"type":"Point","coordinates":[19.4241513373585,43.9192303095571]}},{"type":"Feature","properties":{"amenity":"post_office","name":"31253 Злодол","name:sr":"31253 Злодол","name:sr-Latn":"31253 Zlodol","ref":"31253","opening_hours":"Mo-Fr 08:00-14:00; PH off","phone":"+381 31 3857-055","addr:pak":"507440"},"geometry":{"type":"Point","coordinates":[19.6840037802455,43.9454772281548]}},{"type":"Feature","properties":{"amenity":"post_office","name":"31255 Рогачица","name:sr":"31255 Рогачица","name:sr-Latn":"31255 Rogačica","ref":"31255","opening_hours":"Mo-Fr 07:00-14:00; PH off","phone":"+381 31 3850-555","addr:pak":"507670"},"geometry":{"type":"Point","coordinates":[19.6347466811165,44.0364338881978]}},{"type":"Feature","properties":{"name:sr":"31256 Перућац","opening_hours":"Mo-Fr 08:00-15:00; PH off","addr:housenumber":"6","name":"31256 Перућац","amenity":"post_office","phone":"+381 31 859-284","ref":"31256","name:sr-Latn":"31256 Perućac","addr:pak":"507704","addr:street":"Николе Тесле"},"geometry":{"type":"Point","coordinates":[19.4291394715714,43.9576399642344]}}]}