{"type":"FeatureCollection","features":[{"type":"Feature","properties":{"amenity":"post_office","name":"15312 Завлака","name:sr":"15312 Завлака","name:sr-Latn":"15312 Zavlaka","ref":"15312","opening_hours":"Mo-Sa 08:00-14:00; PH off","phone":"+381 15 592-011","addr:pak":"265019"},"geometry":{"type":"Point","coordinates":[19.4840452052131,44.4549622023404]}},{"type":"Feature","properties":{"amenity":"post_office","name":"15313 Бела Црква","name:sr":"15313 Бела Црква","name:sr-Latn":"15313 Bela Crkva","ref":"15313","opening_hours":"Mo-Fr 08:00-14:00; PH off","phone":"+381 15 691-010","addr:pak":"265111"},"geometry":{"type":"Point","coordinates":[19.4795040667832,44.3938379151978]}},{"type":"Feature","properties":{"name:sr":"15314 Крупањ","opening_hours":"Mo-Sa 08:00-14:00; PH off","addr:housenumber":"2","name":"15314 Крупањ","amenity":"post_office","phone":"+381 15 362-084;+381 15 582-882","ref":"15314","name:sr-Latn":"15314 Krupanj","addr:pak":"264856","addr:street":"Маршала Тита"},"geometry":{"type":"Point","coordinates":[19.36248377269,44.3657863638805]}}]}