{"type":"FeatureCollection","features":[{"type":"Feature","properties":{"name:sr":"14210 Уб","opening_hours":"Mo-Fr 08:00-15:00; Sa 08:00-12:00; PH off","addr:housenumber":"39","name":"14210 Уб","amenity":"post_office","phone":"+381 14 294-051;+381 14 411-654;+381 14 414-017","ref":"14210","name:sr-Latn":"14210 Ub","addr:pak":"240201","addr:street":"Краља Петра првог ослободиоца"},"geometry":{"type":"Point","coordinates":[20.0734456751159,44.4572628448452]}},{"type":"Feature","properties":{"amenity":"post_office","name":"14223 Словац","name:sr":"14223 Словац","name:sr-Latn":"14223 Slovac","ref":"14223","opening_hours":"Mo-Fr 08:00-14:00; PH off","phone":"+381 14 436-301","addr:pak":"244101"},"geometry":{"type":"Point","coordinates":[20.0874689275818,44.3452987758925]}},{"type":"Feature","properties":{"name:sr":"14224 Лајковац","opening_hours":"Mo-Sa 07:00-14:00; PH off","addr:housenumber":"13","name":"14224 Лајковац","amenity":"post_office","phone":"+381 14 294-053;+381 14 3431-021","ref":"14224","name:sr-Latn":"14224 Lajkovac","addr:pak":"243102","addr:street":"Војводе Мишића"},"geometry":{"type":"Point","coordinates":[20.1644416117504,44.3681396613602]}},{"type":"Feature","properties":{"amenity":"post_office","name":"14226 Јабучје","name:sr":"14226 Јабучје","name:sr-Latn":"14226 Jabučje","ref":"14226","opening_hours":"Mo-Fr 08:00-14:00; PH off","phone":"+381 14 434-034","addr:pak":"244700"},"geometry":{"type":"Point","coordinates":[20.1807254812219,44.4066677903337]}}]}