{"type":"FeatureCollection","features":[{"type":"Feature","properties":{"amenity":"post_office","name":"31258 Бачевци","name:sr":"31258 Бачевци","name:sr-Latn":"31258 Bačevci","ref":"31258","opening_hours":"Mo-Fr 08:00-11:00; PH off","phone":"+381 31 856-720","addr:pak":"507920"},"geometry":{"type":"Point","coordinates":[19.5092820322766,44.0890276454281]}},{"type":"Feature","properties":{"amenity":"post_office","name":"15319 Узовница","name:sr":"15319 Узовница","name:sr-Latn":"15319 Uzovnica","ref":"15319","opening_hours":"Mo-Fr 08:00-14:00; PH off","phone":"+381 15 566-202","addr:pak":"269124"},"geometry":{"type":"Point","coordinates":[19.3378132061192,44.2558318343225]}},{"type":"Feature","properties":{"name:sr":"15320 Љубовија","opening_hours":"Mo-Fr 08:00-15:00; Sa 08:00-14:00; PH off","addr:housenumber":"61","name":"15320 Љубовија","amenity":"post_office","phone":"+381 15 362-087;+381 15 561-988","ref":"15320","name:sr-Latn":"15320 Ljubovija","addr:pak":"268419","addr:street":"Војводе Мишића"},"geometry":{"type":"Point","coordinates":[19.3706122795406,44.1876736877299]}},{"type":"Feature","properties":{"amenity":"post_office","name":"15323 Доња Оровица","name:sr":"15323 Доња Оровица","name:sr-Latn":"15323 Donja Orovica","ref":"15323","opening_hours":"Mo-Fr 08:00-14:00; PH off","phone":"+381 15 655-122","addr:pak":"269311"},"geometry":{"type":"Point","coordinates":[19.4870662362744,44.2216572429597]}},{"type":"Feature","properties":{"amenity":"post_office","name":"15324 Врхпоље","name:sr":"15324 Врхпоље","name:sr-Latn":"15324 Vrhpolje","ref":"15324","opening_hours":"Mo-Fr 08:00-11:00; PH off","phone":"+381 15 567-019","addr:pak":"269465"},"geometry":{"type":"Point","coordinates":[19.4490160784016,44.1438326038752]}},{"type":"Feature","properties":{"name:sr":"14207 Пецка","opening_hours":"Mo-Fr 09:00-14:00; PH off","addr:housenumber":"41","name":"14207 Пецка","amenity":"post_office","phone":"+381 14 3455-100","ref":"14207","name:sr-Latn":"14207 Pecka","addr:pak":"255602","addr:street":"Краља Петра"},"geometry":{"type":"Point","coordinates":[19.5391604951131,44.2915688612255]}}]}