{"type":"FeatureCollection","features":[{"type":"Feature","properties":{"name:sr":"11453 Рогача","opening_hours":"Mo-Fr 07:00-14:00; PH off","addr:housenumber":"153","name":"11453 Рогача","amenity":"post_office","phone":"+381 11 8255-306","ref":"11453","name:sr-Latn":"11453 Rogača","addr:pak":"226932","addr:street":"Космајска"},"geometry":{"type":"Point","coordinates":[20.5208204121694,44.4611315430983]}},{"type":"Feature","properties":{"amenity":"post_office","name":"11454 Сибница","name:sr":"11454 Сибница","name:sr-Latn":"11454 Sibnica","ref":"11454","opening_hours":"Mo-Fr 08:00-13:30; PH off","phone":"+381 11 8259-081","addr:pak":"225817"},"geometry":{"type":"Point","coordinates":[20.4527482236935,44.4627236428248]}},{"type":"Feature","properties":{"name:sr":"11566 Рудовци","opening_hours":"Mo-Fr 08:00-14:00; PH off","addr:housenumber":"1","name":"11566 Рудовци","amenity":"post_office","phone":"+381 11 8192-231","ref":"11566","name:sr-Latn":"11566 Rudovci","addr:pak":"216609","addr:street":"Рударска"},"geometry":{"type":"Point","coordinates":[20.4040912280467,44.3807552039299]}},{"type":"Feature","properties":{"amenity":"post_office","name":"34302 Раниловић","name:sr":"34302 Раниловић","name:sr-Latn":"34302 Ranilović","ref":"34302","opening_hours":"Mo 07:30-11:30; Tu 07:30-13:30; We 07:30-11:30; Th 07:30-13:30; Fr 07:30-11:30; PH off","phone":"+381 34 748-119","addr:pak":"541901"},"geometry":{"type":"Point","coordinates":[20.5202897202657,44.3958630439611]}},{"type":"Feature","properties":{"amenity":"post_office","name":"34306 Венчане","name:sr":"34306 Венчане","name:sr-Latn":"34306 Venčane","ref":"34306","opening_hours":"Mo-Fr 08:00-14:00; PH off","phone":"+381 34 6798-711","addr:pak":"542302"},"geometry":{"type":"Point","coordinates":[20.4674338701628,44.4067642194033]}},{"type":"Feature","properties":{"amenity":"post_office","name":"11567 Миросаљци","name:sr":"11567 Миросаљци","name:sr-Latn":"11567 Mirosaljci","ref":"11567","opening_hours":"Mo-Fr 08:00-13:00; PH off","phone":"+381 11 8173-411","addr:pak":"216405"},"geometry":{"type":"Point","coordinates":[20.4160209987779,44.4367687123435]}}]}