{"type":"FeatureCollection","features":[{"type":"Feature","properties":{"name:sr":"11400 Младеновац","opening_hours":"Mo-Fr 08:00-19:00; Sa 08:00-15:00; PH off","addr:housenumber":"10","name":"11400 Младеновац","amenity":"post_office","phone":"+381 11 3535-081;+381 11 3535-083","ref":"11400","name:sr-Latn":"11400 Mladenovac","addr:pak":"220510","addr:street":"Јанка Катића"},"geometry":{"type":"Point","coordinates":[20.6950184836541,44.4400448434188]}},{"type":"Feature","properties":{"amenity":"post_office","name":"11409 Ковачевац","name:sr":"11409 Ковачевац","name:sr-Latn":"11409 Kovačevac","ref":"11409","opening_hours":"Mo-Fr 07:00-14:00; PH off","phone":"+381 11 8213-302","addr:pak":"223215"},"geometry":{"type":"Point","coordinates":[20.7406526840365,44.437146994277]}},{"type":"Feature","properties":{"name:sr":"11415 Кораћица","opening_hours":"Mo-Fr 07:30-14:00; PH off","addr:housenumber":"220","name":"11415 Кораћица","amenity":"post_office","phone":"+381 11 8219-703","ref":"11415","name:sr-Latn":"11415 Koraćica","addr:pak":"225220","addr:street":"Космајски пут"},"geometry":{"type":"Point","coordinates":[20.6075539921739,44.4441503862167]}},{"type":"Feature","properties":{"amenity":"post_office","name":"34307 Стојник","name:sr":"34307 Стојник","name:sr-Latn":"34307 Stojnik","ref":"34307","opening_hours":"Mo-Fr 07:30-11:30; PH off","phone":"+381 34 6707-111","addr:pak":"542401"},"geometry":{"type":"Point","coordinates":[20.6211114250748,44.3739350531781]}},{"type":"Feature","properties":{"amenity":"post_office","name":"11412 Јагњило","name:sr":"11412 Јагњило","name:sr-Latn":"11412 Jagnjilo","ref":"11412","opening_hours":"Mo-Fr 07:00-14:00; PH off","phone":"+381 11 8217-490","addr:pak":"223609"},"geometry":{"type":"Point","coordinates":[20.7299923283047,44.3750704010853]}},{"type":"Feature","properties":{"name:sr":"11413 Пружатовац","opening_hours":"Mo-Fr 07:30-10:30; PH off","addr:housenumber":"61","name":"11413 Пружатовац","amenity":"post_office","phone":"+381 11 8205-059","ref":"11413","name:sr-Latn":"11413 Pružatovac","addr:pak":"224119","addr:street":"Пружатовачка"},"geometry":{"type":"Point","coordinates":[20.6285662393553,44.4153425493653]}},{"type":"Feature","properties":{"amenity":"post_office","name":"11414 Велика Иванча","name:sr":"11414 Велика Иванча","name:sr-Latn":"11414 Velika Ivanča","ref":"11414","opening_hours":"Mo-Fr 07:30-13:30; PH off","phone":"+381 11 8212-906","addr:pak":"228102"},"geometry":{"type":"Point","coordinates":[20.5795316297636,44.4252995471322]}},{"type":"Feature","properties":{"amenity":"post_office","name":"11401 Младеновац","name:sr":"11401 Младеновац","name:sr-Latn":"11401 Mladenovac","ref":"11401","opening_hours":"Mo-Fr 08:00-19:00; Sa 08:00-14:00; PH off","phone":"+381 11 8236-693","addr:pak":"221603"},"geometry":{"type":"Point","coordinates":[20.6877547069959,44.4466053014872]}},{"type":"Feature","properties":{"name:sr":"11410 Младеновац 3","opening_hours":"Mo-Fr 08:00-14:00; PH off","addr:housenumber":"333","name":"11410 Младеновац 3","amenity":"post_office","phone":"+381 11 8233-819","ref":"11410","name:sr-Latn":"11410 Mladenovac 3","addr:pak":"221607","addr:street":"Краља Петра првог"},"geometry":{"type":"Point","coordinates":[20.6881720575032,44.4289183883909]}}]}