{"type":"FeatureCollection","features":[{"type":"Feature","properties":{"name:sr":"11430 Умчари","opening_hours":"Mo-Fr 08:00-14:00; Sa 08:00-12:00; PH off","addr:housenumber":"18","name":"11430 Умчари","amenity":"post_office","phone":"+381 11 3210-158","ref":"11430","name:sr-Latn":"11430 Umčari","addr:pak":"157101","addr:street":"Трг републике"},"geometry":{"type":"Point","coordinates":[20.7355594609162,44.5835591403534]}},{"type":"Feature","properties":{"name:sr":"11235 Мали Пожаревац","opening_hours":"Mo-Fr 08:00-14:00; PH off","addr:housenumber":"1","name":"11235 Мали Пожаревац","amenity":"post_office","phone":"+381 11 8256-010","ref":"11235","name:sr-Latn":"11235 Mali Požarevac","addr:pak":"227835","addr:street":"Космајски трг"},"geometry":{"type":"Point","coordinates":[20.6538996454641,44.5635550431348]}},{"type":"Feature","properties":{"amenity":"post_office","name":"11433 Шепшин","name:sr":"11433 Шепшин","name:sr-Latn":"11433 Šepšin","ref":"11433","opening_hours":"Mo-Fr 06:30-13:00; PH off","phone":"+381 11 8203-010;+381 11 8233-115","addr:pak":"224615"},"geometry":{"type":"Point","coordinates":[20.7063226008454,44.5393462500669]}},{"type":"Feature","properties":{"name:sr":"11450 Сопот","opening_hours":"Mo-Fr 08:00-19:00; Sa 08:00-14:00; PH off","addr:housenumber":"2","name":"11450 Сопот","amenity":"post_office","phone":"+381 11 3535-146;+381 11 8251-121","ref":"11450","name:sr-Latn":"11450 Sopot","addr:pak":"226129","addr:street":"Милосава Влајића"},"geometry":{"type":"Point","coordinates":[20.5747580725884,44.5218414699314]}},{"type":"Feature","properties":{"name:sr":"11406 Влашка","opening_hours":"Mo-Fr 07:00-13:30; PH off","addr:housenumber":"ББ","name":"11406 Влашка","amenity":"post_office","phone":"+381 11 8201-672","ref":"11406","name:sr-Latn":"11406 Vlaška","addr:pak":"222120","addr:street":"Краља Александра првог"},"geometry":{"type":"Point","coordinates":[20.6660310419301,44.4743862635517]}}]}