{"type":"FeatureCollection","features":[{"type":"Feature","properties":{"amenity":"post_office","name":"11408 Велика Крсна","name:sr":"11408 Велика Крсна","name:sr-Latn":"11408 Velika Krsna","ref":"11408","opening_hours":"Mo-Fr 07:00-14:00; PH off","phone":"+381 11 8215-090","addr:pak":"222605"},"geometry":{"type":"Point","coordinates":[20.8014521011177,44.4782159529166]}},{"type":"Feature","properties":{"name:sr":"11407 Селевац","opening_hours":"Mo-Fr 07:30-14:30; PH off","addr:housenumber":"ББ","name":"11407 Селевац","amenity":"post_office","phone":"+381 26 371-220","ref":"11407","name:sr-Latn":"11407 Selevac","addr:pak":"237328","addr:street":"Друга"},"geometry":{"type":"Point","coordinates":[20.8711755899729,44.497529851663]}},{"type":"Feature","properties":{"name:sr":"11431 Колари","opening_hours":"Mo-Fr 07:00-14:00; PH off","addr:housenumber":"2","name":"11431 Колари","amenity":"post_office","phone":"+381 26 4711-014","ref":"11431","name:sr-Latn":"11431 Kolari","addr:pak":"234424","addr:street":"Смедеревска"},"geometry":{"type":"Point","coordinates":[20.8979592310361,44.5838280809459]}},{"type":"Feature","properties":{"name:sr":"11432 Друговац","opening_hours":"Mo-Fr 08:00-15:00; PH off","addr:housenumber":"ББ","name":"11432 Друговац","amenity":"post_office","phone":"+381 26 721-014","ref":"11432","name:sr-Latn":"11432 Drugovac","addr:pak":"234516","addr:street":"Теслина"},"geometry":{"type":"Point","coordinates":[20.8312882295028,44.5467079522854]}}]}