{"type":"FeatureCollection","features":[{"type":"Feature","properties":{"name:sr":"11316 Голобок","opening_hours":"Mo-Fr 07:00-14:00; PH off","addr:housenumber":"2","name":"11316 Голобок","amenity":"post_office","phone":"+381 26 381-000","ref":"11316","name:sr-Latn":"11316 Golobok","addr:pak":"237602","addr:street":"Краља Петра првог"},"geometry":{"type":"Point","coordinates":[21.0039807070476,44.4524827061795]}},{"type":"Feature","properties":{"name:sr":"11319 Крњево","opening_hours":"Mo-Fr 07:30-14:30; PH off","addr:housenumber":"17","name":"11319 Крњево","amenity":"post_office","phone":"+381 26 821-102","ref":"11319","name:sr-Latn":"11319 Krnjevo","addr:pak":"239302","addr:street":"Николе Пашића"},"geometry":{"type":"Point","coordinates":[21.0459394681478,44.4059326604591]}},{"type":"Feature","properties":{"name:sr":"11323 Велико Орашје","opening_hours":"Mo-Fr 08:00-15:00; PH off","addr:housenumber":"1","name":"11323 Велико Орашје","amenity":"post_office","phone":"+381 26 871-002","ref":"11323","name:sr-Latn":"11323 Veliko Orašje","addr:pak":"239422","addr:street":"Моравска"},"geometry":{"type":"Point","coordinates":[21.0886132502154,44.3732423399037]}},{"type":"Feature","properties":{"name:sr":"11420 Смедеревска Паланка 1","opening_hours":"Mo-Fr 07:00-19:00; Sa 08:00-14:00; PH off","addr:housenumber":"25","name":"11420 Смедеревска Паланка 1","amenity":"post_office","phone":"+381 26 634070;+381 26 634064;+381 26 634065","ref":"11420","name:sr-Latn":"11420 Smederevska Palanka 1","addr:pak":"235601","addr:street":"Први српски устанак"},"geometry":{"type":"Point","coordinates":[20.9582756671095,44.3657651965083]}},{"type":"Feature","properties":{"name:sr":"11421 Смедеревска Паланка 3","opening_hours":"Mo-Fr 07:00-17:00; Sa 08:00-14:00; PH off","addr:housenumber":"50","name":"11421 Смедеревска Паланка 3","amenity":"post_office","phone":"+381 26 317-410","ref":"11421","name:sr-Latn":"11421 Smederevska Palanka 3","addr:pak":"235918","addr:street":"Паланачке чете"},"geometry":{"type":"Point","coordinates":[20.9567130314103,44.3792056917928]}}]}