{"type":"FeatureCollection","features":[{"type":"Feature","properties":{"amenity":"post_office","name":"11312 Михајловац","name:sr":"11312 Михајловац","name:sr-Latn":"11312 Mihajlovac","ref":"11312","opening_hours":"Mo-Fr 08:00-14:30; PH off","phone":"+381 26 741-014","addr:pak":"233626"},"geometry":{"type":"Point","coordinates":[20.971867184398,44.545078424492]}},{"type":"Feature","properties":{"name:sr":"11313 Мала Крсна","opening_hours":"Tu,Th 08:00-14:00; Sa 08:00-12:00; PH off","addr:housenumber":"ББ","name":"11313 Мала Крсна","amenity":"post_office","phone":"+381 26 731-014","ref":"11313","name:sr-Latn":"11313 Mala Krsna","addr:pak":"233704","addr:street":"Краља Петра првог"},"geometry":{"type":"Point","coordinates":[21.0021203738352,44.5853019197376]}},{"type":"Feature","properties":{"name:sr":"11314 Осипаоница","opening_hours":"Mo-Fr 08:00-15:00; PH off","addr:housenumber":"73","name":"11314 Осипаоница","amenity":"post_office","phone":"+381 26 751-014","ref":"11314","name:sr-Latn":"11314 Osipaonica","addr:pak":"233825","addr:street":"Кнеза Михаила"},"geometry":{"type":"Point","coordinates":[21.0485858699457,44.5462174569308]}},{"type":"Feature","properties":{"name:sr":"11315 Сараорци","opening_hours":"Mo-Fr 08:00-15:00; PH off","addr:housenumber":"140","name":"11315 Сараорци","amenity":"post_office","phone":"+381 26 781-015","ref":"11315","name:sr-Latn":"11315 Saraorci","addr:pak":"233901","addr:street":"Краља Александра"},"geometry":{"type":"Point","coordinates":[21.0808064253062,44.4862769244009]}},{"type":"Feature","properties":{"name:sr":"11321 Лугавчина","opening_hours":"Mo-Fr 08:00-15:00; PH off","addr:housenumber":"111","name":"11321 Лугавчина","amenity":"post_office","phone":"+381 26 4761-014","ref":"11321","name:sr-Latn":"11321 Lugavčina","addr:pak":"234001","addr:street":"Маршала Тита"},"geometry":{"type":"Point","coordinates":[21.0729528201685,44.5253046394505]}},{"type":"Feature","properties":{"name:sr":"11322 Скобаљ","opening_hours":"Mo,We,Fr 08:00-14:00; PH off","addr:housenumber":"121","name":"11322 Скобаљ","amenity":"post_office","phone":"+381 26 4791-014","ref":"11322","name:sr-Latn":"11322 Skobalj","addr:pak":"234101","addr:street":"Цара Лазара"},"geometry":{"type":"Point","coordinates":[21.0332538231377,44.5635423707081]}}]}