{"type":"FeatureCollection","features":[{"type":"Feature","properties":{"name:sr":"11318 Милошевац","opening_hours":"Mo-Fr 07:30-14:30; PH off","addr:housenumber":"39","name":"11318 Милошевац","amenity":"post_office","phone":"+381 26 801-302","ref":"11318","name:sr-Latn":"11318 Miloševac","addr:pak":"239201","addr:street":"Трг братства и јединства"},"geometry":{"type":"Point","coordinates":[21.1118035646228,44.4396466264259]}},{"type":"Feature","properties":{"name:sr":"11326 Доња Ливадица","opening_hours":"Mo-Fr 07:30-14:30; Sa 08:00-12:00; PH off","addr:housenumber":"53","name":"11326 Доња Ливадица","amenity":"post_office","phone":"+381 26 885-500","ref":"11326","name:sr-Latn":"11326 Donja Livadica","addr:pak":"239715","addr:street":"Вожда Карађорђа"},"geometry":{"type":"Point","coordinates":[21.1391624639243,44.3555553721298]}},{"type":"Feature","properties":{"amenity":"post_office","name":"12370 Александровац","name:sr":"12370 Александровац","name:sr-Latn":"12370 Aleksandrovac","ref":"12370","opening_hours":"Mo-Fr 08:00-14:00; Sa 08:00-12:00; PH off","phone":"+381 12 254512;+381 12 254500","addr:pak":"289301"},"geometry":{"type":"Point","coordinates":[21.2135454242292,44.4455461974905]}},{"type":"Feature","properties":{"name:sr":"12374 Жабари","opening_hours":"Mo-Fr 08:00-14:00; Sa 08:00-12:00; PH off","addr:housenumber":"91","name":"12374 Жабари","amenity":"post_office","phone":"+381 12 250321;+381 12 250224","ref":"12374","name:sr-Latn":"12374 Žabari","addr:pak":"289003","addr:street":"Кнеза Милоша"},"geometry":{"type":"Point","coordinates":[21.2150967282081,44.3565190964093]}}]}