{"type":"FeatureCollection","features":[{"type":"Feature","properties":{"amenity":"post_office","name":"11317 Лозовик","name:sr":"11317 Лозовик","name:sr-Latn":"11317 Lozovik","ref":"11317","opening_hours":"Mo-Fr 07:30-14:30; PH off","phone":"+381 26 634-087;+381 26 831-010","addr:pak":"239124"},"geometry":{"type":"Point","coordinates":[21.1018328847323,44.4674637664422]}},{"type":"Feature","properties":{"name:sr":"12372 Пољана","opening_hours":"Mo-Fr 08:00-11:00; PH off","addr:housenumber":"204","name":"12372 Пољана","amenity":"post_office","phone":"+381 12 582024","ref":"12372","name:sr-Latn":"12372 Poljana","addr:pak":"293402","addr:street":"Николе Тесле"},"geometry":{"type":"Point","coordinates":[21.2030104074599,44.5307884608692]}},{"type":"Feature","properties":{"name:sr":"12112 Лучица","opening_hours":"Mo-Fr 08:00-14:00; PH off","addr:housenumber":"ББ","name":"12112 Лучица","amenity":"post_office","phone":"+381 12 566-100","ref":"12112","name:sr-Latn":"12112 Lučica","addr:pak":"293022","addr:street":"Ресавска"},"geometry":{"type":"Point","coordinates":[21.1794296109374,44.5739152110529]}}]}