{"type":"FeatureCollection","features":[{"type":"Feature","properties":{"name:sr":"12300 Петровац","opening_hours":"Mo-Fr 08:00-17:00; Sa 08:00-13:00; PH off","addr:housenumber":"157","name":"12300 Петровац","amenity":"post_office","phone":"+381 12 331221;+381 12 331550","ref":"12300","name:sr-Latn":"12300 Petrovac","addr:pak":"280401","addr:street":"Српских владара"},"geometry":{"type":"Point","coordinates":[21.4177534339673,44.3781024950859]}},{"type":"Feature","properties":{"name:sr":"12315 Рашанац","opening_hours":"Mo-Fr 08:00-14:00; PH off","addr:housenumber":"ББ","name":"12315 Рашанац","amenity":"post_office","phone":"+381 12 340232","ref":"12315","name:sr-Latn":"12315 Rašanac","addr:pak":"283316","addr:street":"Пожаревачка"},"geometry":{"type":"Point","coordinates":[21.3394997357285,44.4552366587161]}},{"type":"Feature","properties":{"amenity":"post_office","name":"12310 Велики Поповац","name:sr":"12310 Велики Поповац","name:sr-Latn":"12310 Veliki Popovac","ref":"12310","opening_hours":"Mo-Fr 07:30-13:30; PH off","phone":"+381 12 337-500","addr:pak":"283401"},"geometry":{"type":"Point","coordinates":[21.3233245262726,44.4112047367031]}}]}