{"type":"FeatureCollection","features":[{"type":"Feature","properties":{"name:sr":"12240 Кучево 1","opening_hours":"Mo-Fr 08:00-14:00; Sa 08:00-12:00; PH off","addr:housenumber":"121","name":"12240 Кучево 1","amenity":"post_office","phone":"+381 12 852725;+381 12 852722","ref":"12240","name:sr-Latn":"12240 Kučevo 1","addr:pak":"286003","addr:street":"Светог Саве"},"geometry":{"type":"Point","coordinates":[21.6695414760601,44.4783118444532]}},{"type":"Feature","properties":{"amenity":"post_office","name":"12255 Дубока","name:sr":"12255 Дубока","name:sr-Latn":"12255 Duboka","ref":"12255","opening_hours":"Mo-Fr 08:00-11:00; PH off","phone":"+381 12 888368","addr:pak":"287701"},"geometry":{"type":"Point","coordinates":[21.7598759246448,44.5216682582053]}},{"type":"Feature","properties":{"amenity":"post_office","name":"12256 Волуја","name:sr":"12256 Волуја","name:sr-Latn":"12256 Voluja","ref":"12256","opening_hours":"Mo-Fr 08:00-12:00; PH off","phone":"+381 12 880111","addr:pak":"287901"},"geometry":{"type":"Point","coordinates":[21.7781335769345,44.4864300599412]}},{"type":"Feature","properties":{"amenity":"post_office","name":"12257 Турија","name:sr":"12257 Турија","name:sr-Latn":"12257 Turija","ref":"12257","opening_hours":"Mo-Fr 06:30-10:30; PH off","phone":"+381 12 884054","addr:pak":"288201"},"geometry":{"type":"Point","coordinates":[21.639142952506,44.5222084057838]}}]}