{"type":"FeatureCollection","features":[{"type":"Feature","properties":{"name:sr":"22207 Лежимир","opening_hours":"Mo-Fr 07:00-10:30; PH off","addr:housenumber":"29","name":"22207 Лежимир","amenity":"post_office","phone":"+381 22 2663-125","ref":"22207","name:sr-Latn":"22207 Ležimir","addr:pak":"324138","addr:street":"Маршала Тита"},"geometry":{"type":"Point","coordinates":[19.5710908472446,45.1244739339299]}},{"type":"Feature","properties":{"name:sr":"22213 Гргуревци","opening_hours":"Mo 07:00-13:00; Tu 07:00-10:30; We 07:00-13:00; Th 07:00-10:30; Fr 07:00-13:00; PH off","addr:housenumber":"59","name":"22213 Гргуревци","amenity":"post_office","phone":"+381 22 2680-040","ref":"22213","name:sr-Latn":"22213 Grgurevci","addr:pak":"324405","addr:street":"Палих бораца"},"geometry":{"type":"Point","coordinates":[19.6462947390669,45.1045113540364]}},{"type":"Feature","properties":{"name:sr":"22230 Ердевик","opening_hours":"Mo-Fr 07:30-13:30; Sa 08:00-12:00; PH off","addr:housenumber":"1","name":"22230 Ердевик","amenity":"post_office","phone":"+381 22 752-907","ref":"22230","name:sr-Latn":"22230 Erdevik","addr:pak":"327606","addr:street":"Светог Саве"},"geometry":{"type":"Point","coordinates":[19.4096339548094,45.1156485270718]}},{"type":"Feature","properties":{"name:sr":"22232 Дивош","opening_hours":"Mo-Fr 07:00-10:30; PH off","addr:housenumber":"1","name":"22232 Дивош","amenity":"post_office","phone":"+381 22 661-119","ref":"22232","name:sr-Latn":"22232 Divoš","addr:pak":"323840","addr:street":"Лекина"},"geometry":{"type":"Point","coordinates":[19.5094779258813,45.1097834508549]}},{"type":"Feature","properties":{"name:sr":"22253 Бингула","opening_hours":"Mo,We,Fr 07:30-12:00; PH off","addr:housenumber":"1","name":"22253 Бингула","amenity":"post_office","phone":"+381 22 753-851","ref":"22253","name:sr-Latn":"22253 Bingula","addr:pak":"327803","addr:street":"Стевана Шарца"},"geometry":{"type":"Point","coordinates":[19.4481908810242,45.1013605200133]}},{"type":"Feature","properties":{"name:sr":"22255 Љуба","opening_hours":"Tu,Th 07:30-12:00; PH off","addr:housenumber":"33","name":"22255 Љуба","amenity":"post_office","phone":"+381 22 752-058","ref":"22255","name:sr-Latn":"22255 Ljuba","addr:pak":"327958","addr:street":"Војвођанска"},"geometry":{"type":"Point","coordinates":[19.3901965929135,45.1563466926785]}},{"type":"Feature","properties":{"name:sr":"21311 Черевић","opening_hours":"Mo-Fr 08:00-14:00; PH off","addr:housenumber":"19","name":"21311 Черевић","amenity":"post_office","phone":"+381 21 2977-034","ref":"21311","name:sr-Latn":"21311 Čerević","addr:pak":"396930","addr:street":"Краља Петра првог"},"geometry":{"type":"Point","coordinates":[19.6668969804951,45.2187380109911]}},{"type":"Feature","properties":{"name:sr":"21312 Баноштор","opening_hours":"Mo,We,Th 07:00-11:00; PH off","addr:housenumber":"33","name":"21312 Баноштор","amenity":"post_office","phone":"+381 21 879-542","ref":"21312","name:sr-Latn":"21312 Banoštor","addr:pak":"396501","addr:street":"Светозара Марковића"},"geometry":{"type":"Point","coordinates":[19.6113880030754,45.214051970754]}},{"type":"Feature","properties":{"name:sr":"21313 Сусек","opening_hours":"Tu,Th,Fr 08:00-14:00; PH off","addr:housenumber":"75","name":"21313 Сусек","amenity":"post_office","phone":"+381 21 878-437","ref":"21313","name:sr-Latn":"21313 Susek","addr:pak":"396801","addr:street":"Николе Тесле"},"geometry":{"type":"Point","coordinates":[19.5352625738254,45.2246184369878]}},{"type":"Feature","properties":{"name:sr":"21314 Нештин","opening_hours":"Tu,Fr 07:00-11:00; PH off","addr:housenumber":"2","name":"21314 Нештин","amenity":"post_office","phone":"+381 21 769-469","ref":"21314","name:sr-Latn":"21314 Neštin","addr:pak":"393706","addr:street":"Коче Поповића"},"geometry":{"type":"Point","coordinates":[19.451776920248,45.2251939487861]}},{"type":"Feature","properties":{"name:sr":"21315 Луг","opening_hours":"Mo,We 07:00-11:00; PH off","addr:housenumber":"66","name":"21315 Луг","amenity":"post_office","phone":"+381 21 6268-612","ref":"21315","name:sr-Latn":"21315 Lug","addr:pak":"396606","addr:street":"Маршала Тита"},"geometry":{"type":"Point","coordinates":[19.5451259266236,45.181240989835]}},{"type":"Feature","properties":{"name:sr":"21400 Бачка Паланка","opening_hours":"Mo-Fr 08:00-19:00; Sa 08:00-14:00; PH off","addr:housenumber":"20","name":"21400 Бачка Паланка","amenity":"post_office","phone":"+381 21 6041-208;+381 21 4807-084","ref":"21400","name:sr-Latn":"21400 Bačka Palanka","addr:pak":"392303","addr:street":"Краља Петра првог"},"geometry":{"type":"Point","coordinates":[19.3878232768048,45.2495654981541]}},{"type":"Feature","properties":{"name:sr":"21411 Бегеч","opening_hours":"Mo-Fr 08:00-14:00; PH off","addr:housenumber":"31","name":"21411 Бегеч","amenity":"post_office","phone":"+381 21 898-000","ref":"21411","name:sr-Latn":"21411 Begeč","addr:pak":"408601","addr:street":"Краља Петра првог"},"geometry":{"type":"Point","coordinates":[19.6231073690612,45.237663430414]}},{"type":"Feature","properties":{"amenity":"post_office","name":"21412 Гложан","name:sr":"21412 Гложан","name:sr-Latn":"21412 Gložan","ref":"21412","opening_hours":"Mo-Fr 08:00-14:00; PH off","phone":"+381 21 788-002","addr:pak":"395519"},"geometry":{"type":"Point","coordinates":[19.5693107557025,45.2774556266275]}},{"type":"Feature","properties":{"name:sr":"21413 Челарево","opening_hours":"Mo-Fr 08:00-14:00; Sa 09:00-13:00; PH off","addr:housenumber":"39","name":"21413 Челарево","amenity":"post_office","phone":"+381 21 760-002","ref":"21413","name:sr-Latn":"21413 Čelarevo","addr:pak":"394814","addr:street":"Словачка"},"geometry":{"type":"Point","coordinates":[19.530878921048,45.2740490017618]}},{"type":"Feature","properties":{"name:sr":"21423 Обровац","opening_hours":"Mo-Fr 08:00-14:00; PH off","addr:housenumber":"48","name":"21423 Обровац","amenity":"post_office","phone":"+381 21 768-003","ref":"21423","name:sr-Latn":"21423 Obrovac","addr:pak":"393901","addr:street":"Краља Петра првог"},"geometry":{"type":"Point","coordinates":[19.3498524831853,45.320046136599]}},{"type":"Feature","properties":{"name:sr":"21431 Нова Гајдобра","opening_hours":"Mo-Fr 08:00-11:00; PH off","addr:housenumber":"45","name":"21431 Нова Гајдобра","amenity":"post_office","phone":"+381 21 762-090","ref":"21431","name:sr-Latn":"21431 Nova Gajdobra","addr:pak":"393809","addr:street":"Пролетерска"},"geometry":{"type":"Point","coordinates":[19.4362850338718,45.3292900026081]}}]}