{"type":"FeatureCollection","features":[{"type":"Feature","properties":{"name:sr":"25233 Руски Крстур","opening_hours":"Mo-Fr 07:00-13:00; Sa 08:00-12:00; PH off","addr:housenumber":"80","name":"25233 Руски Крстур","amenity":"post_office","phone":"+381 25 703-340","ref":"25233","name:sr-Latn":"25233 Ruski Krstur","addr:pak":"439432","addr:street":"Маршала Тита"},"geometry":{"type":"Point","coordinates":[19.4182770913456,45.5639864249284]}},{"type":"Feature","properties":{"name:sr":"25234 Лалић","opening_hours":"Mo-Fr 07:00-11:00; PH off","addr:housenumber":"58","name":"25234 Лалић","amenity":"post_office","phone":"+381 25 5870-010","ref":"25234","name:sr-Latn":"25234 Lalić","addr:pak":"435821","addr:street":"Маршала Тита"},"geometry":{"type":"Point","coordinates":[19.365976223104,45.5201780018939]}},{"type":"Feature","properties":{"name:sr":"25253 Ратково","opening_hours":"Mo-Fr 07:30-14:30; PH off","addr:housenumber":"9","name":"25253 Ратково","amenity":"post_office","phone":"+381 25 883-022","ref":"25253","name:sr-Latn":"25253 Ratkovo","addr:pak":"434830","addr:street":"Ратка Павловића"},"geometry":{"type":"Point","coordinates":[19.3407571602583,45.455137536555]}},{"type":"Feature","properties":{"name:sr":"21432 Гајдобра","opening_hours":"Mo-Fr 08:00-14:00; PH off","addr:housenumber":"7","name":"21432 Гајдобра","amenity":"post_office","phone":"+381 21 762-002","ref":"21432","name:sr-Latn":"21432 Gajdobra","addr:pak":"393136","addr:street":"Невесињска"},"geometry":{"type":"Point","coordinates":[19.4454449463476,45.3507300097792]}},{"type":"Feature","properties":{"name:sr":"21433 Силбаш","opening_hours":"Mo-Fr 08:00-14:00; PH off","addr:housenumber":"10","name":"21433 Силбаш","amenity":"post_office","phone":"+381 21 764-906","ref":"21433","name:sr-Latn":"21433 Silbaš","addr:pak":"394428","addr:street":"Браће Новаков"},"geometry":{"type":"Point","coordinates":[19.4620758084277,45.3927362077103]}},{"type":"Feature","properties":{"name:sr":"21434 Параге","opening_hours":"Mo,We,Fr 07:00-11:00; PH off","addr:housenumber":"6А","name":"21434 Параге","amenity":"post_office","phone":"+381 21 2066-002","ref":"21434","name:sr-Latn":"21434 Parage","addr:pak":"394101","addr:street":"Краља Петра првог"},"geometry":{"type":"Point","coordinates":[19.4016767084663,45.4174054634313]}},{"type":"Feature","properties":{"name:sr":"21460 Врбас","opening_hours":"Mo-Fr 08:00-19:00; Sa 08:00-14:00; PH off","addr:housenumber":"17","name":"21460 Врбас","amenity":"post_office","phone":"+381 21 704-002;+381 21 704-799","ref":"21460","name:sr-Latn":"21460 Vrbas","addr:pak":"397230","addr:street":"Густава Крклеца"},"geometry":{"type":"Point","coordinates":[19.6427290007006,45.569997016383]}},{"type":"Feature","properties":{"name:sr":"21466 Куцура","opening_hours":"Mo-Fr 08:00-14:00; Sa 09:00-13:00; PH off","addr:housenumber":"1Е","name":"21466 Куцура","amenity":"post_office","phone":"+381 21 727-002","ref":"21466","name:sr-Latn":"21466 Kucura","addr:pak":"398824","addr:street":"Ослобођења"},"geometry":{"type":"Point","coordinates":[19.5842907876252,45.5201665236698]}},{"type":"Feature","properties":{"name:sr":"21467 Савино Село","opening_hours":"Mo-Fr 08:00-14:00; Sa 09:00-13:00; PH off","addr:housenumber":"33","name":"21467 Савино Село","amenity":"post_office","phone":"+381 21 720-002","ref":"21467","name:sr-Latn":"21467 Savino Selo","addr:pak":"399301","addr:street":"Маршала Тита"},"geometry":{"type":"Point","coordinates":[19.5233979964142,45.5065599579835]}},{"type":"Feature","properties":{"name:sr":"21468 Деспотово","opening_hours":"Mo-Fr 08:00-14:00; PH off","addr:housenumber":"21","name":"21468 Деспотово","amenity":"post_office","phone":"+381 21 759-002","ref":"21468","name:sr-Latn":"21468 Despotovo","addr:pak":"393314","addr:street":"Трг ослобођења"},"geometry":{"type":"Point","coordinates":[19.5266834004425,45.4585817096539]}},{"type":"Feature","properties":{"name:sr":"21469 Пивнице","opening_hours":"Mo-Fr 08:00-14:00; PH off","addr:housenumber":"27","name":"21469 Пивнице","amenity":"post_office","phone":"+381 21 756-002","ref":"21469","name:sr-Latn":"21469 Pivnice","addr:pak":"394310","addr:street":"Војвођанска"},"geometry":{"type":"Point","coordinates":[19.4571315563604,45.4674177678047]}},{"type":"Feature","properties":{"name:sr":"21470 Бачки Петровац","opening_hours":"Mo-Fr 08:00-14:00; Sa 08:00-13:00; PH off","addr:housenumber":"4","name":"21470 Бачки Петровац","amenity":"post_office","phone":"+381 21 780-299;+381 21 780-565","ref":"21470","name:sr-Latn":"21470 Bački Petrovac","addr:pak":"395419","addr:street":"Коларова"},"geometry":{"type":"Point","coordinates":[19.5916084868524,45.3597710577428]}},{"type":"Feature","properties":{"name:sr":"21471 Равно Село","opening_hours":"Mo-Fr 08:00-14:00; Sa 09:00-13:00; PH off","addr:housenumber":"10А","name":"21471 Равно Село","amenity":"post_office","phone":"+381 21 2022-002","ref":"21471","name:sr-Latn":"21471 Ravno Selo","addr:pak":"399021","addr:street":"Седмог јула"},"geometry":{"type":"Point","coordinates":[19.6228463511279,45.4486639906272]}},{"type":"Feature","properties":{"name:sr":"21472 Кулпин","opening_hours":"Mo-Fr 08:00-14:00; PH off","addr:housenumber":"35","name":"21472 Кулпин","amenity":"post_office","phone":"+381 21 2286-002","ref":"21472","name:sr-Latn":"21472 Kulpin","addr:pak":"395701","addr:street":"Школска"},"geometry":{"type":"Point","coordinates":[19.5896458257583,45.4006221815776]}},{"type":"Feature","properties":{"name:sr":"21473 Маглић","opening_hours":"Mo-Fr 08:00-14:00; PH off","addr:housenumber":"40","name":"21473 Маглић","amenity":"post_office","phone":"+381 21 785-002","ref":"21473","name:sr-Latn":"21473 Maglić","addr:pak":"395801","addr:street":"Маршала Тита"},"geometry":{"type":"Point","coordinates":[19.5323672941754,45.3627927978258]}}]}