{"type":"FeatureCollection","features":[{"type":"Feature","properties":{"amenity":"post_office","name":"15213 Орид","name:sr":"15213 Орид","name:sr-Latn":"15213 Orid","ref":"15213","opening_hours":"Mo-Fr 08:00-14:00; PH off","phone":"+381 15 211-557","addr:pak":"275311"},"geometry":{"type":"Point","coordinates":[19.7969657092453,44.7128524697628]}},{"type":"Feature","properties":{"amenity":"post_office","name":"15224 Церовац","name:sr":"15224 Церовац","name:sr-Latn":"15224 Cerovac","ref":"15224","opening_hours":"Mo-Fr 08:00-14:00; PH off","phone":"+381 15 212-042","addr:pak":"275211"},"geometry":{"type":"Point","coordinates":[19.7406358712444,44.6864787138407]}},{"type":"Feature","properties":{"name:sr":"15225 Владимирци","opening_hours":"Mo-Sa 08:00-14:00; PH off","addr:housenumber":"10","name":"15225 Владимирци","amenity":"post_office","phone":"+381 15 362-082;+381 15 513-107","ref":"15225","name:sr-Latn":"15225 Vladimirci","addr:pak":"279021","addr:street":"Светог Саве"},"geometry":{"type":"Point","coordinates":[19.7846433770807,44.6176079741446]}},{"type":"Feature","properties":{"amenity":"post_office","name":"15231 Горња Врањска","name:sr":"15231 Горња Врањска","name:sr-Latn":"15231 Gornja Vranjska","ref":"15231","opening_hours":"Mo-Fr 08:00-11:00; PH off","phone":"+381 15 395-139","addr:pak":"275051"},"geometry":{"type":"Point","coordinates":[19.6909787747706,44.6920690774195]}}]}