{"type":"FeatureCollection","features":[{"type":"Feature","properties":{"name:sr":"22416 Огар","opening_hours":"Mo-Fr 07:00-10:30; PH off","addr:housenumber":"1","name":"22416 Огар","amenity":"post_office","phone":"+381 22 487-511","ref":"22416","name:sr-Latn":"22416 Ogar","addr:pak":"338560","addr:street":"Шумска"},"geometry":{"type":"Point","coordinates":[19.947140466342,44.7919787222042]}},{"type":"Feature","properties":{"name:sr":"22417 Обреж","opening_hours":"Mo-Fr 07:00-10:30; PH off","addr:housenumber":"1","name":"22417 Обреж","amenity":"post_office","phone":"+381 22 488-611","ref":"22417","name:sr-Latn":"22417 Obrež","addr:pak":"338810","addr:street":"Иве Лоле Рибара"},"geometry":{"type":"Point","coordinates":[19.9720003732591,44.7358985476447]}},{"type":"Feature","properties":{"name:sr":"22444 Доњи Товарник","opening_hours":"Mo-Fr 07:00-10:30; PH off","addr:housenumber":"1","name":"22444 Доњи Товарник","amenity":"post_office","phone":"+381 22 483-511","ref":"22444","name:sr-Latn":"22444 Donji Tovarnik","addr:pak":"338636","addr:street":"Браће Шовљански"},"geometry":{"type":"Point","coordinates":[19.9451249976757,44.8132151847587]}}]}