{"type":"FeatureCollection","features":[{"type":"Feature","properties":{"name:sr":"15000 Шабац 1","opening_hours":"Mo-Fr 08:00-19:00; Sa 08:00-14:00; PH off","addr:housenumber":"10","name":"15000 Шабац 1","amenity":"post_office","phone":"+381 15 362-013;+381 15 362-015","ref":"15000","name:sr-Latn":"15000 Šabac 1","addr:pak":"271947","addr:street":"Карађорђева"},"geometry":{"type":"Point","coordinates":[19.6946903978164,44.7558197602457]}},{"type":"Feature","properties":{"name:sr":"15103 Шабац 3","opening_hours":"Mo-Sa 08:00-13:30; PH off","addr:housenumber":"19","name":"15103 Шабац 3","amenity":"post_office","phone":"+381 15 334-193","ref":"15103","name:sr-Latn":"15103 Šabac 3","addr:pak":"271975","addr:street":"Жике Поповића"},"geometry":{"type":"Point","coordinates":[19.701012704237,44.7502463210158]}},{"type":"Feature","properties":{"name:sr":"15105 Шабац 5","opening_hours":"Mo-Sa 08:00-19:00; Su,PH 10:00-15:00","addr:housenumber":"1А","name":"15105 Шабац 5","amenity":"post_office","phone":"+381 15 351-088","ref":"15105","name:sr-Latn":"15105 Šabac 5","addr:pak":"272104","addr:street":"Јована Цвијића"},"geometry":{"type":"Point","coordinates":[19.6907997889523,44.7511699890912]}},{"type":"Feature","properties":{"name:sr":"15216 Мишар","opening_hours":"Mo-Fr 08:00-14:00; PH off","addr:housenumber":"75","name":"15216 Мишар","amenity":"post_office","phone":"+381 15 380-727","ref":"15216","name:sr-Latn":"15216 Mišar","addr:pak":"271153","addr:street":"Карађорђева"},"geometry":{"type":"Point","coordinates":[19.7620539474792,44.7279919622508]}}]}