{"type":"FeatureCollection","features":[{"type":"Feature","properties":{"name:sr":"24300 Бачка Топола","opening_hours":"Mo-Fr 07:00-19:00; Sa 07:00-13:00; PH off","addr:housenumber":"42","name":"24300 Бачка Топола","amenity":"post_office","phone":"+381 24 715-905;+381 24 715-606;+381 24 715-767","ref":"24300","name:sr-Latn":"24300 Bačka Topola","addr:pak":"440507","addr:street":"Маршала Тита"},"geometry":{"type":"Point","coordinates":[19.6307843668252,45.8121119068169]}},{"type":"Feature","properties":{"name:sr":"24321 Мали Иђош","opening_hours":"Mo-Fr 07:00-14:00; Sa 07:00-12:00; PH off","addr:housenumber":"43","name":"24321 Мали Иђош","amenity":"post_office","phone":"+381 24 730-050","ref":"24321","name:sr-Latn":"24321 Mali Iđoš","addr:pak":"443105","addr:street":"Главна"},"geometry":{"type":"Point","coordinates":[19.666510788327,45.7067941370579]}},{"type":"Feature","properties":{"name:sr":"24330 Панонија","opening_hours":"Mo-Fr 07:00-11:00; PH off","addr:housenumber":"ББ","name":"24330 Панонија","amenity":"post_office","phone":"+381 24 725-000","ref":"24330","name:sr-Latn":"24330 Panonija","addr:pak":"441625","addr:street":"Шарла де Гола"},"geometry":{"type":"Point","coordinates":[19.5207331462743,45.749860794977]}},{"type":"Feature","properties":{"name:sr":"24331 Бајша","opening_hours":"Mo-Fr 07:00-14:00; PH off","addr:housenumber":"4","name":"24331 Бајша","amenity":"post_office","phone":"+381 24 721-000","ref":"24331","name:sr-Latn":"24331 Bajša","addr:pak":"441720","addr:street":"Закина"},"geometry":{"type":"Point","coordinates":[19.5854764319241,45.7770093951133]}},{"type":"Feature","properties":{"name:sr":"24344 Томиславци","opening_hours":"Mo-Fr 07:00-10:00; PH off","addr:housenumber":"34","name":"24344 Томиславци","amenity":"post_office","phone":"+381 24 728-041","ref":"24344","name:sr-Latn":"24344 Tomislavci","addr:pak":"442855","addr:street":"Козарачка"},"geometry":{"type":"Point","coordinates":[19.5596352494332,45.8263038506146]}},{"type":"Feature","properties":{"name:sr":"25220 Црвенка","opening_hours":"Mo-Fr 07:00-19:00; Sa 08:00-12:00; PH off","addr:housenumber":"125","name":"25220 Црвенка","amenity":"post_office","phone":"+381 25 465-162","ref":"25220","name:sr-Latn":"25220 Crvenka","addr:pak":"438601","addr:street":"Маршала Тита"},"geometry":{"type":"Point","coordinates":[19.4541125537327,45.6591036462177]}},{"type":"Feature","properties":{"amenity":"post_office","name":"25222 Телечка","name:sr":"25222 Телечка","name:sr-Latn":"25222 Telečka","ref":"25222","opening_hours":"Mo-Fr 07:00-14:00; PH off","phone":"+381 25 864-013","addr:pak":"425711"},"geometry":{"type":"Point","coordinates":[19.3805360583543,45.7951190188413]}},{"type":"Feature","properties":{"name:sr":"25223 Сивац","opening_hours":"Mo-Fr 07:00-13:00; Sa 07:00-11:00; PH off","addr:housenumber":"166","name":"25223 Сивац","amenity":"post_office","phone":"+381 25 465-164","ref":"25223","name:sr-Latn":"25223 Sivac","addr:pak":"437713","addr:street":"Маршала Тита"},"geometry":{"type":"Point","coordinates":[19.3819706390171,45.701761270399]}},{"type":"Feature","properties":{"name:sr":"25225 Крушчић","opening_hours":"Mo-Fr 07:30-14:30; PH off","addr:housenumber":"21","name":"25225 Крушчић","amenity":"post_office","phone":"+381 25 5706-014","ref":"25225","name:sr-Latn":"25225 Kruščić","addr:pak":"439123","addr:street":"Владимира Назора"},"geometry":{"type":"Point","coordinates":[19.3678604304887,45.6123358598866]}},{"type":"Feature","properties":{"name:sr":"25230 Кула","opening_hours":"Mo-Fr 07:00-19:00; Sa 07:00-13:00; PH off","addr:housenumber":"1","name":"25230 Кула","amenity":"post_office","phone":"+381 25 465-161","ref":"25230","name:sr-Latn":"25230 Kula","addr:pak":"436104","addr:street":"Лењинова"},"geometry":{"type":"Point","coordinates":[19.5317461866873,45.6090163804643]}},{"type":"Feature","properties":{"name:sr":"25232 Липар","opening_hours":"Mo-Fr 07:00-14:00; PH off","addr:housenumber":"29","name":"25232 Липар","amenity":"post_office","phone":"+381 25 707-014","ref":"25232","name:sr-Latn":"25232 Lipar","addr:pak":"439830","addr:street":"Маршала Тита"},"geometry":{"type":"Point","coordinates":[19.55595981722,45.7066578307467]}},{"type":"Feature","properties":{"name:sr":"25231 Кула","opening_hours":"Mo-Fr 07:00-14:00; PH off","addr:housenumber":"63","name":"25231 Кула","amenity":"post_office","phone":"+381 25 723-676","ref":"25231","name:sr-Latn":"25231 Kula","addr:pak":"436226","addr:street":"Вељка Влаховића"},"geometry":{"type":"Point","coordinates":[19.5168430637144,45.6060965651881]}}]}