{"type":"FeatureCollection","features":[{"type":"Feature","properties":{"name:sr":"22406 Ириг","opening_hours":"Mo-Fr 08:00-13:30; Sa 07:00-11:00; PH off","addr:housenumber":"3","name":"22406 Ириг","amenity":"post_office","phone":"+381 22 600-708;+381 22 600-707","ref":"22406","name:sr-Latn":"22406 Irig","addr:pak":"335104","addr:street":"Војводе путника"},"geometry":{"type":"Point","coordinates":[19.8615413662647,45.0995051442066]}},{"type":"Feature","properties":{"name:sr":"22408 Врдник","opening_hours":"Mo-Fr 08:00-13:30; Sa 07:00-11:00; PH off","addr:housenumber":"18","name":"22408 Врдник","amenity":"post_office","phone":"+381 22 465-234;+381 22 465-666;+381 22 600-705","ref":"22408","name:sr-Latn":"22408 Vrdnik","addr:pak":"336451","addr:street":"Милице Стојадиновић"},"geometry":{"type":"Point","coordinates":[19.7874036769997,45.1234004749502]}},{"type":"Feature","properties":{"name:sr":"22409 Јазак","opening_hours":"Mo-Fr 07:00-11:00; PH off","addr:housenumber":"67","name":"22409 Јазак","amenity":"post_office","phone":"+381 22 468-888","ref":"22409","name:sr-Latn":"22409 Jazak","addr:pak":"336878","addr:street":"Цара Уроша"},"geometry":{"type":"Point","coordinates":[19.7654412747524,45.1049544686263]}},{"type":"Feature","properties":{"name:sr":"21207 Лединци","opening_hours":"Mo-Fr 08:00-14:00; PH off","addr:housenumber":"19","name":"21207 Лединци","amenity":"post_office","phone":"+381 21 2986-002","ref":"21207","name:sr-Latn":"21207 Ledinci","addr:pak":"410801","addr:street":"Змај Јовина"},"geometry":{"type":"Point","coordinates":[19.8045339609356,45.2100499403154]}},{"type":"Feature","properties":{"name:sr":"21299 Раковац","opening_hours":"Mo-Fr 08:00-14:00; PH off","addr:housenumber":"4","name":"21299 Раковац","amenity":"post_office","phone":"+381 21 6275-003","ref":"21299","name:sr-Latn":"21299 Rakovac","addr:pak":"396734","addr:street":"Мите Белића"},"geometry":{"type":"Point","coordinates":[19.7693243282314,45.2099954280406]}},{"type":"Feature","properties":{"name:sr":"21300 Беочин","opening_hours":"Mo-Fr 08:00-14:00; Sa 08:00-13:00; PH off","addr:housenumber":"8","name":"21300 Беочин","amenity":"post_office","phone":"+381 21 4807-083;+381 21 870-127","ref":"21300","name:sr-Latn":"21300 Beočin","addr:pak":"396308","addr:street":"Трг Цара Лазара"},"geometry":{"type":"Point","coordinates":[19.7227849912568,45.2077669490347]}}]}