{"type":"FeatureCollection","features":[{"type":"Feature","properties":{"name:sr":"21201 Руменка","opening_hours":"Mo-Fr 08:00-14:00; Sa 09:00-13:00; PH off","addr:housenumber":"26","name":"21201 Руменка","amenity":"post_office","phone":"+381 21 6215-002","ref":"21201","name:sr-Latn":"21201 Rumenka","addr:pak":"407204","addr:street":"Арсенија Чарнојевића"},"geometry":{"type":"Point","coordinates":[19.7421028928724,45.2930745929182]}},{"type":"Feature","properties":{"name:sr":"21203 Ветерник","opening_hours":"Mo-Fr 08:00-19:00; Sa 08:00-13:00; PH off","addr:housenumber":"8","name":"21203 Ветерник","amenity":"post_office","phone":"+381 21 4807-092;+381 21 821-003","ref":"21203","name:sr-Latn":"21203 Veternik","addr:pak":"407556","addr:street":"Омладинска"},"geometry":{"type":"Point","coordinates":[19.7540836405591,45.2505159833433]}},{"type":"Feature","properties":{"name:sr":"21208 Сремска Каменица","opening_hours":"Mo-Fr 08:00-14:00; Sa 08:00-13:00; PH off","addr:housenumber":"2","name":"21208 Сремска Каменица","amenity":"post_office","phone":"+381 21 4807-094;+381 21 462-747","ref":"21208","name:sr-Latn":"21208 Sremska Kamenica","addr:pak":"411306","addr:street":"Трг краља Петра првог"},"geometry":{"type":"Point","coordinates":[19.8393683698757,45.2239764741762]}},{"type":"Feature","properties":{"name:sr":"21410 Футог","opening_hours":"Mo-Fr 08:00-19:00; Sa 08:00-13:00; PH off","addr:housenumber":"19","name":"21410 Футог","amenity":"post_office","phone":"+381 21 4807-085;+381 21 895-951","ref":"21410","name:sr-Latn":"21410 Futog","addr:pak":"408426","addr:street":"Цара Лазара"},"geometry":{"type":"Point","coordinates":[19.7039249672379,45.2379799522476]}},{"type":"Feature","properties":{"name:sr":"21112 Нови Сад","opening_hours":"Mo-Fr 09:00-16:00; PH off","addr:housenumber":"11","name":"21112 Нови Сад","amenity":"post_office","phone":"+381 21 420-036","ref":"21112","name:sr-Latn":"21112 Novi Sad","addr:pak":"402052","addr:street":"Хајдук Вељкова"},"geometry":{"type":"Point","coordinates":[19.8239999581265,45.2563179559302]}},{"type":"Feature","properties":{"name:sr":"21113 Нови Сад","opening_hours":"Mo-Fr 08:00-19:00; Sa 08:00-13:00; PH off","addr:housenumber":"2","name":"21113 Нови Сад","amenity":"post_office","phone":"+381 21 4807-080;+381 21 512-046","ref":"21113","name:sr-Latn":"21113 Novi Sad","addr:pak":"401807","addr:street":"Браће Могин"},"geometry":{"type":"Point","coordinates":[19.8145190036883,45.264661997429]}},{"type":"Feature","properties":{"name:sr":"21114 Нови Сад","opening_hours":"Mo-Fr 09:00-16:00; PH off","addr:housenumber":"13","name":"21114 Нови Сад","amenity":"post_office","phone":"+381 21 402-630;+381 21 400-774","ref":"21114","name:sr-Latn":"21114 Novi Sad","addr:pak":"402220","addr:street":"Булевар Јована Дучића"},"geometry":{"type":"Point","coordinates":[19.8016814263411,45.2519165898133]}},{"type":"Feature","properties":{"name:sr":"21117 Нови Сад","opening_hours":"Mo-Fr 09:00-16:00; PH off","addr:housenumber":"63","name":"21117 Нови Сад","amenity":"post_office","phone":"+381 21 443-399","ref":"21117","name:sr-Latn":"21117 Novi Sad","addr:pak":"401048","addr:street":"Булевар ослобођења"},"geometry":{"type":"Point","coordinates":[19.8344995110691,45.2575100971282]}},{"type":"Feature","properties":{"name:sr":"21118 Нови Сад","opening_hours":"Mo-Fr 09:00-16:00; PH off","addr:housenumber":"67","name":"21118 Нови Сад","amenity":"post_office","phone":"+381 21 2412-551","ref":"21118","name:sr-Latn":"21118 Novi Sad","addr:pak":"405345","addr:street":"Сентандрејски пут"},"geometry":{"type":"Point","coordinates":[19.8214030010818,45.2977419562233]}},{"type":"Feature","properties":{"name:sr":"21121 Нови Сад","opening_hours":"Mo-Fr 08:00-19:00; Sa 08:00-13:00; PH off","addr:housenumber":"2","name":"21121 Нови Сад","amenity":"post_office","phone":"+381 21 422-264;+381 21 6613-509","ref":"21121","name:sr-Latn":"21121 Novi Sad","addr:pak":"400204","addr:street":"Сутјеска"},"geometry":{"type":"Point","coordinates":[19.8460569672364,45.2478799804267]}},{"type":"Feature","properties":{"name:sr":"21126 Нови Сад","opening_hours":"Mo-Fr 08:00-14:00; PH off","addr:housenumber":"17","name":"21126 Нови Сад","amenity":"post_office","phone":"+381 21 403-151","ref":"21126","name:sr-Latn":"21126 Novi Sad","addr:pak":"402437","addr:street":"Бате Бркића"},"geometry":{"type":"Point","coordinates":[19.7944810906639,45.2543155071066]}},{"type":"Feature","properties":{"name:sr":"21101 Нови Сад","opening_hours":"Mo-Fr 08:00-19:00; Sa 08:00-14:00; PH off","addr:housenumber":"2","name":"21101 Нови Сад","amenity":"post_office","phone":"+381 21 4807-068;+381 21 4807-069","ref":"21101","name:sr-Latn":"21101 Novi Sad","addr:pak":"400101","addr:street":"Народних хероја"},"geometry":{"type":"Point","coordinates":[19.8426479227964,45.253526982646]}},{"type":"Feature","properties":{"name:sr":"21102 Нови Сад","opening_hours":"Mo-Fr 08:00-19:00; Sa 08:00-14:00; PH off","addr:housenumber":"5","name":"21102 Нови Сад","amenity":"post_office","phone":"+381 21 4807-190;+381 21 4807-186","ref":"21102","name:sr-Latn":"21102 Novi Sad","addr:pak":"403601","addr:street":"Војвођанска"},"geometry":{"type":"Point","coordinates":[19.8378260211773,45.2437269519266]}},{"type":"Feature","properties":{"amenity":"post_office","name":"21103 Нови Сад","name:sr":"21103 Нови Сад","name:sr-Latn":"21103 Novi Sad","ref":"21103","opening_hours":"Mo-Fr 08:00-19:00; Sa 08:00-13:00; PH off","phone":"+381 21 6614-879","addr:pak":"400931"},"geometry":{"type":"Point","coordinates":[19.8344590117228,45.2609010055832]}},{"type":"Feature","properties":{"name:sr":"21104 Нови Сад","opening_hours":"Mo-Fr 08:00-19:00; Sa 08:00-13:00; PH off","addr:housenumber":"4","name":"21104 Нови Сад","amenity":"post_office","phone":"+381 21 423-085;+381 21 6613-988","ref":"21104","name:sr-Latn":"21104 Novi Sad","addr:pak":"400647","addr:street":"Трг Марије Трандафил"},"geometry":{"type":"Point","coordinates":[19.8444801246103,45.2594583252779]}},{"type":"Feature","properties":{"name:sr":"21122 Нови Сад","opening_hours":"Mo-Fr 07:30-14:30; PH off","addr:housenumber":"1","name":"21122 Нови Сад","amenity":"post_office","phone":"+381 21 6623-845","ref":"21122","name:sr-Latn":"21122 Novi Sad","addr:pak":"400470","addr:street":"Трг Слободе"},"geometry":{"type":"Point","coordinates":[19.8444719828863,45.2548979646452]}},{"type":"Feature","properties":{"name:sr":"21204 Сремска Каменица","opening_hours":"Mo-Fr 08:00-14:00; PH off","addr:housenumber":"4","name":"21204 Сремска Каменица","amenity":"post_office","phone":"+381 21 420-257","ref":"21204","name:sr-Latn":"21204 Sremska Kamenica","addr:pak":"410908","addr:street":"Пут доктора Голдмана"},"geometry":{"type":"Point","coordinates":[19.8565559290918,45.2178589292722]}},{"type":"Feature","properties":{"name:sr":"21127 Нови Сад","opening_hours":"Mo-Fr 08:00-19:00; Sa 08:00-13:00; PH off","addr:housenumber":"5","name":"21127 Нови Сад","amenity":"post_office","phone":"+381 21 4807-089","ref":"21127","name:sr-Latn":"21127 Novi Sad","addr:pak":"405213","addr:street":"Приморска"},"geometry":{"type":"Point","coordinates":[19.8284604033737,45.2836197549782]}},{"type":"Feature","properties":{"name:sr":"21107 Нови Сад","opening_hours":"Mo-Fr 08:00-19:00; Sa 08:00-14:00; PH off","addr:housenumber":"83","name":"21107 Нови Сад","amenity":"post_office","phone":"+381 21 4807-289","ref":"21107","name:sr-Latn":"21107 Novi Sad","addr:pak":"406226","addr:street":"Булевар патријарха Павла"},"geometry":{"type":"Point","coordinates":[19.8045393091429,45.2411907851489]}},{"type":"Feature","properties":{"name:sr":"21202 Сремска Каменица","opening_hours":"Mo-Sa 07:30-19:30; Su 07:00-13:00; PH 07:30-19:30","addr:housenumber":"79","name":"21202 Сремска Каменица","amenity":"post_office","phone":"+381 21 270-0848","ref":"21202","name:sr-Latn":"21202 Sremska Kamenica","addr:pak":"411116","addr:street":"Војводе путника"},"geometry":{"type":"Point","coordinates":[19.8498280610147,45.2270486215383]}},{"type":"Feature","properties":{"name:sr":"21131 Петроварадин","opening_hours":"Mo-Fr 08:00-14:00; PH off","addr:housenumber":"19","name":"21131 Петроварадин","amenity":"post_office","phone":"+381 21 6433-147","ref":"21131","name:sr-Latn":"21131 Petrovaradin","addr:pak":"410507","addr:street":"Београдска"},"geometry":{"type":"Point","coordinates":[19.8626059362389,45.2548229514783]}},{"type":"Feature","properties":{"name:sr":"21108 Нови Сад","opening_hours":"Mo-Fr 09:00-15:00; PH off","addr:housenumber":"16","name":"21108 Нови Сад","amenity":"post_office","phone":"+381 21 457-102","ref":"21108","name:sr-Latn":"21108 Novi Sad","addr:pak":"400346","addr:street":"Булевар Михајла Пупина"},"geometry":{"type":"Point","coordinates":[19.8492570106248,45.2532639665409]}},{"type":"Feature","properties":{"name:sr":"21111 Нови Сад","opening_hours":"Mo-Fr 08:00-14:00; Sa 09:00-13:00; PH off","addr:housenumber":"7","name":"21111 Нови Сад","amenity":"post_office","phone":"+381 21 6613-355","ref":"21111","name:sr-Latn":"21111 Novi Sad","addr:pak":"400517","addr:street":"Милоша Бајића"},"geometry":{"type":"Point","coordinates":[19.8530940988664,45.2575578246112]}},{"type":"Feature","properties":{"name:sr":"21120 Нови Сад","opening_hours":"Mo-Fr 08:00-14:00; PH off","addr:housenumber":"3","name":"21120 Нови Сад","amenity":"post_office","phone":"+381 21 6622-087","ref":"21120","name:sr-Latn":"21120 Novi Sad","addr:pak":"400207","addr:street":"Сутјеска"},"geometry":{"type":"Point","coordinates":[19.8457937213091,45.2490854264745]}},{"type":"Feature","properties":{"amenity":"post_office","name":"21123 Нови Сад","name:sr":"21123 Нови Сад","name:sr-Latn":"21123 Novi Sad","ref":"21123","opening_hours":"Mo-Fr 08:00-14:00; PH off","phone":"+381 21 6397-348","addr:pak":"406802"},"geometry":{"type":"Point","coordinates":[19.7866289391448,45.2337539806288]}},{"type":"Feature","properties":{"name:sr":"21124 Нови Сад","opening_hours":"Mo-Fr 09:30-16:30; PH off","addr:housenumber":"42","name":"21124 Нови Сад","amenity":"post_office","phone":"+381 21 4807-088;+381 21 505-649","ref":"21124","name:sr-Latn":"21124 Novi Sad","addr:pak":"406110","addr:street":"Фејеш Кларе"},"geometry":{"type":"Point","coordinates":[19.8099630675879,45.2351724175451]}},{"type":"Feature","properties":{"name:sr":"21128 Нови Сад","opening_hours":"Mo-Fr 07:00-18:00; Sa 08:00-12:00; PH off","addr:housenumber":"100","name":"21128 Нови Сад","amenity":"post_office","phone":"+381 21 6622-817","ref":"21128","name:sr-Latn":"21128 Novi Sad","addr:pak":"403648","addr:street":"Булевар ослобођења"},"geometry":{"type":"Point","coordinates":[19.8401061043408,45.2451281070029]}},{"type":"Feature","properties":{"name:sr":"21130 Нови Сад","opening_hours":"Mo-Su,PH 07:00-20:00","addr:housenumber":"23","name":"21130 Нови Сад","amenity":"post_office","phone":"+381 21 419-510","ref":"21130","name:sr-Latn":"21130 Novi Sad","addr:pak":"400867","addr:street":"Теодора Мандића"},"geometry":{"type":"Point","coordinates":[19.8315189766519,45.2728919693068]}},{"type":"Feature","properties":{"name:sr":"21135 Нови Сад","opening_hours":"Mo-Su,PH 07:00-20:00","addr:housenumber":"93Ц","name":"21135 Нови Сад","amenity":"post_office","phone":"+381 21 6791-160","ref":"21135","name:sr-Latn":"21135 Novi Sad","addr:pak":"406448","addr:street":"Футошки пут"},"geometry":{"type":"Point","coordinates":[19.7978699223972,45.2449049471]}},{"type":"Feature","properties":{"name:sr":"21136 Нови Сад","opening_hours":"Mo-Su,PH 09:30-16:30","addr:housenumber":"59","name":"21136 Нови Сад","amenity":"post_office","phone":"+381 21 6360-519","ref":"21136","name:sr-Latn":"21136 Novi Sad","addr:pak":"403214","addr:street":"Балзакова"},"geometry":{"type":"Point","coordinates":[19.8353289854381,45.2371736853129]}},{"type":"Feature","properties":{"name:sr":"21137 Нови Сад","opening_hours":"Mo-Fr 08:00-19:00; Sa 08:00-13:00; PH off","addr:housenumber":"4","name":"21137 Нови Сад","amenity":"post_office","phone":"+381 21 4807-091;+381 21 4807-076","ref":"21137","name:sr-Latn":"21137 Novi Sad","addr:pak":"402610","addr:street":"Стојана Новаковића"},"geometry":{"type":"Point","coordinates":[19.8047573585183,45.2575308911143]}},{"type":"Feature","properties":{"name:sr":"21138 Нови Сад","opening_hours":"Mo-Fr 08:00-20:00; Sa 08:00-15:00; PH off","addr:housenumber":"5","name":"21138 Нови Сад","amenity":"post_office","phone":"+381 21 4886-815;+381 21 4886-817","ref":"21138","name:sr-Latn":"21138 Novi Sad","addr:pak":"405213","addr:street":"Приморска"},"geometry":{"type":"Point","coordinates":[19.8282754806458,45.2824585379302]}},{"type":"Feature","properties":{"name:sr":"21139 Нови Сад","opening_hours":"Mo-Sa 07:30-19:30; Su 07:00-13:00; PH 07:30-19:30","addr:housenumber":"4","name":"21139 Нови Сад","amenity":"post_office","phone":"+381 21 520-454","ref":"21139","name:sr-Latn":"21139 Novi Sad","addr:pak":"400772","addr:street":"Бајчи Жилинског"},"geometry":{"type":"Point","coordinates":[19.85823059019,45.2664912170943]}},{"type":"Feature","properties":{"amenity":"post_office","name":"21140 Нови Сад","name:sr":"21140 Нови Сад","name:sr-Latn":"21140 Novi Sad","ref":"21140","opening_hours":"Mo-Su,PH 07:00-20:00","phone":"+381 21 6419-740","addr:pak":"401976"},"geometry":{"type":"Point","coordinates":[19.8155029396561,45.2579727037788]}},{"type":"Feature","properties":{"name:sr":"21141 Нови Сад","opening_hours":"Mo-Fr 08:00-14:00; PH off","addr:housenumber":"57","name":"21141 Нови Сад","amenity":"post_office","phone":"+381 21 2311-454","ref":"21141","name:sr-Latn":"21141 Novi Sad","addr:pak":"401627","addr:street":"Горње Сајлово"},"geometry":{"type":"Point","coordinates":[19.7799339836379,45.2750426588182]}},{"type":"Feature","properties":{"name:sr":"21409 Футог","opening_hours":"Mo-Fr 08:00-15:00; PH off","addr:housenumber":"52","name":"21409 Футог","amenity":"post_office","phone":"+381 21 897-419","ref":"21409","name:sr-Latn":"21409 Futog","addr:pak":"408219","addr:street":"Симе Шолаје"},"geometry":{"type":"Point","coordinates":[19.6902842081389,45.2416249187403]}},{"type":"Feature","properties":{"name:sr":"21210 Руменка","opening_hours":"Mo-Sa 07:30-19:30; Su 07:00-13:00; PH 07:30-19:30","addr:housenumber":"54","name":"21210 Руменка","amenity":"post_office","phone":"+381 21 621-6454","ref":"21210","name:sr-Latn":"21210 Rumenka","addr:pak":"407225","addr:street":"Партизанска"},"geometry":{"type":"Point","coordinates":[19.7394214271771,45.2958463980435]}},{"type":"Feature","properties":{"name:sr":"21142 Нови Сад","opening_hours":"Mo-Sa 07:30-19:30; Su 07:00-13:00; PH 07:30-19:30","addr:housenumber":"ББ","name":"21142 Нови Сад","amenity":"post_office","phone":"+381 21 2703-883","ref":"21142","name:sr-Latn":"21142 Novi Sad","addr:pak":"406942","addr:street":"Бранка Ћопића"},"geometry":{"type":"Point","coordinates":[19.7950635640549,45.2340210896118]}},{"type":"Feature","properties":{"name:sr":"21408 Футог","opening_hours":"Mo-Sa 07:30-19:30; Su 07:00-13:00; PH 07:30-19:30","addr:housenumber":"44","name":"21408 Футог","amenity":"post_office","phone":"+381 21 895-776","ref":"21408","name:sr-Latn":"21408 Futog","addr:pak":"408464","addr:street":"Раде Кондића"},"geometry":{"type":"Point","coordinates":[19.7090286916095,45.2405136619436]}}]}