{"type":"FeatureCollection","features":[{"type":"Feature","properties":{"name:sr":"22326 Чортановци","opening_hours":"Mo-Fr 07:00-14:00; PH off","addr:housenumber":"39","name":"22326 Чортановци","amenity":"post_office","phone":"+381 22 580-010","ref":"22326","name:sr-Latn":"22326 Čortanovci","addr:pak":"349604","addr:street":"Вељка Влаховића"},"geometry":{"type":"Point","coordinates":[20.0188765221111,45.1555221183381]}},{"type":"Feature","properties":{"name:sr":"22327 Марадик","opening_hours":"Mo-Fr 07:00-10:30; PH off","addr:housenumber":"4","name":"22327 Марадик","amenity":"post_office","phone":"+381 22 506-611","ref":"22327","name:sr-Latn":"22327 Maradik","addr:pak":"349822","addr:street":"Цара Душана"},"geometry":{"type":"Point","coordinates":[19.9926601157264,45.1013164375039]}},{"type":"Feature","properties":{"amenity":"post_office","name":"22328 Крушедол","name:sr":"22328 Крушедол","name:sr-Latn":"22328 Krušedol","ref":"22328","opening_hours":"Mo-Fr 07:00-10:30; PH off","phone":"+381 22 2460-202","addr:pak":"335827"},"geometry":{"type":"Point","coordinates":[19.9457456895215,45.1132163273436]}},{"type":"Feature","properties":{"name:sr":"21205 Сремски Карловци","opening_hours":"Mo-Fr 08:00-18:00; Sa 08:00-13:00; PH off","addr:housenumber":"1","name":"21205 Сремски Карловци","amenity":"post_office","phone":"+381 21 4807-093;+381 21 881-843","ref":"21205","name:sr-Latn":"21205 Sremski Karlovci","addr:pak":"412401","addr:street":"Карађорђева"},"geometry":{"type":"Point","coordinates":[19.9336098851822,45.2039216623443]}},{"type":"Feature","properties":{"name:sr":"21209 Буковац","opening_hours":"Mo-Fr 08:00-14:00; PH off","addr:housenumber":"76","name":"21209 Буковац","amenity":"post_office","phone":"+381 21 826-500","ref":"21209","name:sr-Latn":"21209 Bukovac","addr:pak":"413601","addr:street":"Карађорђева"},"geometry":{"type":"Point","coordinates":[19.8941728771082,45.194362828083]}}]}