{"type":"FeatureCollection","features":[{"type":"Feature","properties":{"name:sr":"21105 Нови Сад","opening_hours":"Mo-Fr 08:00-11:00; PH off","addr:housenumber":"17","name":"21105 Нови Сад","amenity":"post_office","phone":"+381 21 6624-951","ref":"21105","name:sr-Latn":"21105 Novi Sad","addr:pak":"407001","addr:street":"Прва"},"geometry":{"type":"Point","coordinates":[19.8733759639698,45.2720069280743]}},{"type":"Feature","properties":{"name:sr":"21132 Петроварадин","opening_hours":"Mo-Fr 08:00-19:00; Sa 08:00-13:00; PH off","addr:housenumber":"3","name":"21132 Петроварадин","amenity":"post_office","phone":"+381 21 4807-090;+381 21 6431-939","ref":"21132","name:sr-Latn":"21132 Petrovaradin","addr:pak":"410301","addr:street":"Фрање Штефановића"},"geometry":{"type":"Point","coordinates":[19.8862391734775,45.2398687583229]}},{"type":"Feature","properties":{"name:sr":"21241 Каћ","opening_hours":"Mo-Fr 08:00-19:00; Sa 08:00-13:00; PH off","addr:housenumber":"2","name":"21241 Каћ","amenity":"post_office","phone":"+381 21 6211-080;+381 21 6211-002","ref":"21241","name:sr-Latn":"21241 Kać","addr:pak":"409201","addr:street":"Краља Петра првог"},"geometry":{"type":"Point","coordinates":[19.9392769765329,45.2997419826054]}},{"type":"Feature","properties":{"name:sr":"21242 Будисава","opening_hours":"Mo-Fr 08:00-14:00; Sa 09:00-13:00; PH off","addr:housenumber":"103","name":"21242 Будисава","amenity":"post_office","phone":"+381 21 4807-287","ref":"21242","name:sr-Latn":"21242 Budisava","addr:pak":"409640","addr:street":"Војвођанска"},"geometry":{"type":"Point","coordinates":[19.9916700245127,45.2809899865193]}},{"type":"Feature","properties":{"name:sr":"21243 Ковиљ","opening_hours":"Mo-Fr 08:00-14:00; Sa 09:00-13:00; PH off","addr:housenumber":"74","name":"21243 Ковиљ","amenity":"post_office","phone":"+381 21 4807-288","ref":"21243","name:sr-Latn":"21243 Kovilj","addr:pak":"409843","addr:street":"Лазе Костића"},"geometry":{"type":"Point","coordinates":[20.0220443615289,45.2280411333666]}},{"type":"Feature","properties":{"name:sr":"21249 Каћ","opening_hours":"Mo-Sa 07:30-19:30; Su 07:00-13:00; PH 07:30-19:30","addr:housenumber":"102","name":"21249 Каћ","amenity":"post_office","phone":"+381 21 6211-212","ref":"21249","name:sr-Latn":"21249 Kać","addr:pak":"409318","addr:street":"Моше Пијаде"},"geometry":{"type":"Point","coordinates":[19.9308047900753,45.3112284560341]}}]}