{"type":"FeatureCollection","features":[{"type":"Feature","properties":{"name:sr":"24106 Суботица","opening_hours":"Mo-Fr 08:00-17:00; Sa 08:00-12:00; PH off","addr:housenumber":"21","name":"24106 Суботица","amenity":"post_office","phone":"+381 24 566-843;+381 24 566-000","ref":"24106","name:sr-Latn":"24106 Subotica","addr:pak":"453618","addr:street":"Аксентија Мародића"},"geometry":{"type":"Point","coordinates":[19.6798663576754,46.0720047167635]}},{"type":"Feature","properties":{"name:sr":"24210 Бајмок","opening_hours":"Mo-Fr 07:00-17:00; Sa 07:00-12:00; PH off","addr:housenumber":"1","name":"24210 Бајмок","amenity":"post_office","phone":"+381 24 762-055","ref":"24210","name:sr-Latn":"24210 Bajmok","addr:pak":"456610","addr:street":"Иве Лоле Рибара"},"geometry":{"type":"Point","coordinates":[19.4227999590583,45.9694101441338]}},{"type":"Feature","properties":{"name:sr":"24211 Мишићево","opening_hours":"Mo-Fr 07:00-10:00; PH off","addr:housenumber":"23","name":"24211 Мишићево","amenity":"post_office","phone":"+381 24 4760-098","ref":"24211","name:sr-Latn":"24211 Mišićevo","addr:pak":"456920","addr:street":"Владе Ћетковића"},"geometry":{"type":"Point","coordinates":[19.4910460605972,45.9954728099596]}},{"type":"Feature","properties":{"name:sr":"24213 Ђурђин","opening_hours":"Mo-Fr 07:00-11:00; PH off","addr:housenumber":"15","name":"24213 Ђурђин","amenity":"post_office","phone":"+381 24 4768-000","ref":"24213","name:sr-Latn":"24213 Đurđin","addr:pak":"457001","addr:street":"Бориса Кидрича"},"geometry":{"type":"Point","coordinates":[19.5386314811089,45.9441415245695]}},{"type":"Feature","properties":{"name:sr":"24214 Таванкут","opening_hours":"Mo-Fr 08:00-15:00; PH off","addr:housenumber":"2","name":"24214 Таванкут","amenity":"post_office","phone":"+381 24 4767-000","ref":"24214","name:sr-Latn":"24214 Tavankut","addr:pak":"457101","addr:street":"Јована Микића"},"geometry":{"type":"Point","coordinates":[19.4933676937039,46.047341140692]}},{"type":"Feature","properties":{"name:sr":"24223 Нови Жедник","opening_hours":"Mo-Fr 07:00-14:00; PH off","addr:housenumber":"53","name":"24223 Нови Жедник","amenity":"post_office","phone":"+381 24 785-055","ref":"24223","name:sr-Latn":"24223 Novi Žednik","addr:pak":"458003","addr:street":"Радоја Вујошевића"},"geometry":{"type":"Point","coordinates":[19.6690794837387,45.9382023241996]}},{"type":"Feature","properties":{"name:sr":"24224 Стари Жедник","opening_hours":"Mo-Fr 07:00-14:00; PH off","addr:housenumber":"4","name":"24224 Стари Жедник","amenity":"post_office","phone":"+381 24 787-050","ref":"24224","name:sr-Latn":"24224 Stari Žednik","addr:pak":"458167","addr:street":"Трг Слободе"},"geometry":{"type":"Point","coordinates":[19.629517615902,45.9497855280876]}},{"type":"Feature","properties":{"name:sr":"24308 Карађорђево","opening_hours":"Mo-Fr 07:00-10:00; PH off","addr:housenumber":"18","name":"24308 Карађорђево","amenity":"post_office","phone":"+381 24 729-024","ref":"24308","name:sr-Latn":"24308 Karađorđevo","addr:pak":"441112","addr:street":"Николе Тесле"},"geometry":{"type":"Point","coordinates":[19.5904517490868,45.8570034051274]}},{"type":"Feature","properties":{"name:sr":"24309 Мали Београд","opening_hours":"Mo-Fr 07:00-10:00; PH off","addr:housenumber":"49","name":"24309 Мали Београд","amenity":"post_office","phone":"+381 24 720-099","ref":"24309","name:sr-Latn":"24309 Mali Beograd","addr:pak":"441210","addr:street":"Маршала Тита"},"geometry":{"type":"Point","coordinates":[19.6338823229823,45.883229823793]}},{"type":"Feature","properties":{"name:sr":"24340 Стара Моравица","opening_hours":"Mo-Fr 07:00-14:00; Sa 07:00-12:00; PH off","addr:housenumber":"1","name":"24340 Стара Моравица","amenity":"post_office","phone":"+381 24 741-029","ref":"24340","name:sr-Latn":"24340 Stara Moravica","addr:pak":"442142","addr:street":"Лајоша Кошута"},"geometry":{"type":"Point","coordinates":[19.4663720652183,45.8693799045461]}},{"type":"Feature","properties":{"name:sr":"24341 Криваја","opening_hours":"Mo-Fr 06:00-12:00; PH off","addr:housenumber":"6","name":"24341 Криваја","amenity":"post_office","phone":"+381 24 4724-004","ref":"24341","name:sr-Latn":"24341 Krivaja","addr:pak":"442350","addr:street":"Вука Караџића"},"geometry":{"type":"Point","coordinates":[19.5075604582928,45.832538776375]}},{"type":"Feature","properties":{"name:sr":"24342 Пачир","opening_hours":"Mo-Fr 07:00-14:00; PH off","addr:housenumber":"2","name":"24342 Пачир","amenity":"post_office","phone":"+381 24 4744-033","ref":"24342","name:sr-Latn":"24342 Pačir","addr:pak":"442590","addr:street":"Трг Маршала Тита"},"geometry":{"type":"Point","coordinates":[19.4401850429353,45.8967106263818]}},{"type":"Feature","properties":{"name:sr":"24215 Љутово","opening_hours":"Mo-Fr 06:30-13:00; PH off","addr:housenumber":"367","name":"24215 Љутово","amenity":"post_office","phone":"+381 24 4767-020","ref":"24215","name:sr-Latn":"24215 Ljutovo","addr:pak":"457354","addr:street":"Слободана Принципа Сеље"},"geometry":{"type":"Point","coordinates":[19.5255797019629,46.0664000174928]}}]}