{"type":"FeatureCollection","features":[{"type":"Feature","properties":{"name:sr":"22230 Ердевик","opening_hours":"Mo-Fr 07:30-13:30; Sa 08:00-12:00; PH off","addr:housenumber":"1","name":"22230 Ердевик","amenity":"post_office","phone":"+381 22 752-907","ref":"22230","name:sr-Latn":"22230 Erdevik","addr:pak":"327606","addr:street":"Светог Саве"},"geometry":{"type":"Point","coordinates":[19.4096339548094,45.1156485270718]}},{"type":"Feature","properties":{"name:sr":"22232 Дивош","opening_hours":"Mo-Fr 07:00-10:30; PH off","addr:housenumber":"1","name":"22232 Дивош","amenity":"post_office","phone":"+381 22 661-119","ref":"22232","name:sr-Latn":"22232 Divoš","addr:pak":"323840","addr:street":"Лекина"},"geometry":{"type":"Point","coordinates":[19.5094779258813,45.1097834508549]}},{"type":"Feature","properties":{"name:sr":"22253 Бингула","opening_hours":"Mo,We,Fr 07:30-12:00; PH off","addr:housenumber":"1","name":"22253 Бингула","amenity":"post_office","phone":"+381 22 753-851","ref":"22253","name:sr-Latn":"22253 Bingula","addr:pak":"327803","addr:street":"Стевана Шарца"},"geometry":{"type":"Point","coordinates":[19.4481908810242,45.1013605200133]}},{"type":"Feature","properties":{"name:sr":"22255 Љуба","opening_hours":"Tu,Th 07:30-12:00; PH off","addr:housenumber":"33","name":"22255 Љуба","amenity":"post_office","phone":"+381 22 752-058","ref":"22255","name:sr-Latn":"22255 Ljuba","addr:pak":"327958","addr:street":"Војвођанска"},"geometry":{"type":"Point","coordinates":[19.3901965929135,45.1563466926785]}}]}