{"type":"FeatureCollection","features":[{"type":"Feature","properties":{"name:sr":"21311 Черевић","opening_hours":"Mo-Fr 08:00-14:00; PH off","addr:housenumber":"19","name":"21311 Черевић","amenity":"post_office","phone":"+381 21 2977-034","ref":"21311","name:sr-Latn":"21311 Čerević","addr:pak":"396930","addr:street":"Краља Петра првог"},"geometry":{"type":"Point","coordinates":[19.6668969804951,45.2187380109911]}},{"type":"Feature","properties":{"name:sr":"21312 Баноштор","opening_hours":"Mo,We,Th 07:00-11:00; PH off","addr:housenumber":"33","name":"21312 Баноштор","amenity":"post_office","phone":"+381 21 879-542","ref":"21312","name:sr-Latn":"21312 Banoštor","addr:pak":"396501","addr:street":"Светозара Марковића"},"geometry":{"type":"Point","coordinates":[19.6113880030754,45.214051970754]}},{"type":"Feature","properties":{"name:sr":"21313 Сусек","opening_hours":"Tu,Th,Fr 08:00-14:00; PH off","addr:housenumber":"75","name":"21313 Сусек","amenity":"post_office","phone":"+381 21 878-437","ref":"21313","name:sr-Latn":"21313 Susek","addr:pak":"396801","addr:street":"Николе Тесле"},"geometry":{"type":"Point","coordinates":[19.5352625738254,45.2246184369878]}},{"type":"Feature","properties":{"name:sr":"21411 Бегеч","opening_hours":"Mo-Fr 08:00-14:00; PH off","addr:housenumber":"31","name":"21411 Бегеч","amenity":"post_office","phone":"+381 21 898-000","ref":"21411","name:sr-Latn":"21411 Begeč","addr:pak":"408601","addr:street":"Краља Петра првог"},"geometry":{"type":"Point","coordinates":[19.6231073690612,45.237663430414]}},{"type":"Feature","properties":{"amenity":"post_office","name":"21412 Гложан","name:sr":"21412 Гложан","name:sr-Latn":"21412 Gložan","ref":"21412","opening_hours":"Mo-Fr 08:00-14:00; PH off","phone":"+381 21 788-002","addr:pak":"395519"},"geometry":{"type":"Point","coordinates":[19.5693107557025,45.2774556266275]}},{"type":"Feature","properties":{"name:sr":"21413 Челарево","opening_hours":"Mo-Fr 08:00-14:00; Sa 09:00-13:00; PH off","addr:housenumber":"39","name":"21413 Челарево","amenity":"post_office","phone":"+381 21 760-002","ref":"21413","name:sr-Latn":"21413 Čelarevo","addr:pak":"394814","addr:street":"Словачка"},"geometry":{"type":"Point","coordinates":[19.530878921048,45.2740490017618]}}]}