{"type":"FeatureCollection","features":[{"type":"Feature","properties":{"name:sr":"24000 Суботица","opening_hours":"Mo-Fr 08:00-19:00; Sa 08:00-14:00; PH off","addr:housenumber":"17","name":"24000 Суботица","amenity":"post_office","phone":"+381 24 634-013;+381 24 634-015;+381 24 634-016","ref":"24000","name:sr-Latn":"24000 Subotica","addr:pak":"450710","addr:street":"Парк Ференца Рајхла"},"geometry":{"type":"Point","coordinates":[19.6715181645446,46.1005629216599]}},{"type":"Feature","properties":{"name:sr":"24101 Суботица","opening_hours":"Mo-Fr 07:30-19:00; Sa 07:30-14:00; PH off","addr:housenumber":"2","name":"24101 Суботица","amenity":"post_office","phone":"+381 24 634-060;+381 24 634-061;+381 24 634-062","ref":"24101","name:sr-Latn":"24101 Subotica","addr:pak":"459901","addr:street":"Првомајска"},"geometry":{"type":"Point","coordinates":[19.6653481542632,46.0973794168873]}},{"type":"Feature","properties":{"name:sr":"24104 Келебија","opening_hours":"Mo,Tu,We,Th 07:30-11:30; Fr 07:30-10:00; PH off","addr:housenumber":"383","name":"24104 Келебија","amenity":"post_office","phone":"+381 24 789-000","ref":"24104","name:sr-Latn":"24104 Kelebija","addr:pak":"456101","addr:street":"Пут Едварда Кардеља"},"geometry":{"type":"Point","coordinates":[19.5769787453873,46.1525484010982]}},{"type":"Feature","properties":{"name:sr":"24107 Суботица","opening_hours":"Mo-Fr 08:00-17:00; Sa 08:00-12:00; PH off","addr:housenumber":"1","name":"24107 Суботица","amenity":"post_office","phone":"+381 24 561-444;+381 24 561-758","ref":"24107","name:sr-Latn":"24107 Subotica","addr:pak":"454102","addr:street":"Фрање Клуза"},"geometry":{"type":"Point","coordinates":[19.6445830566525,46.0882835500509]}},{"type":"Feature","properties":{"name:sr":"24109 Суботица","opening_hours":"Mo-Fr 08:00-16:00; Sa 08:00-12:00; PH off","addr:housenumber":"59","name":"24109 Суботица","amenity":"post_office","phone":"+381 24 557-696","ref":"24109","name:sr-Latn":"24109 Subotica","addr:pak":"454501","addr:street":"Едвина Здовца"},"geometry":{"type":"Point","coordinates":[19.6326327139836,46.1136739058772]}},{"type":"Feature","properties":{"amenity":"post_office","name":"24110 Суботица","name:sr":"24110 Суботица","name:sr-Latn":"24110 Subotica","ref":"24110","opening_hours":"Mo-Fr 08:00-19:00; Sa 08:00-12:00; PH off","phone":"+381 24 576-900","addr:pak":"454952"},"geometry":{"type":"Point","coordinates":[19.6733839133741,46.1214434340323]}},{"type":"Feature","properties":{"name:sr":"24103 Суботица","opening_hours":"Mo-Fr 08:00-16:00; PH off","addr:housenumber":"40","name":"24103 Суботица","amenity":"post_office","phone":"+381 24 556-874","ref":"24103","name:sr-Latn":"24103 Subotica","addr:pak":"450870","addr:street":"Карађорђев пут"},"geometry":{"type":"Point","coordinates":[19.6501315821098,46.1026575638218]}},{"type":"Feature","properties":{"name:sr":"24111 Суботица","opening_hours":"Mo-Fr 08:00-19:00; Sa 08:00-12:00; PH off","addr:housenumber":"101","name":"24111 Суботица","amenity":"post_office","phone":"+381 24 559-053","ref":"24111","name:sr-Latn":"24111 Subotica","addr:pak":"455777","addr:street":"Првомајска"},"geometry":{"type":"Point","coordinates":[19.6726021694684,46.0897590320233]}},{"type":"Feature","properties":{"name:sr":"24112 Суботица","opening_hours":"Mo-Fr 08:00-16:00; PH off","addr:housenumber":"33","name":"24112 Суботица","amenity":"post_office","phone":"+381 24 557-980","ref":"24112","name:sr-Latn":"24112 Subotica","addr:pak":"451105","addr:street":"Алеја Маршала Тита"},"geometry":{"type":"Point","coordinates":[19.6540729122606,46.1079657653038]}},{"type":"Feature","properties":{"name:sr":"24113 Суботица","opening_hours":"Mo-Fr 07:30-15:00; PH off","addr:housenumber":"45","name":"24113 Суботица","amenity":"post_office","phone":"+381 24 547-986","ref":"24113","name:sr-Latn":"24113 Subotica","addr:pak":"450910","addr:street":"Сегедински пут"},"geometry":{"type":"Point","coordinates":[19.6835793061945,46.1005149513598]}},{"type":"Feature","properties":{"name:sr":"24114 Суботица","opening_hours":"Mo-Fr 08:00-14:00; PH off","addr:housenumber":"1","name":"24114 Суботица","amenity":"post_office","phone":"+381 24 555-792","ref":"24114","name:sr-Latn":"24114 Subotica","addr:pak":"450229","addr:street":"Сенћански пут"},"geometry":{"type":"Point","coordinates":[19.6726374927787,46.0962117435474]}},{"type":"Feature","properties":{"name:sr":"24115 Суботица","opening_hours":"Mo-Fr 07:30-14:30; PH off","addr:housenumber":"1","name":"24115 Суботица","amenity":"post_office","phone":"+381 24 555-391","ref":"24115","name:sr-Latn":"24115 Subotica","addr:pak":"450489","addr:street":"Трг Слободе"},"geometry":{"type":"Point","coordinates":[19.6646001310999,46.0996671559785]}},{"type":"Feature","properties":{"name:sr":"24117 Суботица","opening_hours":"Mo-Fr 07:30-14:00; PH off","addr:housenumber":"3","name":"24117 Суботица","amenity":"post_office","phone":"+381 24 555-390","ref":"24117","name:sr-Latn":"24117 Subotica","addr:pak":"455595","addr:street":"Изворска"},"geometry":{"type":"Point","coordinates":[19.6711409087131,46.0815076388669]}}]}