{"type":"FeatureCollection","features":[{"type":"Feature","properties":{"name:sr":"21113 Нови Сад","opening_hours":"Mo-Fr 08:00-19:00; Sa 08:00-13:00; PH off","addr:housenumber":"2","name":"21113 Нови Сад","amenity":"post_office","phone":"+381 21 4807-080;+381 21 512-046","ref":"21113","name:sr-Latn":"21113 Novi Sad","addr:pak":"401807","addr:street":"Браће Могин"},"geometry":{"type":"Point","coordinates":[19.8145190036883,45.264661997429]}},{"type":"Feature","properties":{"name:sr":"21114 Нови Сад","opening_hours":"Mo-Fr 09:00-16:00; PH off","addr:housenumber":"13","name":"21114 Нови Сад","amenity":"post_office","phone":"+381 21 402-630;+381 21 400-774","ref":"21114","name:sr-Latn":"21114 Novi Sad","addr:pak":"402220","addr:street":"Булевар Јована Дучића"},"geometry":{"type":"Point","coordinates":[19.8016814263411,45.2519165898133]}},{"type":"Feature","properties":{"name:sr":"21126 Нови Сад","opening_hours":"Mo-Fr 08:00-14:00; PH off","addr:housenumber":"17","name":"21126 Нови Сад","amenity":"post_office","phone":"+381 21 403-151","ref":"21126","name:sr-Latn":"21126 Novi Sad","addr:pak":"402437","addr:street":"Бате Бркића"},"geometry":{"type":"Point","coordinates":[19.7944810906639,45.2543155071066]}},{"type":"Feature","properties":{"name:sr":"21135 Нови Сад","opening_hours":"Mo-Su,PH 07:00-20:00","addr:housenumber":"93Ц","name":"21135 Нови Сад","amenity":"post_office","phone":"+381 21 6791-160","ref":"21135","name:sr-Latn":"21135 Novi Sad","addr:pak":"406448","addr:street":"Футошки пут"},"geometry":{"type":"Point","coordinates":[19.7978699223972,45.2449049471]}},{"type":"Feature","properties":{"name:sr":"21137 Нови Сад","opening_hours":"Mo-Fr 08:00-19:00; Sa 08:00-13:00; PH off","addr:housenumber":"4","name":"21137 Нови Сад","amenity":"post_office","phone":"+381 21 4807-091;+381 21 4807-076","ref":"21137","name:sr-Latn":"21137 Novi Sad","addr:pak":"402610","addr:street":"Стојана Новаковића"},"geometry":{"type":"Point","coordinates":[19.8047573585183,45.2575308911143]}},{"type":"Feature","properties":{"amenity":"post_office","name":"21140 Нови Сад","name:sr":"21140 Нови Сад","name:sr-Latn":"21140 Novi Sad","ref":"21140","opening_hours":"Mo-Su,PH 07:00-20:00","phone":"+381 21 6419-740","addr:pak":"401976"},"geometry":{"type":"Point","coordinates":[19.8155029396561,45.2579727037788]}}]}