{"type":"FeatureCollection","features":[{"type":"Feature","properties":{"name:sr":"21112 Нови Сад","opening_hours":"Mo-Fr 09:00-16:00; PH off","addr:housenumber":"11","name":"21112 Нови Сад","amenity":"post_office","phone":"+381 21 420-036","ref":"21112","name:sr-Latn":"21112 Novi Sad","addr:pak":"402052","addr:street":"Хајдук Вељкова"},"geometry":{"type":"Point","coordinates":[19.8239999581265,45.2563179559302]}},{"type":"Feature","properties":{"name:sr":"21117 Нови Сад","opening_hours":"Mo-Fr 09:00-16:00; PH off","addr:housenumber":"63","name":"21117 Нови Сад","amenity":"post_office","phone":"+381 21 443-399","ref":"21117","name:sr-Latn":"21117 Novi Sad","addr:pak":"401048","addr:street":"Булевар ослобођења"},"geometry":{"type":"Point","coordinates":[19.8344995110691,45.2575100971282]}},{"type":"Feature","properties":{"name:sr":"21128 Нови Сад","opening_hours":"Mo-Fr 07:00-18:00; Sa 08:00-12:00; PH off","addr:housenumber":"100","name":"21128 Нови Сад","amenity":"post_office","phone":"+381 21 6622-817","ref":"21128","name:sr-Latn":"21128 Novi Sad","addr:pak":"403648","addr:street":"Булевар ослобођења"},"geometry":{"type":"Point","coordinates":[19.8401061043408,45.2451281070029]}}]}