{"type":"FeatureCollection","features":[{"type":"Feature","properties":{"name:sr":"21121 Нови Сад","opening_hours":"Mo-Fr 08:00-19:00; Sa 08:00-13:00; PH off","addr:housenumber":"2","name":"21121 Нови Сад","amenity":"post_office","phone":"+381 21 422-264;+381 21 6613-509","ref":"21121","name:sr-Latn":"21121 Novi Sad","addr:pak":"400204","addr:street":"Сутјеска"},"geometry":{"type":"Point","coordinates":[19.8460569672364,45.2478799804267]}},{"type":"Feature","properties":{"name:sr":"21101 Нови Сад","opening_hours":"Mo-Fr 08:00-19:00; Sa 08:00-14:00; PH off","addr:housenumber":"2","name":"21101 Нови Сад","amenity":"post_office","phone":"+381 21 4807-068;+381 21 4807-069","ref":"21101","name:sr-Latn":"21101 Novi Sad","addr:pak":"400101","addr:street":"Народних хероја"},"geometry":{"type":"Point","coordinates":[19.8426479227964,45.253526982646]}},{"type":"Feature","properties":{"name:sr":"21122 Нови Сад","opening_hours":"Mo-Fr 07:30-14:30; PH off","addr:housenumber":"1","name":"21122 Нови Сад","amenity":"post_office","phone":"+381 21 6623-845","ref":"21122","name:sr-Latn":"21122 Novi Sad","addr:pak":"400470","addr:street":"Трг Слободе"},"geometry":{"type":"Point","coordinates":[19.8444719828863,45.2548979646452]}},{"type":"Feature","properties":{"name:sr":"21131 Петроварадин","opening_hours":"Mo-Fr 08:00-14:00; PH off","addr:housenumber":"19","name":"21131 Петроварадин","amenity":"post_office","phone":"+381 21 6433-147","ref":"21131","name:sr-Latn":"21131 Petrovaradin","addr:pak":"410507","addr:street":"Београдска"},"geometry":{"type":"Point","coordinates":[19.8626059362389,45.2548229514783]}},{"type":"Feature","properties":{"name:sr":"21108 Нови Сад","opening_hours":"Mo-Fr 09:00-15:00; PH off","addr:housenumber":"16","name":"21108 Нови Сад","amenity":"post_office","phone":"+381 21 457-102","ref":"21108","name:sr-Latn":"21108 Novi Sad","addr:pak":"400346","addr:street":"Булевар Михајла Пупина"},"geometry":{"type":"Point","coordinates":[19.8492570106248,45.2532639665409]}},{"type":"Feature","properties":{"name:sr":"21111 Нови Сад","opening_hours":"Mo-Fr 08:00-14:00; Sa 09:00-13:00; PH off","addr:housenumber":"7","name":"21111 Нови Сад","amenity":"post_office","phone":"+381 21 6613-355","ref":"21111","name:sr-Latn":"21111 Novi Sad","addr:pak":"400517","addr:street":"Милоша Бајића"},"geometry":{"type":"Point","coordinates":[19.8530940988664,45.2575578246112]}},{"type":"Feature","properties":{"name:sr":"21120 Нови Сад","opening_hours":"Mo-Fr 08:00-14:00; PH off","addr:housenumber":"3","name":"21120 Нови Сад","amenity":"post_office","phone":"+381 21 6622-087","ref":"21120","name:sr-Latn":"21120 Novi Sad","addr:pak":"400207","addr:street":"Сутјеска"},"geometry":{"type":"Point","coordinates":[19.8457937213091,45.2490854264745]}}]}