{"type":"FeatureCollection","features":[{"type":"Feature","properties":{"name:sr":"15212 Дреновац","opening_hours":"Mo-Fr 08:00-14:00; PH off","addr:housenumber":"2","name":"15212 Дреновац","amenity":"post_office","phone":"+381 15 290-234","ref":"15212","name:sr-Latn":"15212 Drenovac","addr:pak":"274234","addr:street":"Војводе Степе"},"geometry":{"type":"Point","coordinates":[19.709899758689,44.8666807712433]}},{"type":"Feature","properties":{"name:sr":"22422 Никинци","opening_hours":"Mo-Fr 07:00-14:00; PH off","addr:housenumber":"1","name":"22422 Никинци","amenity":"post_office","phone":"+381 22 443-010","ref":"22422","name:sr-Latn":"22422 Nikinci","addr:pak":"333931","addr:street":"Железничка"},"geometry":{"type":"Point","coordinates":[19.8239083526695,44.8516069586293]}},{"type":"Feature","properties":{"name:sr":"22426 Јарак","opening_hours":"Mo-Fr 07:00-14:00; PH off","addr:housenumber":"2","name":"22426 Јарак","amenity":"post_office","phone":"+381 22 662-115","ref":"22426","name:sr-Latn":"22426 Jarak","addr:pak":"325213","addr:street":"Школска"},"geometry":{"type":"Point","coordinates":[19.7531254211473,44.9182270882102]}},{"type":"Feature","properties":{"name:sr":"22427 Хртковци","opening_hours":"Mo-Fr 08:00-15:00; PH off","addr:housenumber":"1","name":"22427 Хртковци","amenity":"post_office","phone":"+381 22 455-106","ref":"22427","name:sr-Latn":"22427 Hrtkovci","addr:pak":"334689","addr:street":"Школска"},"geometry":{"type":"Point","coordinates":[19.7706613871094,44.8788282170259]}}]}