{"type":"FeatureCollection","features":[{"type":"Feature","properties":{"name:sr":"22212 Бешеново","opening_hours":"Mo-Fr 07:00-10:30; PH off","addr:housenumber":"15","name":"22212 Бешеново","amenity":"post_office","phone":"+381 22 666-019","ref":"22212","name:sr-Latn":"22212 Bešenovo","addr:pak":"324605","addr:street":"Драгиње Никшић"},"geometry":{"type":"Point","coordinates":[19.7043542815081,45.0822609039415]}},{"type":"Feature","properties":{"name:sr":"22400 Рума","opening_hours":"Mo-Fr 08:00-19:00; Sa 08:00-14:00; PH off","addr:housenumber":"155","name":"22400 Рума","amenity":"post_office","phone":"+381 22 600-686;+381 22 479-131","ref":"22400","name:sr-Latn":"22400 Ruma","addr:pak":"330228","addr:street":"ЈНА"},"geometry":{"type":"Point","coordinates":[19.8232226335375,45.007188900729]}},{"type":"Feature","properties":{"name:sr":"22405 Стејановци","opening_hours":"Mo-Fr 07:00-10:30; PH off","addr:housenumber":"17","name":"22405 Стејановци","amenity":"post_office","phone":"+381 22 454-411","ref":"22405","name:sr-Latn":"22405 Stejanovci","addr:pak":"333114","addr:street":"Фрушкогорска"},"geometry":{"type":"Point","coordinates":[19.7232138852857,45.057416507574]}},{"type":"Feature","properties":{"name:sr":"22425 Шашинци","opening_hours":"Mo-Fr 07:00-14:00; PH off","addr:housenumber":"17","name":"22425 Шашинци","amenity":"post_office","phone":"+381 22 684012","ref":"22425","name:sr-Latn":"22425 Šašinci","addr:pak":"325105","addr:street":"Змај Јовина"},"geometry":{"type":"Point","coordinates":[19.7423571262446,44.9672634129658]}},{"type":"Feature","properties":{"name:sr":"22429 Вогањ","opening_hours":"Mo-Fr 07:00-10:30; PH off","addr:housenumber":"3","name":"22429 Вогањ","amenity":"post_office","phone":"+381 22 448-011","ref":"22429","name:sr-Latn":"22429 Voganj","addr:pak":"332305","addr:street":"Румска"},"geometry":{"type":"Point","coordinates":[19.7564357173722,45.0042010868827]}},{"type":"Feature","properties":{"name:sr":"22402 Рума","opening_hours":"Mo-Fr 07:30-14:30; PH off","addr:housenumber":"ББ","name":"22402 Рума","amenity":"post_office","phone":"+381 22 473-110","ref":"22402","name:sr-Latn":"22402 Ruma","addr:pak":"330644","addr:street":"Вашариште"},"geometry":{"type":"Point","coordinates":[19.8378157695191,45.0069398615575]}},{"type":"Feature","properties":{"name:sr":"22401 Рума","opening_hours":"Mo-Fr 07:00-14:00; PH off","addr:housenumber":"Л41","name":"22401 Рума","amenity":"post_office","phone":"+381 22 472-510","ref":"22401","name:sr-Latn":"22401 Ruma","addr:pak":"331004","addr:street":"Иве Лоле Рибара"},"geometry":{"type":"Point","coordinates":[19.820977776474,45.0132610664957]}},{"type":"Feature","properties":{"name:sr":"22403 Рума","opening_hours":"Mo-Fr 07:00-14:00; PH off","addr:housenumber":"1","name":"22403 Рума","amenity":"post_office","phone":"+381 22 471-410","ref":"22403","name:sr-Latn":"22403 Ruma","addr:pak":"330784","addr:street":"Саве Шумановића"},"geometry":{"type":"Point","coordinates":[19.7983659846386,45.0072647679523]}}]}