{"type":"FeatureCollection","features":[{"type":"Feature","properties":{"name:sr":"22410 Пећинци","opening_hours":"Mo-Fr 08:00-14:00; Sa 08:00-12:00; PH off","addr:housenumber":"8","name":"22410 Пећинци","amenity":"post_office","phone":"+381 22 600-710;+381 22 600-709","ref":"22410","name:sr-Latn":"22410 Pećinci","addr:pak":"337110","addr:street":"Слободана Бајића"},"geometry":{"type":"Point","coordinates":[19.9660267732184,44.9080121582755]}},{"type":"Feature","properties":{"name:sr":"22412 Добринци","opening_hours":"Mo-Fr 07:00-10:30; PH off","addr:housenumber":"1","name":"22412 Добринци","amenity":"post_office","phone":"+381 22 453-011","ref":"22412","name:sr-Latn":"22412 Dobrinci","addr:pak":"333315","addr:street":"Борковачка"},"geometry":{"type":"Point","coordinates":[19.9282068633323,44.9535529823866]}},{"type":"Feature","properties":{"name:sr":"22413 Сремски Михаљевци","opening_hours":"Mo,We,Fr 07:00-10:30; PH off","addr:housenumber":"2","name":"22413 Сремски Михаљевци","amenity":"post_office","phone":"+381 22 2439-012","ref":"22413","name:sr-Latn":"22413 Sremski Mihaljevci","addr:pak":"337810","addr:street":"Прховачка"},"geometry":{"type":"Point","coordinates":[20.0383813267609,44.8592245310365]}},{"type":"Feature","properties":{"name:sr":"22414 Суботиште","opening_hours":"Tu,Th 07:00-10:30; PH off","addr:housenumber":"28","name":"22414 Суботиште","amenity":"post_office","phone":"+381 22 482-511","ref":"22414","name:sr-Latn":"22414 Subotište","addr:pak":"338307","addr:street":"Каменова"},"geometry":{"type":"Point","coordinates":[19.9608454088732,44.8447354910519]}},{"type":"Feature","properties":{"name:sr":"22415 Брестач","opening_hours":"Mo,We,Fr 07:00-10:30; PH off","addr:housenumber":"2","name":"22415 Брестач","amenity":"post_office","phone":"+381 22 489-511","ref":"22415","name:sr-Latn":"22415 Brestač","addr:pak":"338480","addr:street":"Јагодина"},"geometry":{"type":"Point","coordinates":[19.9044245411664,44.8608511334738]}},{"type":"Feature","properties":{"name:sr":"22421 Буђановци","opening_hours":"Mo-Fr 07:00-10:30; PH off","addr:housenumber":"1","name":"22421 Буђановци","amenity":"post_office","phone":"+381 22 447-011","ref":"22421","name:sr-Latn":"22421 Buđanovci","addr:pak":"333810","addr:street":"Партизанска"},"geometry":{"type":"Point","coordinates":[19.8651787187771,44.8934299923827]}},{"type":"Feature","properties":{"name:sr":"22428 Попинци","opening_hours":"Mo-Fr 07:00-10:30; PH off","addr:housenumber":"4","name":"22428 Попинци","amenity":"post_office","phone":"+381 22 484-512","ref":"22428","name:sr-Latn":"22428 Popinci","addr:pak":"338107","addr:street":"ЈНА"},"geometry":{"type":"Point","coordinates":[20.0059900676309,44.9279898938793]}},{"type":"Feature","properties":{"name:sr":"22440 Сибач","opening_hours":"Mo-Fr 07:00-11:00; PH off","addr:housenumber":"2","name":"22440 Сибач","amenity":"post_office","phone":"+381 22 499-155","ref":"22440","name:sr-Latn":"22440 Sibač","addr:pak":"337640","addr:street":"Маршала Тита"},"geometry":{"type":"Point","coordinates":[19.9327391168936,44.9055556414962]}},{"type":"Feature","properties":{"name:sr":"22442 Прхово","opening_hours":"Tu,Th 07:00-10:30; PH off","addr:housenumber":"63","name":"22442 Прхово","amenity":"post_office","phone":"+381 22 2492-012","ref":"22442","name:sr-Latn":"22442 Prhovo","addr:pak":"337746","addr:street":"Сремска"},"geometry":{"type":"Point","coordinates":[20.0028090171907,44.8827738261399]}}]}