{"type":"FeatureCollection","features":[{"type":"Feature","properties":{"name:sr":"22321 Љуково","opening_hours":"Mo-Fr 07:00-10:30; PH off","addr:housenumber":"88","name":"22321 Љуково","amenity":"post_office","phone":"+381 22 587-710","ref":"22321","name:sr-Latn":"22321 Ljukovo","addr:pak":"348182","addr:street":"Првог новембра"},"geometry":{"type":"Point","coordinates":[20.0257234070931,45.0254166836633]}},{"type":"Feature","properties":{"name:sr":"22404 Путинци","opening_hours":"Mo-Fr 08:00-14:00; PH off","addr:housenumber":"6","name":"22404 Путинци","amenity":"post_office","phone":"+381 22 441-011","ref":"22404","name:sr-Latn":"22404 Putinci","addr:pak":"332717","addr:street":"Иве Лоле Рибара"},"geometry":{"type":"Point","coordinates":[19.9715297576736,44.9928456342558]}},{"type":"Feature","properties":{"name:sr":"22411 Краљевци","opening_hours":"Mo-Fr 07:00-10:30; PH off","addr:housenumber":"1А","name":"22411 Краљевци","amenity":"post_office","phone":"+381 22 449-211","ref":"22411","name:sr-Latn":"22411 Kraljevci","addr:pak":"333226","addr:street":"Вељкова"},"geometry":{"type":"Point","coordinates":[19.884025134448,44.9760866310736]}},{"type":"Feature","properties":{"name:sr":"22434 Жарковац","opening_hours":"Mo-Fr 07:00-10:30; PH off","addr:housenumber":"2","name":"22434 Жарковац","amenity":"post_office","phone":"+381 22 2444-200","ref":"22434","name:sr-Latn":"22434 Žarkovac","addr:pak":"332872","addr:street":"Доситеја Обрадовића"},"geometry":{"type":"Point","coordinates":[19.9351575393194,45.0038828265584]}},{"type":"Feature","properties":{"amenity":"post_office","name":"22433 Доњи Петровци","name:sr":"22433 Доњи Петровци","name:sr-Latn":"22433 Donji Petrovci","ref":"22433","opening_hours":"Mo-Fr 07:00-11:00; PH off","phone":"+381 22 441-911","addr:pak":"332658"},"geometry":{"type":"Point","coordinates":[19.9740185334112,44.9662619249178]}}]}