{"type":"FeatureCollection","features":[{"type":"Feature","properties":{"name:sr":"31305 Бродарево","opening_hours":"Mo-Fr 08:00-15:00; Sa 08:00-12:00; PH off","addr:housenumber":"45","name":"31305 Бродарево","amenity":"post_office","phone":"+381 33 2150106;+381 33 2150107","ref":"31305","name:sr-Latn":"31305 Brodarevo","addr:pak":"512602","addr:street":"Братства Јединства"},"geometry":{"type":"Point","coordinates":[19.7158096540574,43.2325653305635]}},{"type":"Feature","properties":{"name:sr":"36310 Сјеница","opening_hours":"Mo-Fr 07:30-19:30; Sa 08:00-15:00; PH off","addr:housenumber":"1","name":"36310 Сјеница","amenity":"post_office","phone":"+381 20 741-210;+381 20 741-240;+381 20 741-900","ref":"36310","name:sr-Latn":"36310 Sjenica","addr:pak":"574441","addr:street":"Милорада Јовановића"},"geometry":{"type":"Point","coordinates":[20.0008041160321,43.2730306181401]}},{"type":"Feature","properties":{"amenity":"post_office","name":"36315 Баре","name:sr":"36315 Баре","name:sr-Latn":"36315 Bare","ref":"36315","opening_hours":"Mo,We 10:30-16:00; PH off","phone":"+381 20 453-006","addr:pak":"575501"},"geometry":{"type":"Point","coordinates":[19.8729686087503,43.1335126082394]}}]}