{"type":"FeatureCollection","features":[{"type":"Feature","properties":{"name:sr":"25270 Бездан","opening_hours":"Mo-Fr 07:00-13:00; Sa 07:30-11:30; PH off","addr:housenumber":"36","name":"25270 Бездан","amenity":"post_office","phone":"+381 25 465-165","ref":"25270","name:sr-Latn":"25270 Bezdan","addr:pak":"426002","addr:street":"Жртава Фашизма"},"geometry":{"type":"Point","coordinates":[18.9230206834918,45.8522206400047]}},{"type":"Feature","properties":{"name:sr":"25274 Колут","opening_hours":"Mo-Fr 07:00-11:00; PH off","addr:housenumber":"15","name":"25274 Колут","amenity":"post_office","phone":"+381 25 804-220","ref":"25274","name:sr-Latn":"25274 Kolut","addr:pak":"426801","addr:street":"Трг бораца"},"geometry":{"type":"Point","coordinates":[18.926434628894,45.8923570620308]}},{"type":"Feature","properties":{"name:sr":"25275 Бачки Брег","opening_hours":"Mo-Fr 07:00-11:00; PH off","addr:housenumber":"21","name":"25275 Бачки Брег","amenity":"post_office","phone":"+381 25 809-014","ref":"25275","name:sr-Latn":"25275 Bački Breg","addr:pak":"427034","addr:street":"Југословенска"},"geometry":{"type":"Point","coordinates":[18.9248142123042,45.9199636342571]}}]}