{"type":"FeatureCollection","features":[{"type":"Feature","properties":{"amenity":"post_office","name":"31307 Аљиновићи","name:sr":"31307 Аљиновићи","name:sr-Latn":"31307 Aljinovići","ref":"31307","opening_hours":"We,Fr 10:00-14:00; PH off","phone":"+381 33 2615-000","addr:pak":"513401"},"geometry":{"type":"Point","coordinates":[19.8508807664775,43.3300669515044]}},{"type":"Feature","properties":{"amenity":"post_office","name":"31317 Драглица","name:sr":"31317 Драглица","name:sr-Latn":"31317 Draglica","ref":"31317","opening_hours":"Mo-Fr 08:00-14:00; PH off","phone":"+381 33 ;+381 33 63-300","addr:pak":"518197"},"geometry":{"type":"Point","coordinates":[19.763082447376,43.5609304811861]}},{"type":"Feature","properties":{"name:sr":"31318 Кокин Брод","opening_hours":"Mo-Fr 08:00-14:30; PH off","addr:housenumber":"ББ","name":"31318 Кокин Брод","amenity":"post_office","phone":"+381 33 86-009","ref":"31318","name:sr-Latn":"31318 Kokin Brod","addr:pak":"518540","addr:street":"Кокин брод"},"geometry":{"type":"Point","coordinates":[19.7984813971519,43.5109618571084]}},{"type":"Feature","properties":{"amenity":"post_office","name":"31319 Јасеново КОД Н. ВАРОШИ","name:sr":"31319 Јасеново КОД Н. ВАРОШИ","name:sr-Latn":"31319 Jasenovo KOD N. VAROŠI","ref":"31319","opening_hours":"Mo-Fr 08:00-14:00; PH off","phone":"+381 33 2684-410","addr:pak":"518601"},"geometry":{"type":"Point","coordinates":[19.9001864610048,43.5512930498699]}},{"type":"Feature","properties":{"amenity":"post_office","name":"31320 Нова Варош","name:sr":"31320 Нова Варош","name:sr-Latn":"31320 Nova Varoš","ref":"31320","opening_hours":"Mo-Fr 08:00-19:00; Sa 08:00-12:00; PH off","phone":"+381 33 2150108;+381 33 2150109","addr:pak":"517101"},"geometry":{"type":"Point","coordinates":[19.814803462926,43.461209761699]}},{"type":"Feature","properties":{"amenity":"post_office","name":"31322 Божетићи","name:sr":"31322 Божетићи","name:sr-Latn":"31322 Božetići","ref":"31322","opening_hours":"Tu,Th 10:00-14:00; PH off","phone":"+381 33 670-966","addr:pak":"518801"},"geometry":{"type":"Point","coordinates":[19.9747263303555,43.4694936041776]}}]}