{"type":"FeatureCollection","features":[{"type":"Feature","properties":{"amenity":"post_office","name":"31206 Равни","name:sr":"31206 Равни","name:sr-Latn":"31206 Ravni","ref":"31206","opening_hours":"Mo-Fr 08:00-14:00; PH off","phone":"+381 31 3809-046","addr:pak":"503815"},"geometry":{"type":"Point","coordinates":[19.888240651745,43.7405758520251]}},{"type":"Feature","properties":{"amenity":"post_office","name":"31207 Сирогојно","name:sr":"31207 Сирогојно","name:sr-Latn":"31207 Sirogojno","ref":"31207","opening_hours":"Mo-Fr 08:00-15:00; PH off","phone":"+381 31 3802-050","addr:pak":"509801"},"geometry":{"type":"Point","coordinates":[19.8796229611659,43.6867885525285]}},{"type":"Feature","properties":{"amenity":"post_office","name":"31208 Рожанство","name:sr":"31208 Рожанство","name:sr-Latn":"31208 Rožanstvo","ref":"31208","opening_hours":"Mo-Fr 08:00-11:00; PH off","phone":"+381 31 835-050","addr:pak":"509901"},"geometry":{"type":"Point","coordinates":[19.8343649818999,43.7205949415321]}},{"type":"Feature","properties":{"amenity":"post_office","name":"31209 Љубиш","name:sr":"31209 Љубиш","name:sr-Latn":"31209 Ljubiš","ref":"31209","opening_hours":"Mo-Fr 08:00-15:00; PH off","phone":"+381 31 801-000","addr:pak":"509601"},"geometry":{"type":"Point","coordinates":[19.8532966375139,43.6177000983397]}},{"type":"Feature","properties":{"amenity":"post_office","name":"31234 Бреково","name:sr":"31234 Бреково","name:sr-Latn":"31234 Brekovo","ref":"31234","opening_hours":"Mo,Th 08:00-11:00; PH off","phone":"+381 31 897-145","addr:pak":"506507"},"geometry":{"type":"Point","coordinates":[20.017126292548,43.6400077144755]}},{"type":"Feature","properties":{"amenity":"post_office","name":"31237 Роге","name:sr":"31237 Роге","name:sr-Latn":"31237 Roge","ref":"31237","opening_hours":"Mo-Fr 08:00-11:00; PH off","phone":"+381 31 820-811","addr:pak":"505701"},"geometry":{"type":"Point","coordinates":[19.9819145103758,43.7760622760429]}},{"type":"Feature","properties":{"amenity":"post_office","name":"31310 Чајетина","name:sr":"31310 Чајетина","name:sr-Latn":"31310 Čajetina","ref":"31310","opening_hours":"Mo-Fr 08:00-14:30; Sa 08:00-12:00; PH off","phone":"+381 31 3831-332;+381 31 3831-330","addr:pak":"508829"},"geometry":{"type":"Point","coordinates":[19.7171761284002,43.7504665329948]}},{"type":"Feature","properties":{"amenity":"post_office","name":"31311 Бела Земља","name:sr":"31311 Бела Земља","name:sr-Latn":"31311 Bela Zemlja","ref":"31311","opening_hours":"Mo-Fr 08:00-15:00; PH off","phone":"+381 31 571-282","addr:pak":"503905"},"geometry":{"type":"Point","coordinates":[19.8023111995237,43.8274571871997]}},{"type":"Feature","properties":{"name:sr":"31312 Мачкат","opening_hours":"Mo-Fr 08:00-15:00; PH off","addr:housenumber":"ББ","name":"31312 Мачкат","amenity":"post_office","phone":"+381 31 3834-099","ref":"31312","name:sr-Latn":"31312 Mačkat","addr:pak":"509701","addr:street":"Мачкат"},"geometry":{"type":"Point","coordinates":[19.7801031467746,43.7913121376954]}},{"type":"Feature","properties":{"name:sr":"31315 Златибор","opening_hours":"Mo-Fr 08:00-19:00; Sa 08:00-15:00; Su 08:00-12:00; PH off","addr:housenumber":"78","name":"31315 Златибор","amenity":"post_office","phone":"+381 31 590-856;+381 31 590-898","ref":"31315","name:sr-Latn":"31315 Zlatibor","addr:pak":"509219","addr:street":"Миладина Пећинара"},"geometry":{"type":"Point","coordinates":[19.6995430612237,43.7255485299134]}}]}