{"type":"FeatureCollection","features":[{"type":"Feature","properties":{"name:sr":"31102 Ужице","opening_hours":"Mo-Fr 08:00-19:00; Sa 08:00-15:00; PH off","addr:housenumber":"9","name":"31102 Ужице","amenity":"post_office","phone":"+381 31 590-813;+381 31 590-815","ref":"31102","name:sr-Latn":"31102 Užice","addr:pak":"500806","addr:street":"Михаила Пупина"},"geometry":{"type":"Point","coordinates":[19.8389432213514,43.8539172496604]}},{"type":"Feature","properties":{"name:sr":"31103 Ужице","opening_hours":"Mo-Fr 08:00-19:00; Sa 08:00-15:00; PH off","addr:housenumber":"13","name":"31103 Ужице","amenity":"post_office","phone":"+381 31 590-853;+381 31 562-305","ref":"31103","name:sr-Latn":"31103 Užice","addr:pak":"501709","addr:street":"Милоша Обреновића"},"geometry":{"type":"Point","coordinates":[19.8564560495908,43.8522172469811]}},{"type":"Feature","properties":{"name:sr":"31104 Ужице","opening_hours":"Mo-Fr 08:00-15:00; Sa 08:00-12:00; PH off","addr:housenumber":"70","name":"31104 Ужице","amenity":"post_office","phone":"+381 31 552-065","ref":"31104","name:sr-Latn":"31104 Užice","addr:pak":"502464","addr:street":"Херцеговачка"},"geometry":{"type":"Point","coordinates":[19.826467876127,43.8580920549489]}},{"type":"Feature","properties":{"name:sr":"31106 Ужице","opening_hours":"Mo-Fr 08:00-15:00; Sa 08:00-12:00; PH off","addr:housenumber":"12","name":"31106 Ужице","amenity":"post_office","phone":"+381 31 541-455","ref":"31106","name:sr-Latn":"31106 Užice","addr:pak":"502836","addr:street":"Пора"},"geometry":{"type":"Point","coordinates":[19.8312989728606,43.8610127595612]}},{"type":"Feature","properties":{"amenity":"post_office","name":"31203 Луново Село","name:sr":"31203 Луново Село","name:sr-Latn":"31203 Lunovo Selo","ref":"31203","opening_hours":"Mo-Fr 08:00-11:00; PH off","phone":"+381 31 803-780","addr:pak":"503701"},"geometry":{"type":"Point","coordinates":[19.938310274446,43.8817251393709]}},{"type":"Feature","properties":{"name:sr":"31204 Каран","opening_hours":"Mo-Fr 08:00-14:00; PH off","addr:housenumber":"ББ","name":"31204 Каран","amenity":"post_office","phone":"+381 31 803-650","ref":"31204","name:sr-Latn":"31204 Karan","addr:pak":"503601","addr:street":"Краља Александра Карађорђевића"},"geometry":{"type":"Point","coordinates":[19.9105210026944,43.9162728089171]}},{"type":"Feature","properties":{"name:sr":"31205 Севојно","opening_hours":"Mo-Fr 08:00-19:00; Sa 08:00-15:00; PH off","addr:housenumber":"33","name":"31205 Севојно","amenity":"post_office","phone":"+381 31 590-852;+381 31 532-632","ref":"31205","name:sr-Latn":"31205 Sevojno","addr:pak":"503118","addr:street":"Миливоја Марића"},"geometry":{"type":"Point","coordinates":[19.89654063397,43.846346465638]}},{"type":"Feature","properties":{"name:sr":"31210 Пожега","opening_hours":"Mo-Fr 08:00-19:00; Sa 08:00-15:00; PH off","addr:housenumber":"2","name":"31210 Пожега","amenity":"post_office","phone":"+381 31 590-855;+381 31 590-897","ref":"31210","name:sr-Latn":"31210 Požega","addr:pak":"504702","addr:street":"Краља Петра"},"geometry":{"type":"Point","coordinates":[20.0356154515788,43.8465453431626]}},{"type":"Feature","properties":{"amenity":"post_office","name":"31213 Јежевица","name:sr":"31213 Јежевица","name:sr-Latn":"31213 Ježevica","ref":"31213","opening_hours":"Mo-Fr 08:00-12:00; PH off","phone":"+381 31 829-586","addr:pak":"505401"},"geometry":{"type":"Point","coordinates":[20.0255830273222,43.9625619859606]}},{"type":"Feature","properties":{"amenity":"post_office","name":"31254 Костојевићи","name:sr":"31254 Костојевићи","name:sr-Latn":"31254 Kostojevići","ref":"31254","opening_hours":"Mo-Fr 08:00-14:00; PH off","phone":"+381 31 3860-055","addr:pak":"507501"},"geometry":{"type":"Point","coordinates":[19.6879885807141,44.0069884696082]}},{"type":"Feature","properties":{"name:sr":"31260 Косјерић","opening_hours":"Mo-Fr 08:00-15:00; Sa 08:00-12:00; PH off","addr:housenumber":"62","name":"31260 Косјерић","amenity":"post_office","phone":"+381 31 590-895;+381 31 590-854","ref":"31260","name:sr-Latn":"31260 Kosjerić","addr:pak":"508104","addr:street":"Карађорђева"},"geometry":{"type":"Point","coordinates":[19.9072910480414,43.9987561630751]}},{"type":"Feature","properties":{"amenity":"post_office","name":"31262 Сеча Река","name:sr":"31262 Сеча Река","name:sr-Latn":"31262 Seča Reka","ref":"31262","opening_hours":"Mo,We,Fr 08:00-14:00; PH off","phone":"+381 31 3887-812","addr:pak":"508701"},"geometry":{"type":"Point","coordinates":[19.8381974276107,44.0105557404386]}},{"type":"Feature","properties":{"amenity":"post_office","name":"31263 Варда","name:sr":"31263 Варда","name:sr-Latn":"31263 Varda","ref":"31263","opening_hours":"Mo,We,Fr 08:00-11:00; PH off","phone":"+381 31 888-311","addr:pak":"508649"},"geometry":{"type":"Point","coordinates":[19.7500155213562,44.0453558475501]}},{"type":"Feature","properties":{"amenity":"post_office","name":"31265 Ражана","name:sr":"31265 Ражана","name:sr-Latn":"31265 Ražana","ref":"31265","opening_hours":"Mo-Fr 08:00-11:00; PH off","phone":"+381 31 3880-141","addr:pak":"508501"},"geometry":{"type":"Point","coordinates":[19.9191048429818,44.0699975135097]}},{"type":"Feature","properties":{"name:sr":"31000 Ужице","opening_hours":"Mo-Fr 07:00-19:00; Sa 07:00-15:00; PH off","addr:housenumber":"2","name":"31000 Ужице","amenity":"post_office","phone":"+381 31 590-874;+381 31 590-892","ref":"31000","name:sr-Latn":"31000 Užice","addr:pak":"500924","addr:street":"Обилићева"},"geometry":{"type":"Point","coordinates":[19.8421135737163,43.8550136223922]}},{"type":"Feature","properties":{"name:sr":"31107 Ужице","opening_hours":"Mo-Fr 08:00-19:00; Sa 08:00-15:00; PH off","addr:housenumber":"74","name":"31107 Ужице","amenity":"post_office","phone":"+381 31 511-883","ref":"31107","name:sr-Latn":"31107 Užice","addr:pak":"500226","addr:street":"Немањина"},"geometry":{"type":"Point","coordinates":[19.8494450261123,43.8595756983215]}},{"type":"Feature","properties":{"name:sr":"31108 Ужице","opening_hours":"Mo-Fr 08:00-16:00; PH off","addr:housenumber":"3","name":"31108 Ужице","amenity":"post_office","phone":"+381 31 ;+381 31 522-964","ref":"31108","name:sr-Latn":"31108 Užice","addr:pak":"501403","addr:street":"Ужичке Републике"},"geometry":{"type":"Point","coordinates":[19.8344013908816,43.856712469649]}},{"type":"Feature","properties":{"name:sr":"31109 Ужице","opening_hours":"Mo-Fr 08:00-19:00; Sa 08:00-15:00; PH off","addr:housenumber":"1","name":"31109 Ужице","amenity":"post_office","phone":"+381 31 590-851;+381 31 590-870","ref":"31109","name:sr-Latn":"31109 Užice","addr:pak":"501058","addr:street":"Југ Богданова"},"geometry":{"type":"Point","coordinates":[19.8418159899876,43.857888026212]}}]}