{"type":"FeatureCollection","features":[{"type":"Feature","properties":{"name:sr":"14000 Ваљево 1","opening_hours":"Mo-Fr 08:00-19:00; Sa 08:00-14:00; PH off","addr:housenumber":"5","name":"14000 Ваљево 1","amenity":"post_office","phone":"+381 14 294-013;+381 14 294-031","ref":"14000","name:sr-Latn":"14000 Valjevo 1","addr:pak":"250101","addr:street":"Вука Караџића"},"geometry":{"type":"Point","coordinates":[19.8860958203843,44.2706573057547]}},{"type":"Feature","properties":{"name:sr":"14104 Ваљево 4","opening_hours":"Mo-Fr 08:00-15:30; Sa 08:00-12:00; PH off","addr:housenumber":"48","name":"14104 Ваљево 4","amenity":"post_office","phone":"+381 14 227-009","ref":"14104","name:sr-Latn":"14104 Valjevo 4","addr:pak":"252870","addr:street":"Сувоборска"},"geometry":{"type":"Point","coordinates":[19.8984717748708,44.26455026942]}},{"type":"Feature","properties":{"name:sr":"14106 Ваљево 6","opening_hours":"Mo-Fr 08:00-14:00; Sa 08:00-12:00; PH off","addr:housenumber":"6","name":"14106 Ваљево 6","amenity":"post_office","phone":"+381 14 294-049;+381 14 235-902","ref":"14106","name:sr-Latn":"14106 Valjevo 6","addr:pak":"252901","addr:street":"Трг Владике Николаја"},"geometry":{"type":"Point","coordinates":[19.9181628492353,44.2802979503302]}},{"type":"Feature","properties":{"amenity":"post_office","name":"14202 Рајковић","name:sr":"14202 Рајковић","name:sr-Latn":"14202 Rajković","ref":"14202","opening_hours":"Mo-Fr 08:00-14:00; PH off","phone":"+381 14 3428-470","addr:pak":"256701"},"geometry":{"type":"Point","coordinates":[20.0050312430533,44.2209234273435]}},{"type":"Feature","properties":{"amenity":"post_office","name":"14203 Драчић","name:sr":"14203 Драчић","name:sr-Latn":"14203 Dračić","ref":"14203","opening_hours":"Mo-Fr 08:00-14:00; PH off","phone":"+381 14 276-100","addr:pak":"253485"},"geometry":{"type":"Point","coordinates":[19.9071285860905,44.2080716742641]}},{"type":"Feature","properties":{"amenity":"post_office","name":"14204 Дивчибаре","name:sr":"14204 Дивчибаре","name:sr-Latn":"14204 Divčibare","ref":"14204","opening_hours":"Mo-Fr 08:00-13:00; PH off","phone":"+381 14 3577-130","addr:pak":"253501"},"geometry":{"type":"Point","coordinates":[19.993803456845,44.110641611643]}},{"type":"Feature","properties":{"amenity":"post_office","name":"14205 Лелић","name:sr":"14205 Лелић","name:sr-Latn":"14205 Lelić","ref":"14205","opening_hours":"Mo-Fr 08:00-14:00; PH off","phone":"+381 14 3575-100","addr:pak":"253601"},"geometry":{"type":"Point","coordinates":[19.827134864512,44.2135664185367]}},{"type":"Feature","properties":{"amenity":"post_office","name":"14206 Поћута","name:sr":"14206 Поћута","name:sr-Latn":"14206 Poćuta","ref":"14206","opening_hours":"Mo-Fr 07:00-13:00; PH off","phone":"+381 14 3573-100","addr:pak":"253701"},"geometry":{"type":"Point","coordinates":[19.7291397557165,44.2090911422983]}},{"type":"Feature","properties":{"name:sr":"14221 Попучке","opening_hours":"Mo-Fr 08:00-11:00; PH off","addr:housenumber":"ББ","name":"14221 Попучке","amenity":"post_office","phone":"+381 14 283-299","ref":"14221","name:sr-Latn":"14221 Popučke","addr:pak":"253900","addr:street":"Попучке"},"geometry":{"type":"Point","coordinates":[19.9571225402939,44.2917008743196]}},{"type":"Feature","properties":{"amenity":"post_office","name":"14222 Дивци","name:sr":"14222 Дивци","name:sr-Latn":"14222 Divci","ref":"14222","opening_hours":"Mo-Fr 08:00-14:00; PH off","phone":"+381 14 274-130","addr:pak":"254101"},"geometry":{"type":"Point","coordinates":[20.031278588951,44.301736301378]}},{"type":"Feature","properties":{"amenity":"post_office","name":"14255 Ставе","name:sr":"14255 Ставе","name:sr-Latn":"14255 Stave","ref":"14255","opening_hours":"Mo-Fr 08:00-14:00; PH off","phone":"+381 14 271-110;+381 14 294-058","addr:pak":"254901"},"geometry":{"type":"Point","coordinates":[19.6931494336519,44.2597247357503]}},{"type":"Feature","properties":{"amenity":"post_office","name":"14105 Ваљево 5","name:sr":"14105 Ваљево 5","name:sr-Latn":"14105 Valjevo 5","ref":"14105","opening_hours":"Mo-Fr 08:00-19:00; Sa 08:00-14:00; PH off","phone":"+381 14 228-212","addr:pak":"251507"},"geometry":{"type":"Point","coordinates":[19.8986039993759,44.2695870951124]}},{"type":"Feature","properties":{"name:sr":"14103 Ваљево 3","opening_hours":"Mo-Fr 07:00-18:30; Sa 07:00-14:00; PH off","addr:housenumber":"14","name":"14103 Ваљево 3","amenity":"post_office","phone":"+381 14 222-484","ref":"14103","name:sr-Latn":"14103 Valjevo 3","addr:pak":"251014","addr:street":"Миливоја Радосављевића"},"geometry":{"type":"Point","coordinates":[19.8879955166973,44.2807863330002]}},{"type":"Feature","properties":{"name:sr":"14109 Ваљево 9","opening_hours":"Mo-Fr 07:00-14:00; PH off","addr:housenumber":"90","name":"14109 Ваљево 9","amenity":"post_office","phone":"+381 14 227-098","ref":"14109","name:sr-Latn":"14109 Valjevo 9","addr:pak":"251904","addr:street":"Кнеза Милоша"},"geometry":{"type":"Point","coordinates":[19.8746174429076,44.2721406144059]}}]}