{"type":"FeatureCollection","features":[{"type":"Feature","properties":{"name:sr":"15212 Дреновац","opening_hours":"Mo-Fr 08:00-14:00; PH off","addr:housenumber":"2","name":"15212 Дреновац","amenity":"post_office","phone":"+381 15 290-234","ref":"15212","name:sr-Latn":"15212 Drenovac","addr:pak":"274234","addr:street":"Војводе Степе"},"geometry":{"type":"Point","coordinates":[19.709899758689,44.8666807712433]}},{"type":"Feature","properties":{"name:sr":"22212 Бешеново","opening_hours":"Mo-Fr 07:00-10:30; PH off","addr:housenumber":"15","name":"22212 Бешеново","amenity":"post_office","phone":"+381 22 666-019","ref":"22212","name:sr-Latn":"22212 Bešenovo","addr:pak":"324605","addr:street":"Драгиње Никшић"},"geometry":{"type":"Point","coordinates":[19.7043542815081,45.0822609039415]}},{"type":"Feature","properties":{"name:sr":"22321 Љуково","opening_hours":"Mo-Fr 07:00-10:30; PH off","addr:housenumber":"88","name":"22321 Љуково","amenity":"post_office","phone":"+381 22 587-710","ref":"22321","name:sr-Latn":"22321 Ljukovo","addr:pak":"348182","addr:street":"Првог новембра"},"geometry":{"type":"Point","coordinates":[20.0257234070931,45.0254166836633]}},{"type":"Feature","properties":{"name:sr":"22400 Рума","opening_hours":"Mo-Fr 08:00-19:00; Sa 08:00-14:00; PH off","addr:housenumber":"155","name":"22400 Рума","amenity":"post_office","phone":"+381 22 600-686;+381 22 479-131","ref":"22400","name:sr-Latn":"22400 Ruma","addr:pak":"330228","addr:street":"ЈНА"},"geometry":{"type":"Point","coordinates":[19.8232226335375,45.007188900729]}},{"type":"Feature","properties":{"name:sr":"22404 Путинци","opening_hours":"Mo-Fr 08:00-14:00; PH off","addr:housenumber":"6","name":"22404 Путинци","amenity":"post_office","phone":"+381 22 441-011","ref":"22404","name:sr-Latn":"22404 Putinci","addr:pak":"332717","addr:street":"Иве Лоле Рибара"},"geometry":{"type":"Point","coordinates":[19.9715297576736,44.9928456342558]}},{"type":"Feature","properties":{"name:sr":"22405 Стејановци","opening_hours":"Mo-Fr 07:00-10:30; PH off","addr:housenumber":"17","name":"22405 Стејановци","amenity":"post_office","phone":"+381 22 454-411","ref":"22405","name:sr-Latn":"22405 Stejanovci","addr:pak":"333114","addr:street":"Фрушкогорска"},"geometry":{"type":"Point","coordinates":[19.7232138852857,45.057416507574]}},{"type":"Feature","properties":{"name:sr":"22410 Пећинци","opening_hours":"Mo-Fr 08:00-14:00; Sa 08:00-12:00; PH off","addr:housenumber":"8","name":"22410 Пећинци","amenity":"post_office","phone":"+381 22 600-710;+381 22 600-709","ref":"22410","name:sr-Latn":"22410 Pećinci","addr:pak":"337110","addr:street":"Слободана Бајића"},"geometry":{"type":"Point","coordinates":[19.9660267732184,44.9080121582755]}},{"type":"Feature","properties":{"name:sr":"22411 Краљевци","opening_hours":"Mo-Fr 07:00-10:30; PH off","addr:housenumber":"1А","name":"22411 Краљевци","amenity":"post_office","phone":"+381 22 449-211","ref":"22411","name:sr-Latn":"22411 Kraljevci","addr:pak":"333226","addr:street":"Вељкова"},"geometry":{"type":"Point","coordinates":[19.884025134448,44.9760866310736]}},{"type":"Feature","properties":{"name:sr":"22412 Добринци","opening_hours":"Mo-Fr 07:00-10:30; PH off","addr:housenumber":"1","name":"22412 Добринци","amenity":"post_office","phone":"+381 22 453-011","ref":"22412","name:sr-Latn":"22412 Dobrinci","addr:pak":"333315","addr:street":"Борковачка"},"geometry":{"type":"Point","coordinates":[19.9282068633323,44.9535529823866]}},{"type":"Feature","properties":{"name:sr":"22413 Сремски Михаљевци","opening_hours":"Mo,We,Fr 07:00-10:30; PH off","addr:housenumber":"2","name":"22413 Сремски Михаљевци","amenity":"post_office","phone":"+381 22 2439-012","ref":"22413","name:sr-Latn":"22413 Sremski Mihaljevci","addr:pak":"337810","addr:street":"Прховачка"},"geometry":{"type":"Point","coordinates":[20.0383813267609,44.8592245310365]}},{"type":"Feature","properties":{"name:sr":"22414 Суботиште","opening_hours":"Tu,Th 07:00-10:30; PH off","addr:housenumber":"28","name":"22414 Суботиште","amenity":"post_office","phone":"+381 22 482-511","ref":"22414","name:sr-Latn":"22414 Subotište","addr:pak":"338307","addr:street":"Каменова"},"geometry":{"type":"Point","coordinates":[19.9608454088732,44.8447354910519]}},{"type":"Feature","properties":{"name:sr":"22415 Брестач","opening_hours":"Mo,We,Fr 07:00-10:30; PH off","addr:housenumber":"2","name":"22415 Брестач","amenity":"post_office","phone":"+381 22 489-511","ref":"22415","name:sr-Latn":"22415 Brestač","addr:pak":"338480","addr:street":"Јагодина"},"geometry":{"type":"Point","coordinates":[19.9044245411664,44.8608511334738]}},{"type":"Feature","properties":{"name:sr":"22421 Буђановци","opening_hours":"Mo-Fr 07:00-10:30; PH off","addr:housenumber":"1","name":"22421 Буђановци","amenity":"post_office","phone":"+381 22 447-011","ref":"22421","name:sr-Latn":"22421 Buđanovci","addr:pak":"333810","addr:street":"Партизанска"},"geometry":{"type":"Point","coordinates":[19.8651787187771,44.8934299923827]}},{"type":"Feature","properties":{"name:sr":"22422 Никинци","opening_hours":"Mo-Fr 07:00-14:00; PH off","addr:housenumber":"1","name":"22422 Никинци","amenity":"post_office","phone":"+381 22 443-010","ref":"22422","name:sr-Latn":"22422 Nikinci","addr:pak":"333931","addr:street":"Железничка"},"geometry":{"type":"Point","coordinates":[19.8239083526695,44.8516069586293]}},{"type":"Feature","properties":{"name:sr":"22425 Шашинци","opening_hours":"Mo-Fr 07:00-14:00; PH off","addr:housenumber":"17","name":"22425 Шашинци","amenity":"post_office","phone":"+381 22 684012","ref":"22425","name:sr-Latn":"22425 Šašinci","addr:pak":"325105","addr:street":"Змај Јовина"},"geometry":{"type":"Point","coordinates":[19.7423571262446,44.9672634129658]}},{"type":"Feature","properties":{"name:sr":"22426 Јарак","opening_hours":"Mo-Fr 07:00-14:00; PH off","addr:housenumber":"2","name":"22426 Јарак","amenity":"post_office","phone":"+381 22 662-115","ref":"22426","name:sr-Latn":"22426 Jarak","addr:pak":"325213","addr:street":"Школска"},"geometry":{"type":"Point","coordinates":[19.7531254211473,44.9182270882102]}},{"type":"Feature","properties":{"name:sr":"22427 Хртковци","opening_hours":"Mo-Fr 08:00-15:00; PH off","addr:housenumber":"1","name":"22427 Хртковци","amenity":"post_office","phone":"+381 22 455-106","ref":"22427","name:sr-Latn":"22427 Hrtkovci","addr:pak":"334689","addr:street":"Школска"},"geometry":{"type":"Point","coordinates":[19.7706613871094,44.8788282170259]}},{"type":"Feature","properties":{"name:sr":"22428 Попинци","opening_hours":"Mo-Fr 07:00-10:30; PH off","addr:housenumber":"4","name":"22428 Попинци","amenity":"post_office","phone":"+381 22 484-512","ref":"22428","name:sr-Latn":"22428 Popinci","addr:pak":"338107","addr:street":"ЈНА"},"geometry":{"type":"Point","coordinates":[20.0059900676309,44.9279898938793]}},{"type":"Feature","properties":{"name:sr":"22429 Вогањ","opening_hours":"Mo-Fr 07:00-10:30; PH off","addr:housenumber":"3","name":"22429 Вогањ","amenity":"post_office","phone":"+381 22 448-011","ref":"22429","name:sr-Latn":"22429 Voganj","addr:pak":"332305","addr:street":"Румска"},"geometry":{"type":"Point","coordinates":[19.7564357173722,45.0042010868827]}},{"type":"Feature","properties":{"name:sr":"22440 Сибач","opening_hours":"Mo-Fr 07:00-11:00; PH off","addr:housenumber":"2","name":"22440 Сибач","amenity":"post_office","phone":"+381 22 499-155","ref":"22440","name:sr-Latn":"22440 Sibač","addr:pak":"337640","addr:street":"Маршала Тита"},"geometry":{"type":"Point","coordinates":[19.9327391168936,44.9055556414962]}},{"type":"Feature","properties":{"name:sr":"22442 Прхово","opening_hours":"Tu,Th 07:00-10:30; PH off","addr:housenumber":"63","name":"22442 Прхово","amenity":"post_office","phone":"+381 22 2492-012","ref":"22442","name:sr-Latn":"22442 Prhovo","addr:pak":"337746","addr:street":"Сремска"},"geometry":{"type":"Point","coordinates":[20.0028090171907,44.8827738261399]}},{"type":"Feature","properties":{"name:sr":"22402 Рума","opening_hours":"Mo-Fr 07:30-14:30; PH off","addr:housenumber":"ББ","name":"22402 Рума","amenity":"post_office","phone":"+381 22 473-110","ref":"22402","name:sr-Latn":"22402 Ruma","addr:pak":"330644","addr:street":"Вашариште"},"geometry":{"type":"Point","coordinates":[19.8378157695191,45.0069398615575]}},{"type":"Feature","properties":{"name:sr":"22401 Рума","opening_hours":"Mo-Fr 07:00-14:00; PH off","addr:housenumber":"Л41","name":"22401 Рума","amenity":"post_office","phone":"+381 22 472-510","ref":"22401","name:sr-Latn":"22401 Ruma","addr:pak":"331004","addr:street":"Иве Лоле Рибара"},"geometry":{"type":"Point","coordinates":[19.820977776474,45.0132610664957]}},{"type":"Feature","properties":{"name:sr":"22403 Рума","opening_hours":"Mo-Fr 07:00-14:00; PH off","addr:housenumber":"1","name":"22403 Рума","amenity":"post_office","phone":"+381 22 471-410","ref":"22403","name:sr-Latn":"22403 Ruma","addr:pak":"330784","addr:street":"Саве Шумановића"},"geometry":{"type":"Point","coordinates":[19.7983659846386,45.0072647679523]}},{"type":"Feature","properties":{"name:sr":"22434 Жарковац","opening_hours":"Mo-Fr 07:00-10:30; PH off","addr:housenumber":"2","name":"22434 Жарковац","amenity":"post_office","phone":"+381 22 2444-200","ref":"22434","name:sr-Latn":"22434 Žarkovac","addr:pak":"332872","addr:street":"Доситеја Обрадовића"},"geometry":{"type":"Point","coordinates":[19.9351575393194,45.0038828265584]}},{"type":"Feature","properties":{"amenity":"post_office","name":"22433 Доњи Петровци","name:sr":"22433 Доњи Петровци","name:sr-Latn":"22433 Donji Petrovci","ref":"22433","opening_hours":"Mo-Fr 07:00-11:00; PH off","phone":"+381 22 441-911","addr:pak":"332658"},"geometry":{"type":"Point","coordinates":[19.9740185334112,44.9662619249178]}}]}