{"type":"FeatureCollection","features":[{"type":"Feature","properties":{"name:sr":"34202 Грошница","opening_hours":"Mo-Fr 08:00-14:00; PH off","addr:housenumber":"226","name":"34202 Грошница","amenity":"post_office","phone":"+381 34 394-511","ref":"34202","name:sr-Latn":"34202 Grošnica","addr:pak":"556001","addr:street":"Октобарских жртава"},"geometry":{"type":"Point","coordinates":[20.8742746273838,43.9546225416136]}},{"type":"Feature","properties":{"name:sr":"34230 Гружа","opening_hours":"Mo-Fr 08:00-17:00; Sa 07:00-12:00; PH off","addr:housenumber":"ББ","name":"34230 Гружа","amenity":"post_office","phone":"+381 34 6515-323","ref":"34230","name:sr-Latn":"34230 Gruža","addr:pak":"558401","addr:street":"Гружа"},"geometry":{"type":"Point","coordinates":[20.7709646124125,43.8977830776864]}},{"type":"Feature","properties":{"amenity":"post_office","name":"34232 Губеревац","name:sr":"34232 Губеревац","name:sr-Latn":"34232 Guberevac","ref":"34232","opening_hours":"Mo-Fr 07:00-11:00; PH off","phone":"+381 34 518-388","addr:pak":"558501"},"geometry":{"type":"Point","coordinates":[20.7745254994649,43.8360424507442]}}]}