{"type":"FeatureCollection","features":[{"type":"Feature","properties":{"name:sr":"34113 Крагујевац","opening_hours":"Mo-Fr 08:00-18:00; Sa 08:00-14:00; PH off","addr:housenumber":"149","name":"34113 Крагујевац","amenity":"post_office","phone":"+381 34 329-007","ref":"34113","name:sr-Latn":"34113 Kragujevac","addr:pak":"555801","addr:street":"Краљевачког батаљона"},"geometry":{"type":"Point","coordinates":[20.8700310427461,43.9932967532746]}},{"type":"Feature","properties":{"amenity":"post_office","name":"34204 Дивостин","name:sr":"34204 Дивостин","name:sr-Latn":"34204 Divostin","ref":"34204","opening_hours":"Mo-Fr 08:00-14:00; PH off","phone":"+381 34 368-361","addr:pak":"556320"},"geometry":{"type":"Point","coordinates":[20.8299312602996,44.0311803149324]}},{"type":"Feature","properties":{"name:sr":"34216 Крагујевац","opening_hours":"Mo-Fr 08:00-15:00; PH off","addr:housenumber":"41","name":"34216 Крагујевац","amenity":"post_office","phone":"+381 34 358-628","ref":"34216","name:sr-Latn":"34216 Kragujevac","addr:pak":"556691","addr:street":"Горњомилановачка"},"geometry":{"type":"Point","coordinates":[20.8618531403019,44.0253838104751]}},{"type":"Feature","properties":{"amenity":"post_office","name":"34231 Драгобраћа","name:sr":"34231 Драгобраћа","name:sr-Latn":"34231 Dragobraća","ref":"34231","opening_hours":"Mo-Fr 08:00-14:00; PH off","phone":"+381 34 582-111","addr:pak":"557310"},"geometry":{"type":"Point","coordinates":[20.8207567904056,43.9757377859603]}},{"type":"Feature","properties":{"amenity":"post_office","name":"34244 Забојница","name:sr":"34244 Забојница","name:sr-Latn":"34244 Zabojnica","ref":"34244","opening_hours":"Mo-Fr 07:00-11:00; PH off","phone":"+381 34 513-113","addr:pak":"558801"},"geometry":{"type":"Point","coordinates":[20.7475143856301,43.9954138505231]}},{"type":"Feature","properties":{"amenity":"post_office","name":"34321 Десимировац","name:sr":"34321 Десимировац","name:sr-Latn":"34321 Desimirovac","ref":"34321","opening_hours":"Mo-Fr 07:30-13:30; PH off","phone":"+381 34 561-151","addr:pak":"557523"},"geometry":{"type":"Point","coordinates":[20.877352031457,44.0720337917661]}},{"type":"Feature","properties":{"name:sr":"34105 Крагујевац","opening_hours":"Mo-Fr 08:00-19:00; Sa 08:00-14:00; PH off","addr:housenumber":"158А","name":"34105 Крагујевац","amenity":"post_office","phone":"+381 34 312-640","ref":"34105","name:sr-Latn":"34105 Kragujevac","addr:pak":"552401","addr:street":"Кнеза Михаила"},"geometry":{"type":"Point","coordinates":[20.8992122301339,44.0043167274997]}},{"type":"Feature","properties":{"name:sr":"34106 Крагујевац","opening_hours":"Mo-Fr 08:00-14:00; PH off","addr:housenumber":"86","name":"34106 Крагујевац","amenity":"post_office","phone":"+381 34 328-520","ref":"34106","name:sr-Latn":"34106 Kragujevac","addr:pak":"554048","addr:street":"Партизанских курира"},"geometry":{"type":"Point","coordinates":[20.8910372099721,43.983164462328]}},{"type":"Feature","properties":{"name:sr":"34109 Крагујевац","opening_hours":"Mo-Su,PH 10:00-20:00","addr:housenumber":"56","name":"34109 Крагујевац","amenity":"post_office","phone":"+381 34 6100-462","ref":"34109","name:sr-Latn":"34109 Kragujevac","addr:pak":"551109","addr:street":"Булевар Краљице Марије"},"geometry":{"type":"Point","coordinates":[20.8970041780325,44.0089169996089]}},{"type":"Feature","properties":{"name:sr":"34111 Крагујевац","opening_hours":"Mo-Fr 08:00-19:00; Sa 07:00-14:00; PH off","addr:housenumber":"17","name":"34111 Крагујевац","amenity":"post_office","phone":"+381 34 504-082","ref":"34111","name:sr-Latn":"34111 Kragujevac","addr:pak":"550601","addr:street":"Краља Милана четвртог"},"geometry":{"type":"Point","coordinates":[20.9053700491933,44.0209563072253]}},{"type":"Feature","properties":{"name:sr":"34107 Крагујевац","opening_hours":"Mo-Fr 07:00-17:00; Sa 07:00-15:00; PH off","addr:housenumber":"6","name":"34107 Крагујевац","amenity":"post_office","phone":"+381 34 366-170","ref":"34107","name:sr-Latn":"34107 Kragujevac","addr:pak":"550502","addr:street":"Карађорђева"},"geometry":{"type":"Point","coordinates":[20.9137950781371,44.0130733990595]}},{"type":"Feature","properties":{"name:sr":"34110 Крагујевац","opening_hours":"Mo-Fr 08:00-19:00; Sa,Su 07:00-13:00; PH off","addr:housenumber":"3","name":"34110 Крагујевац","amenity":"post_office","phone":"+381 34 504-080;+381 34 342-645;+381 34 371-622","ref":"34110","name:sr-Latn":"34110 Kragujevac","addr:pak":"552701","addr:street":"Атинска"},"geometry":{"type":"Point","coordinates":[20.911669643833,44.0275843470546]}},{"type":"Feature","properties":{"name:sr":"34114 Крагујевац","opening_hours":"Mo-Fr 07:00-18:00; Sa 08:00-14:00; PH off","addr:housenumber":"103","name":"34114 Крагујевац","amenity":"post_office","phone":"+381 34 356-720","ref":"34114","name:sr-Latn":"34114 Kragujevac","addr:pak":"555222","addr:street":"Краља Александра првог Карађорђевића"},"geometry":{"type":"Point","coordinates":[20.9066446843705,44.0154260765842]}},{"type":"Feature","properties":{"amenity":"post_office","name":"34219 Шљивовац","name:sr":"34219 Шљивовац","name:sr-Latn":"34219 Šljivovac","ref":"34219","opening_hours":"Mo-Fr 08:00-12:00; PH off","phone":"+381 34 578-352","addr:pak":"556912"},"geometry":{"type":"Point","coordinates":[20.8544696095216,44.0416697340656]}}]}