{"type":"FeatureCollection","features":[{"type":"Feature","properties":{"name:sr":"34000 Крагујевац","opening_hours":"Mo-Sa 07:00-19:00; PH off","addr:housenumber":"30","name":"34000 Крагујевац","amenity":"post_office","phone":"+381 34 504-013;+381 34 504-016;+381 34 504-064","ref":"34000","name:sr-Latn":"34000 Kragujevac","addr:pak":"552607","addr:street":"Краља Петра првог"},"geometry":{"type":"Point","coordinates":[20.9184010552754,44.0100988315893]}},{"type":"Feature","properties":{"name:sr":"34203 Илићево","opening_hours":"Mo-Fr 07:00-15:00; PH off","addr:housenumber":"75Б","name":"34203 Илићево","amenity":"post_office","phone":"+381 34 350-208","ref":"34203","name:sr-Latn":"34203 Ilićevo","addr:pak":"554801","addr:street":"Деветнаестог октобра"},"geometry":{"type":"Point","coordinates":[20.9472077874352,44.0235272149834]}},{"type":"Feature","properties":{"amenity":"post_office","name":"34209 Маршић","name:sr":"34209 Маршић","name:sr-Latn":"34209 Maršić","ref":"34209","opening_hours":"Mo-Fr 07:00-14:00; PH off","phone":"+381 34 6350-271","addr:pak":"556201"},"geometry":{"type":"Point","coordinates":[20.9733388883834,44.029507503615]}},{"type":"Feature","properties":{"amenity":"post_office","name":"34211 Јовановац","name:sr":"34211 Јовановац","name:sr-Latn":"34211 Jovanovac","ref":"34211","opening_hours":"Mo-Fr 07:00-14:00; PH off","phone":"+381 34 587-410","addr:pak":"555601"},"geometry":{"type":"Point","coordinates":[20.9513078369251,44.0493594711846]}},{"type":"Feature","properties":{"amenity":"post_office","name":"34224 Корман","name:sr":"34224 Корман","name:sr-Latn":"34224 Korman","ref":"34224","opening_hours":"Mo-Fr 07:00-12:00; PH off","phone":"+381 34 584-111","addr:pak":"557111"},"geometry":{"type":"Point","coordinates":[20.9911783847321,44.0497928199831]}},{"type":"Feature","properties":{"name:sr":"34103 Крагујевац","opening_hours":"Mo-Fr 07:00-18:00; Sa 07:00-15:00; PH off","addr:housenumber":"1А","name":"34103 Крагујевац","amenity":"post_office","phone":"+381 34 504-039","ref":"34103","name:sr-Latn":"34103 Kragujevac","addr:pak":"551418","addr:street":"Шумадијска"},"geometry":{"type":"Point","coordinates":[20.9286967374597,44.0106607981959]}},{"type":"Feature","properties":{"name:sr":"34115 Крагујевац","opening_hours":"Mo-Fr 08:00-18:00; Sa 07:00-14:00; PH off","addr:housenumber":"1","name":"34115 Крагујевац","amenity":"post_office","phone":"+381 34 330-633","ref":"34115","name:sr-Latn":"34115 Kragujevac","addr:pak":"552201","addr:street":"Радомира Бугарског Бате"},"geometry":{"type":"Point","coordinates":[20.9290646266635,44.0022632935451]}},{"type":"Feature","properties":{"name:sr":"34104 Крагујевац","opening_hours":"Mo-Fr 08:00-17:00; PH off","addr:housenumber":"53","name":"34104 Крагујевац","amenity":"post_office","phone":"+381 34 362-485","ref":"34104","name:sr-Latn":"34104 Kragujevac","addr:pak":"551529","addr:street":"Косовска"},"geometry":{"type":"Point","coordinates":[20.9207480691589,44.0048942364648]}},{"type":"Feature","properties":{"name:sr":"34117 Крагујевац","opening_hours":"Mo-Sa 08:00-20:00; Su 08:00-15:00; PH 08:00-20:00","addr:housenumber":"48А","name":"34117 Крагујевац","amenity":"post_office","phone":"+381 34 377-701","ref":"34117","name:sr-Latn":"34117 Kragujevac","addr:pak":"551911","addr:street":"Саве Ковачевића"},"geometry":{"type":"Point","coordinates":[20.9222961828597,44.0144792551905]}}]}