{"type":"FeatureCollection","features":[{"type":"Feature","properties":{"name:sr":"32210 Мрчајевци","opening_hours":"Mo-Fr 08:00-15:00; Sa 08:00-11:00; PH off","addr:housenumber":"ББ","name":"32210 Мрчајевци","amenity":"post_office","phone":"+381 32 304-088;+381 32 800-301","ref":"32210","name:sr-Latn":"32210 Mrčajevci","addr:pak":"525202","addr:street":"Милоја Стојановића"},"geometry":{"type":"Point","coordinates":[20.5281320199016,43.8672947634132]}},{"type":"Feature","properties":{"amenity":"post_office","name":"32212 Прељина","name:sr":"32212 Прељина","name:sr-Latn":"32212 Preljina","ref":"32212","opening_hours":"Mo-Fr 08:00-14:30; PH off","phone":"+381 32 304-086;+381 32 381-994","addr:pak":"525304"},"geometry":{"type":"Point","coordinates":[20.4065204261575,43.9145144697837]}},{"type":"Feature","properties":{"amenity":"post_office","name":"32215 Горња Трепча","name:sr":"32215 Горња Трепча","name:sr-Latn":"32215 Gornja Trepča","ref":"32215","opening_hours":"Mo-Fr 08:00-14:30; PH off","phone":"+381 32 822-380","addr:pak":"525502"},"geometry":{"type":"Point","coordinates":[20.4851469177247,43.9521670020573]}},{"type":"Feature","properties":{"amenity":"post_office","name":"32223 Заблаће","name:sr":"32223 Заблаће","name:sr-Latn":"32223 Zablaće","ref":"32223","opening_hours":"Mo-Fr 08:00-14:30; PH off","phone":"+381 32 5813-001","addr:pak":"525701"},"geometry":{"type":"Point","coordinates":[20.4371464095871,43.840622003211]}},{"type":"Feature","properties":{"amenity":"post_office","name":"32214 Прислоница","name:sr":"32214 Прислоница","name:sr-Latn":"32214 Prislonica","ref":"32214","opening_hours":"Mo-Fr 08:00-11:00; PH off","phone":"+381 32 5485-441","addr:pak":"525358"},"geometry":{"type":"Point","coordinates":[20.4333151152542,43.9506998427434]}}]}