{"type":"FeatureCollection","features":[{"type":"Feature","properties":{"name:sr":"32300 Горњи Милановац 1","opening_hours":"Mo-Fr 08:00-19:00; Sa 08:00-16:00; PH off","addr:housenumber":"1","name":"32300 Горњи Милановац 1","amenity":"post_office","phone":"+381 32 304-079;+381 32 304-067;+381 32 716-058","ref":"32300","name:sr-Latn":"32300 Gornji Milanovac 1","addr:pak":"526124","addr:street":"Хероја Дражевића"},"geometry":{"type":"Point","coordinates":[20.4607893366961,44.0223012341571]}},{"type":"Feature","properties":{"name:sr":"32303 Брђани","opening_hours":"Mo-Fr 07:00-13:00; PH off","addr:housenumber":"ББ","name":"32303 Брђани","amenity":"post_office","phone":"+381 32 738-666","ref":"32303","name:sr-Latn":"32303 Brđani","addr:pak":"528101","addr:street":"Брђани"},"geometry":{"type":"Point","coordinates":[20.4002729598634,43.9669754693987]}},{"type":"Feature","properties":{"name:sr":"32301 Горњи Милановац 2","opening_hours":"Mo-Fr 08:00-15:00; PH off","addr:housenumber":"2","name":"32301 Горњи Милановац 2","amenity":"post_office","phone":"+381 32 716-960","ref":"32301","name:sr-Latn":"32301 Gornji Milanovac 2","addr:pak":"526439","addr:street":"Цара Душана"},"geometry":{"type":"Point","coordinates":[20.4672470392823,44.0309120394497]}}]}