{"type":"FeatureCollection","features":[{"type":"Feature","properties":{"amenity":"post_office","name":"32213 Бресница","name:sr":"32213 Бресница","name:sr-Latn":"32213 Bresnica","ref":"32213","opening_hours":"Mo-Fr 08:00-14:00; PH off","phone":"+381 32 804-120","addr:pak":"525401"},"geometry":{"type":"Point","coordinates":[20.5905599085925,43.873723379269]}},{"type":"Feature","properties":{"amenity":"post_office","name":"34240 Кнић","name:sr":"34240 Кнић","name:sr-Latn":"34240 Knić","ref":"34240","opening_hours":"Mo-Fr 08:00-16:00; Sa 07:00-14:00; PH off","phone":"+381 34 504-085;+381 34 510-125","addr:pak":"558002"},"geometry":{"type":"Point","coordinates":[20.7199578756112,43.9262965931834]}},{"type":"Feature","properties":{"amenity":"post_office","name":"34242 Бумбарево Брдо","name:sr":"34242 Бумбарево Брдо","name:sr-Latn":"34242 Bumbarevo Brdo","ref":"34242","opening_hours":"Mo-Fr 07:00-11:00; PH off","phone":"+381 34 6337820","addr:pak":"558606"},"geometry":{"type":"Point","coordinates":[20.63045298736,43.9024848944868]}}]}