{"type":"FeatureCollection","features":[{"type":"Feature","properties":{"amenity":"post_office","name":"32315 Враћевшница","name:sr":"32315 Враћевшница","name:sr-Latn":"32315 Vraćevšnica","ref":"32315","opening_hours":"Mo-Fr 07:30-14:00; PH off","phone":"+381 32 5733-300","addr:pak":"529001"},"geometry":{"type":"Point","coordinates":[20.6195923457192,44.0405740178217]}},{"type":"Feature","properties":{"name:sr":"34205 Баре","opening_hours":"Mo-Fr 08:00-14:00; PH off","addr:housenumber":"ББ","name":"34205 Баре","amenity":"post_office","phone":"+381 34 6796-222","ref":"34205","name:sr-Latn":"34205 Bare","addr:pak":"558347","addr:street":"Баре"},"geometry":{"type":"Point","coordinates":[20.6875834915507,44.0460558148206]}},{"type":"Feature","properties":{"amenity":"post_office","name":"34243 Топоница","name:sr":"34243 Топоница","name:sr-Latn":"34243 Toponica","ref":"34243","opening_hours":"Mo-Fr 08:00-14:00; PH off","phone":"+381 34 519-139","addr:pak":"558707"},"geometry":{"type":"Point","coordinates":[20.6759113253147,43.9700565581067]}}]}