{"type":"FeatureCollection","features":[{"type":"Feature","properties":{"name:sr":"32102 Чачак 2","opening_hours":"Mo-Fr 08:00-19:00; Sa 08:00-15:00; PH off","addr:housenumber":"1","name":"32102 Чачак 2","amenity":"post_office","phone":"+381 32 304-072;+381 32 304-063;+381 32 304-071","ref":"32102","name:sr-Latn":"32102 Čačak 2","addr:pak":"521701","addr:street":"Железничка Колонија"},"geometry":{"type":"Point","coordinates":[20.3555892939209,43.8897002411162]}},{"type":"Feature","properties":{"name:sr":"32103 Чачак 3","opening_hours":"Mo-Fr 08:00-19:00; Sa 08:00-14:00; PH off","addr:housenumber":"1","name":"32103 Чачак 3","amenity":"post_office","phone":"+381 32 304-073;+381 32 304-018;+381 32 304-080","ref":"32103","name:sr-Latn":"32103 Čačak 3","addr:pak":"523713","addr:street":"Хероја Ђуракића"},"geometry":{"type":"Point","coordinates":[20.3548332962281,43.9031366403365]}},{"type":"Feature","properties":{"name:sr":"32104 Чачак 4","opening_hours":"Mo-Fr 08:00-15:30; Sa 08:00-12:00; PH off","addr:housenumber":"21","name":"32104 Чачак 4","amenity":"post_office","phone":"+381 32 304-075;+381 32 366-399","ref":"32104","name:sr-Latn":"32104 Čačak 4","addr:pak":"524435","addr:street":"Радних Бригада"},"geometry":{"type":"Point","coordinates":[20.3687787070061,43.8678808786867]}},{"type":"Feature","properties":{"amenity":"post_office","name":"32205 Трбушани","name:sr":"32205 Трбушани","name:sr-Latn":"32205 Trbušani","ref":"32205","opening_hours":"Mo-Fr 08:00-14:30; PH off","phone":"+381 32 304-087;+381 32 391-100","addr:pak":"525041"},"geometry":{"type":"Point","coordinates":[20.3243324803627,43.9252048212902]}},{"type":"Feature","properties":{"name:sr":"32101 Чачак 1","opening_hours":"Mo-Fr 07:00-20:00; Sa 08:00-16:00; PH off","addr:housenumber":"28","name":"32101 Чачак 1","amenity":"post_office","phone":"+381 32 304-013;+381 32 304-015","ref":"32101","name:sr-Latn":"32101 Čačak 1","addr:pak":"522008","addr:street":"Градско Шеталиште"},"geometry":{"type":"Point","coordinates":[20.3478128655271,43.8913819407698]}},{"type":"Feature","properties":{"name:sr":"32105 Чачак 5","opening_hours":"Mo-Fr 08:00-15:00; PH off","addr:housenumber":"5","name":"32105 Чачак 5","amenity":"post_office","phone":"+381 32 304-083;+381 32 372-502","ref":"32105","name:sr-Latn":"32105 Čačak 5","addr:pak":"521340","addr:street":"Чачански Партизански Одред"},"geometry":{"type":"Point","coordinates":[20.3558892351255,43.880809642687]}},{"type":"Feature","properties":{"name:sr":"32106 Чачак 6","opening_hours":"Mo-Fr 09:00-16:00; PH off","addr:housenumber":"228","name":"32106 Чачак 6","amenity":"post_office","phone":"+381 32 372-597","ref":"32106","name:sr-Latn":"32106 Čačak 6","addr:pak":"521873","addr:street":"Војводе Степе"},"geometry":{"type":"Point","coordinates":[20.3299288789392,43.8896692555138]}}]}