{"type":"FeatureCollection","features":[{"type":"Feature","properties":{"name:sr":"31102 Ужице","opening_hours":"Mo-Fr 08:00-19:00; Sa 08:00-15:00; PH off","addr:housenumber":"9","name":"31102 Ужице","amenity":"post_office","phone":"+381 31 590-813;+381 31 590-815","ref":"31102","name:sr-Latn":"31102 Užice","addr:pak":"500806","addr:street":"Михаила Пупина"},"geometry":{"type":"Point","coordinates":[19.8389432213514,43.8539172496604]}},{"type":"Feature","properties":{"name:sr":"31103 Ужице","opening_hours":"Mo-Fr 08:00-19:00; Sa 08:00-15:00; PH off","addr:housenumber":"13","name":"31103 Ужице","amenity":"post_office","phone":"+381 31 590-853;+381 31 562-305","ref":"31103","name:sr-Latn":"31103 Užice","addr:pak":"501709","addr:street":"Милоша Обреновића"},"geometry":{"type":"Point","coordinates":[19.8564560495908,43.8522172469811]}},{"type":"Feature","properties":{"name:sr":"31104 Ужице","opening_hours":"Mo-Fr 08:00-15:00; Sa 08:00-12:00; PH off","addr:housenumber":"70","name":"31104 Ужице","amenity":"post_office","phone":"+381 31 552-065","ref":"31104","name:sr-Latn":"31104 Užice","addr:pak":"502464","addr:street":"Херцеговачка"},"geometry":{"type":"Point","coordinates":[19.826467876127,43.8580920549489]}},{"type":"Feature","properties":{"name:sr":"31106 Ужице","opening_hours":"Mo-Fr 08:00-15:00; Sa 08:00-12:00; PH off","addr:housenumber":"12","name":"31106 Ужице","amenity":"post_office","phone":"+381 31 541-455","ref":"31106","name:sr-Latn":"31106 Užice","addr:pak":"502836","addr:street":"Пора"},"geometry":{"type":"Point","coordinates":[19.8312989728606,43.8610127595612]}},{"type":"Feature","properties":{"name:sr":"31000 Ужице","opening_hours":"Mo-Fr 07:00-19:00; Sa 07:00-15:00; PH off","addr:housenumber":"2","name":"31000 Ужице","amenity":"post_office","phone":"+381 31 590-874;+381 31 590-892","ref":"31000","name:sr-Latn":"31000 Užice","addr:pak":"500924","addr:street":"Обилићева"},"geometry":{"type":"Point","coordinates":[19.8421135737163,43.8550136223922]}},{"type":"Feature","properties":{"name:sr":"31107 Ужице","opening_hours":"Mo-Fr 08:00-19:00; Sa 08:00-15:00; PH off","addr:housenumber":"74","name":"31107 Ужице","amenity":"post_office","phone":"+381 31 511-883","ref":"31107","name:sr-Latn":"31107 Užice","addr:pak":"500226","addr:street":"Немањина"},"geometry":{"type":"Point","coordinates":[19.8494450261123,43.8595756983215]}},{"type":"Feature","properties":{"name:sr":"31108 Ужице","opening_hours":"Mo-Fr 08:00-16:00; PH off","addr:housenumber":"3","name":"31108 Ужице","amenity":"post_office","phone":"+381 31 ;+381 31 522-964","ref":"31108","name:sr-Latn":"31108 Užice","addr:pak":"501403","addr:street":"Ужичке Републике"},"geometry":{"type":"Point","coordinates":[19.8344013908816,43.856712469649]}},{"type":"Feature","properties":{"name:sr":"31109 Ужице","opening_hours":"Mo-Fr 08:00-19:00; Sa 08:00-15:00; PH off","addr:housenumber":"1","name":"31109 Ужице","amenity":"post_office","phone":"+381 31 590-851;+381 31 590-870","ref":"31109","name:sr-Latn":"31109 Užice","addr:pak":"501058","addr:street":"Југ Богданова"},"geometry":{"type":"Point","coordinates":[19.8418159899876,43.857888026212]}}]}