{"type":"FeatureCollection","features":[{"type":"Feature","properties":{"amenity":"post_office","name":"31254 Костојевићи","name:sr":"31254 Костојевићи","name:sr-Latn":"31254 Kostojevići","ref":"31254","opening_hours":"Mo-Fr 08:00-14:00; PH off","phone":"+381 31 3860-055","addr:pak":"507501"},"geometry":{"type":"Point","coordinates":[19.6879885807141,44.0069884696082]}},{"type":"Feature","properties":{"amenity":"post_office","name":"31262 Сеча Река","name:sr":"31262 Сеча Река","name:sr-Latn":"31262 Seča Reka","ref":"31262","opening_hours":"Mo,We,Fr 08:00-14:00; PH off","phone":"+381 31 3887-812","addr:pak":"508701"},"geometry":{"type":"Point","coordinates":[19.8381974276107,44.0105557404386]}},{"type":"Feature","properties":{"amenity":"post_office","name":"31263 Варда","name:sr":"31263 Варда","name:sr-Latn":"31263 Varda","ref":"31263","opening_hours":"Mo,We,Fr 08:00-11:00; PH off","phone":"+381 31 888-311","addr:pak":"508649"},"geometry":{"type":"Point","coordinates":[19.7500155213562,44.0453558475501]}}]}