{"type":"FeatureCollection","features":[{"type":"Feature","properties":{"name:sr":"21211 Кисач","opening_hours":"Mo-Fr 08:00-14:00; Sa 09:00-13:00; PH off","addr:housenumber":"95","name":"21211 Кисач","amenity":"post_office","phone":"+381 21 4807-281","ref":"21211","name:sr-Latn":"21211 Kisač","addr:pak":"409013","addr:street":"Др Јанка Гомбара"},"geometry":{"type":"Point","coordinates":[19.7268089878113,45.3469129555362]}},{"type":"Feature","properties":{"name:sr":"21212 Степановићево","opening_hours":"Mo-Fr 08:00-14:00; PH off","addr:housenumber":"12","name":"21212 Степановићево","amenity":"post_office","phone":"+381 21 717-002","ref":"21212","name:sr-Latn":"21212 Stepanovićevo","addr:pak":"409107","addr:street":"Војводе путника"},"geometry":{"type":"Point","coordinates":[19.6996049078533,45.4138320085363]}},{"type":"Feature","properties":{"name:sr":"21213 Змајево","opening_hours":"Mo-Fr 08:00-14:00; Sa 09:00-13:00; PH off","addr:housenumber":"59","name":"21213 Змајево","amenity":"post_office","phone":"+381 21 4807-282","ref":"21213","name:sr-Latn":"21213 Zmajevo","addr:pak":"398511","addr:street":"Ивана Милутиновића"},"geometry":{"type":"Point","coordinates":[19.6890890569887,45.4523861543473]}},{"type":"Feature","properties":{"name:sr":"21214 Сириг","opening_hours":"Mo-Fr 08:00-14:00; PH off","addr:housenumber":"32","name":"21214 Сириг","amenity":"post_office","phone":"+381 21 849-002","ref":"21214","name:sr-Latn":"21214 Sirig","addr:pak":"385925","addr:street":"Новосадска"},"geometry":{"type":"Point","coordinates":[19.8123210120667,45.4390139816844]}},{"type":"Feature","properties":{"name:sr":"21215 Турија","opening_hours":"Mo-Fr 08:00-14:00; PH off","addr:housenumber":"17","name":"21215 Турија","amenity":"post_office","phone":"+381 21 2237-002","ref":"21215","name:sr-Latn":"21215 Turija","addr:pak":"384801","addr:street":"Светог Саве"},"geometry":{"type":"Point","coordinates":[19.8588577906308,45.539868057541]}},{"type":"Feature","properties":{"name:sr":"21216 Надаљ","opening_hours":"Mo-Fr 08:00-14:00; PH off","addr:housenumber":"31","name":"21216 Надаљ","amenity":"post_office","phone":"+381 21 2239-002","ref":"21216","name:sr-Latn":"21216 Nadalj","addr:pak":"384764","addr:street":"Светог Саве"},"geometry":{"type":"Point","coordinates":[19.9221660268617,45.5079289165579]}},{"type":"Feature","properties":{"name:sr":"21217 Бачко Градиште","opening_hours":"Mo-Fr 08:00-14:00; Sa 09:00-13:00; PH off","addr:housenumber":"9","name":"21217 Бачко Градиште","amenity":"post_office","phone":"+381 21 4807-283","ref":"21217","name:sr-Latn":"21217 Bačko Gradište","addr:pak":"381101","addr:street":"Лењинова"},"geometry":{"type":"Point","coordinates":[20.0212234613157,45.5322478832244]}},{"type":"Feature","properties":{"name:sr":"21233 Ченеј","opening_hours":"Mo-Fr 08:00-14:00; PH off","addr:housenumber":"289","name":"21233 Ченеј","amenity":"post_office","phone":"+381 21 714-002","ref":"21233","name:sr-Latn":"21233 Čenej","addr:pak":"408810","addr:street":"Вука Караџића"},"geometry":{"type":"Point","coordinates":[19.8008715005288,45.3693776011337]}},{"type":"Feature","properties":{"name:sr":"21234 Бачки Јарак","opening_hours":"Mo-Fr 08:00-14:00; PH off","addr:housenumber":"70","name":"21234 Бачки Јарак","amenity":"post_office","phone":"+381 21 4807-284","ref":"21234","name:sr-Latn":"21234 Bački Jarak","addr:pak":"385835","addr:street":"Новосадска"},"geometry":{"type":"Point","coordinates":[19.8725457339245,45.3710588089777]}},{"type":"Feature","properties":{"name:sr":"21235 Темерин","opening_hours":"Mo-Fr 08:00-19:00; Sa 08:00-13:00; PH off","addr:housenumber":"326","name":"21235 Темерин","amenity":"post_office","phone":"+381 21 4807-082;+381 21 843-358","ref":"21235","name:sr-Latn":"21235 Temerin","addr:pak":"385601","addr:street":"Новосадска"},"geometry":{"type":"Point","coordinates":[19.8887884508572,45.4078393072343]}},{"type":"Feature","properties":{"name:sr":"21237 Госпођинци","opening_hours":"Mo-Fr 08:00-14:00; Sa 09:00-13:00; PH off","addr:housenumber":"18","name":"21237 Госпођинци","amenity":"post_office","phone":"+381 21 4807-285","ref":"21237","name:sr-Latn":"21237 Gospođinci","addr:pak":"382501","addr:street":"Краља Петра првог"},"geometry":{"type":"Point","coordinates":[19.9885307966113,45.4054248717897]}},{"type":"Feature","properties":{"name:sr":"21465 Бачко Добро Поље","opening_hours":"Mo-Fr 08:00-14:00; Sa 09:00-13:00; PH off","addr:housenumber":"93","name":"21465 Бачко Добро Поље","amenity":"post_office","phone":"+381 21 724-002","ref":"21465","name:sr-Latn":"21465 Bačko Dobro Polje","addr:pak":"398301","addr:street":"Маршала Тита"},"geometry":{"type":"Point","coordinates":[19.6898644057772,45.4988494325497]}},{"type":"Feature","properties":{"name:sr":"21480 Србобран","opening_hours":"Mo-Fr 08:00-14:00; Sa 08:00-13:00; PH off","addr:housenumber":"14","name":"21480 Србобран","amenity":"post_office","phone":"+381 21 4807-087;+381 21 735-830","ref":"21480","name:sr-Latn":"21480 Srbobran","addr:pak":"384401","addr:street":"Карађорђева"},"geometry":{"type":"Point","coordinates":[19.7894503246534,45.5467231244255]}},{"type":"Feature","properties":{"name:sr":"21236 Темерин","opening_hours":"Mo-Fr 07:00-13:30; PH off","addr:housenumber":"142","name":"21236 Темерин","amenity":"post_office","phone":"+381 21 845-002","ref":"21236","name:sr-Latn":"21236 Temerin","addr:pak":"385460","addr:street":"Новосадска"},"geometry":{"type":"Point","coordinates":[19.8808539091877,45.3904727807328]}},{"type":"Feature","properties":{"name:sr":"21232 Темерин","opening_hours":"Mo-Sa 07:30-19:30; Su 07:00-13:00; PH 07:30-19:30","addr:housenumber":"533","name":"21232 Темерин","amenity":"post_office","phone":"+381 21 840-242","ref":"21232","name:sr-Latn":"21232 Temerin","addr:pak":"385136","addr:street":"Новосадска"},"geometry":{"type":"Point","coordinates":[19.8932937116548,45.4216593880999]}}]}