{"type":"FeatureCollection","features":[{"type":"Feature","properties":{"name:sr":"11030 Београд 8","opening_hours":"Mo-Fr 07:30-19:30; Sa 07:30-15:30; PH off","addr:housenumber":"2А","name":"11030 Београд 8","amenity":"post_office","phone":"+381 11 3535-013;+381 11 3535-015","ref":"11030","name:sr-Latn":"11030 Beograd 8","addr:pak":"173130","addr:street":"Шумадијски трг"},"geometry":{"type":"Point","coordinates":[20.4151433683945,44.7827265265307]}},{"type":"Feature","properties":{"name:sr":"11159 Београд 111","opening_hours":"Mo-Fr 10:00-16:30; Sa 10:00-14:00; PH off","addr:housenumber":"63Б","name":"11159 Београд 111","amenity":"post_office","phone":"+381 11 3544-517;+381 11 3544-129","ref":"11159","name:sr-Latn":"11159 Beograd 111","addr:pak":"173310","addr:street":"Радничка"},"geometry":{"type":"Point","coordinates":[20.4085576756187,44.7779763972979]}},{"type":"Feature","properties":{"name:sr":"11177 Београд 53","opening_hours":"Mo-Fr 08:00-19:00; Sa 08:00-14:00; PH off","addr:housenumber":"81","name":"11177 Београд 53","amenity":"post_office","phone":"+381 11 3714-096;+381 11 3175-839","ref":"11177","name:sr-Latn":"11177 Beograd 53","addr:pak":"191072","addr:street":"Јурија Гагарина"},"geometry":{"type":"Point","coordinates":[20.3945494173037,44.8012205902357]}},{"type":"Feature","properties":{"name:sr":"11187 Београд 62","opening_hours":"Mo-Fr 08:00-19:00; Sa 08:00-14:00; PH off","addr:housenumber":"34","name":"11187 Београд 62","amenity":"post_office","phone":"+381 11 3718-011;+381 11 6132-148","ref":"11187","name:sr-Latn":"11187 Beograd 62","addr:pak":"190709","addr:street":"Милутина Миланковића"},"geometry":{"type":"Point","coordinates":[20.4245112089574,44.8072134267602]}},{"type":"Feature","properties":{"name:sr":"11074 Београд 132","opening_hours":"Mo-Fr 08:00-19:00; Sa 08:00-15:00; PH off","addr:housenumber":"11Г","name":"11074 Београд 132","amenity":"post_office","phone":"+381 11 3718-018","ref":"11074","name:sr-Latn":"11074 Beograd 132","addr:pak":"191623","addr:street":"Булевар Црвене армије"},"geometry":{"type":"Point","coordinates":[20.4042426798325,44.806745723633]}}]}