{"type":"FeatureCollection","features":[{"type":"Feature","properties":{"name:sr":"11070 Београд 27","opening_hours":"Mo-Fr 08:00-19:00; Sa 08:00-15:00; PH off","addr:housenumber":"2","name":"11070 Београд 27","amenity":"post_office","phone":"+381 11 3714-058;+381 11 3714-060","ref":"11070","name:sr-Latn":"11070 Beograd 27","addr:pak":"190146","addr:street":"Генерала Жданова"},"geometry":{"type":"Point","coordinates":[20.4049380056179,44.8301974524782]}},{"type":"Feature","properties":{"name:sr":"11075 Београд 97","opening_hours":"Mo-Fr 09:00-16:00; PH off","addr:housenumber":"5","name":"11075 Београд 97","amenity":"post_office","phone":"+381 11 3714-091;+381 11 2670-869","ref":"11075","name:sr-Latn":"11075 Beograd 97","addr:pak":"190432","addr:street":"Палмира Тољатија"},"geometry":{"type":"Point","coordinates":[20.4127011921051,44.8289316440638]}},{"type":"Feature","properties":{"name:sr":"11150 Београд 105","opening_hours":"Mo-Fr 08:00-19:00; Sa 08:00-14:00; PH off","addr:housenumber":"16А","name":"11150 Београд 105","amenity":"post_office","phone":"+381 11 3714-092;+381 11 2140-488","ref":"11150","name:sr-Latn":"11150 Beograd 105","addr:pak":"190541","addr:street":"Булевар уметности"},"geometry":{"type":"Point","coordinates":[20.4125264211857,44.817777807466]}},{"type":"Feature","properties":{"name:sr":"11172 Београд 30","opening_hours":"Mo-Fr 09:00-16:00; PH off","addr:housenumber":"13","name":"11172 Београд 30","amenity":"post_office","phone":"+381 11 2604-897;+381 11 2606-443","ref":"11172","name:sr-Latn":"11172 Beograd 30","addr:pak":"190279","addr:street":"Париске Комуне"},"geometry":{"type":"Point","coordinates":[20.4090962206536,44.8252857471854]}},{"type":"Feature","properties":{"name:sr":"11176 Београд 52","opening_hours":"Mo-Fr 08:00-19:00; Sa 07:30-13:30; PH off","addr:housenumber":"42","name":"11176 Београд 52","amenity":"post_office","phone":"+381 11 3718-010;+381 11 6139-998","ref":"11176","name:sr-Latn":"11176 Beograd 52","addr:pak":"190358","addr:street":"Народних хероја"},"geometry":{"type":"Point","coordinates":[20.4024494320464,44.8197683181824]}},{"type":"Feature","properties":{"name:sr":"11198 Београд 123","opening_hours":"Mo-Sa 08:00-19:00; Su 09:00-16:00; PH 08:00-19:00","addr:housenumber":"4","name":"11198 Београд 123","amenity":"post_office","phone":"+381 11 3718-003;+381 11 3116-847","ref":"11198","name:sr-Latn":"11198 Beograd 123","addr:pak":"190540","addr:street":"Булевар уметности"},"geometry":{"type":"Point","coordinates":[20.4143292755961,44.8205121675985]}},{"type":"Feature","properties":{"name:sr":"11173 Београд 42","opening_hours":"Mo-Fr 08:00-19:00; Sa 07:30-13:30; PH off","addr:housenumber":"44","name":"11173 Београд 42","amenity":"post_office","phone":"+381 11 3714-094;+381 11 2144-028","ref":"11173","name:sr-Latn":"11173 Beograd 42","addr:pak":"190675","addr:street":"Булевар Зорана Ђинђића"},"geometry":{"type":"Point","coordinates":[20.4276139398261,44.8144344149931]}},{"type":"Feature","properties":{"name:sr":"11278 Београд 86","opening_hours":"Mo-Fr 08:00-15:00; PH off","addr:housenumber":"49","name":"11278 Београд 86","amenity":"post_office","phone":"+381 11 2601-762","ref":"11278","name:sr-Latn":"11278 Beograd 86","addr:pak":"200753","addr:street":"Марије Бурсаћ"},"geometry":{"type":"Point","coordinates":[20.3925024293864,44.8333225225032]}},{"type":"Feature","properties":{"name:sr":"11179 Београд 55","opening_hours":"Mo-Fr 08:00-15:00; PH off","addr:housenumber":"80","name":"11179 Београд 55","amenity":"post_office","phone":"+381 11 2132-889","ref":"11179","name:sr-Latn":"11179 Beograd 55","addr:pak":"190913","addr:street":"Булевар Зорана Ђинђића"},"geometry":{"type":"Point","coordinates":[20.4186039748965,44.8183972992678]}},{"type":"Feature","properties":{"name:sr":"11189 Београд 71","opening_hours":"Mo-Fr 09:00-16:00; PH off","addr:housenumber":"155","name":"11189 Београд 71","amenity":"post_office","phone":"+381 11 2692-096;+381 11 2604-230","ref":"11189","name:sr-Latn":"11189 Beograd 71","addr:pak":"190281","addr:street":"Тошин бунар"},"geometry":{"type":"Point","coordinates":[20.3990382169002,44.8236901138582]}},{"type":"Feature","properties":{"name:sr":"11252 Београд 93","opening_hours":"Mo-Fr 08:00-15:00; PH off","addr:housenumber":"10З","name":"11252 Београд 93","amenity":"post_office","phone":"+381 11 3718-004","ref":"11252","name:sr-Latn":"11252 Beograd 93","addr:pak":"190803","addr:street":"Булевар Михаила Пупина"},"geometry":{"type":"Point","coordinates":[20.4204176237816,44.8232110869135]}},{"type":"Feature","properties":{"name:sr":"11072 Београд 126","opening_hours":"Mo-Fr 08:00-15:30; PH off","addr:housenumber":"16","name":"11072 Београд 126","amenity":"post_office","phone":"+381 11 2018-352","ref":"11072","name:sr-Latn":"11072 Beograd 126","addr:pak":"190403","addr:street":"Булевар Михаила Пупина"},"geometry":{"type":"Point","coordinates":[20.4114873353529,44.8320374889264]}},{"type":"Feature","properties":{"name:sr":"11081 Београд 128","opening_hours":"Mo-Fr 08:00-15:30; PH off","addr:housenumber":"42А","name":"11081 Београд 128","amenity":"post_office","phone":"+381 11 3376-015","ref":"11081","name:sr-Latn":"11081 Beograd 128","addr:pak":"190457","addr:street":"Булевар Николе Тесле"},"geometry":{"type":"Point","coordinates":[20.419393882292,44.8272073542263]}}]}