{"type":"FeatureCollection","features":[{"type":"Feature","properties":{"name:sr":"11108 Београд 12","opening_hours":"Mo-Fr 08:00-19:00; Sa 08:00-15:00; PH off","addr:housenumber":"68А","name":"11108 Београд 12","amenity":"post_office","phone":"+381 11 3210-098;+381 11 2764-899;+381 11 3210-126","ref":"11108","name:sr-Latn":"11108 Beograd 12","addr:pak":"137102","addr:street":"Булевар Деспота Стефана"},"geometry":{"type":"Point","coordinates":[20.4757470102858,44.8166590235298]}},{"type":"Feature","properties":{"name:sr":"11101 Београд 1","opening_hours":"Mo-Su,PH 07:00-19:00","addr:housenumber":"2","name":"11101 Београд 1","amenity":"post_office","phone":"+381 11 3210-069;+381 11 3210-070;+381 11 3210-073","ref":"11101","name:sr-Latn":"11101 Beograd 1","addr:pak":"135403","addr:street":"Таковска"},"geometry":{"type":"Point","coordinates":[20.4671641134815,44.8106331929204]}},{"type":"Feature","properties":{"amenity":"post_office","name":"11102 Београд 3","name:sr":"11102 Београд 3","name:sr-Latn":"11102 Beograd 3","ref":"11102","opening_hours":"Mo-Fr 08:00-19:00; Sa 08:00-15:00; PH off","phone":"+381 11 3210-013;+381 11 3210-015;+381 11 3210-018","addr:pak":"104325"},"geometry":{"type":"Point","coordinates":[20.4584880352628,44.8178305204711]}},{"type":"Feature","properties":{"name:sr":"11103 Београд 4","opening_hours":"Mo-Fr 08:00-19:00; Sa 08:00-15:00; PH off","addr:housenumber":"16","name":"11103 Београд 4","amenity":"post_office","phone":"+381 11 3210-131;+381 11 3210-132","ref":"11103","name:sr-Latn":"11103 Beograd 4","addr:pak":"106806","addr:street":"Нушићева"},"geometry":{"type":"Point","coordinates":[20.46369834027,44.8148087945654]}},{"type":"Feature","properties":{"name:sr":"11106 Београд 10","opening_hours":"Mo-Fr 08:00-19:00; Sa 08:00-15:00; PH off","addr:housenumber":"14","name":"11106 Београд 10","amenity":"post_office","phone":"+381 11 3210-115;+381 11 2637-078","ref":"11106","name:sr-Latn":"11106 Beograd 10","addr:pak":"104801","addr:street":"Цара Душана"},"geometry":{"type":"Point","coordinates":[20.4573059230402,44.82463679203]}},{"type":"Feature","properties":{"name:sr":"11158 Београд 118","opening_hours":"Mo-Fr 08:00-19:00; Sa 08:00-15:00; PH off","addr:housenumber":"35","name":"11158 Београд 118","amenity":"post_office","phone":"+381 11 2920-723;+381 11 2920-724;+381 11 3210-170","ref":"11158","name:sr-Latn":"11158 Beograd 118","addr:pak":"105311","addr:street":"Дубровачка"},"geometry":{"type":"Point","coordinates":[20.4623304029324,44.8278668772601]}},{"type":"Feature","properties":{"name:sr":"11166 Београд 112","opening_hours":"Mo-Fr 08:30-16:00; PH off","addr:housenumber":"14","name":"11166 Београд 112","amenity":"post_office","phone":"+381 11 3347-882","ref":"11166","name:sr-Latn":"11166 Beograd 112","addr:pak":"103404","addr:street":"Краља Милана"},"geometry":{"type":"Point","coordinates":[20.4625171897184,44.8097151669428]}},{"type":"Feature","properties":{"name:sr":"11112 Београд 19","opening_hours":"Mo-Fr 08:00-19:00; Sa 08:00-15:00; PH off","addr:housenumber":"7","name":"11112 Београд 19","amenity":"post_office","phone":"+381 11 3282-823;+381 11 3210-152","ref":"11112","name:sr-Latn":"11112 Beograd 19","addr:pak":"112604","addr:street":"Ломина"},"geometry":{"type":"Point","coordinates":[20.4571942450508,44.8125079011356]}},{"type":"Feature","properties":{"name:sr":"11123 Београд 44","opening_hours":"Mo-Fr 08:00-15:00; PH off","addr:housenumber":"4","name":"11123 Београд 44","amenity":"post_office","phone":"+381 11 3210-119;+381 11 7618-661","ref":"11123","name:sr-Latn":"11123 Beograd 44","addr:pak":"111406","addr:street":"Железничка"},"geometry":{"type":"Point","coordinates":[20.454080150378,44.81006649599]}},{"type":"Feature","properties":{"name:sr":"11125 Београд 51","opening_hours":"Mo-Fr 09:00-16:00; PH off","addr:housenumber":"10","name":"11125 Београд 51","amenity":"post_office","phone":"+381 11 3223-451","ref":"11125","name:sr-Latn":"11125 Beograd 51","addr:pak":"106102","addr:street":"Булевар Деспота Стефана"},"geometry":{"type":"Point","coordinates":[20.4627491512207,44.8164556289441]}},{"type":"Feature","properties":{"name:sr":"11061 Београд 139","opening_hours":"Mo-Fr 00:00-07:00,19:00-24:00; Sa 00:00-07:00; Sa 19:00-24:00; Su 00:00-07:00; Su 19:00-24:00; PH 00:00-07:00; PH 19:00-24:00","addr:housenumber":"2","name":"11061 Београд 139","amenity":"post_office","phone":"+381 11 3210-068","ref":"11061","name:sr-Latn":"11061 Beograd 139","addr:pak":"135403","addr:street":"Таковска"},"geometry":{"type":"Point","coordinates":[20.4669677943973,44.8105897583635]}}]}