{"type":"FeatureCollection","features":[{"type":"Feature","properties":{"name:sr":"11120 Београд 35","opening_hours":"Mo-Fr 08:00-19:00; Sa 08:00-15:00; PH off","addr:housenumber":"3","name":"11120 Београд 35","amenity":"post_office","phone":"+381 11 3210-108;+381 11 3210-107;+381 11 3210-110","ref":"11120","name:sr-Latn":"11120 Beograd 35","addr:pak":"135311","addr:street":"Краљице Марије"},"geometry":{"type":"Point","coordinates":[20.476154843843,44.8090454974015]}},{"type":"Feature","properties":{"name:sr":"11104 Београд 5","opening_hours":"Mo-Fr 08:00-19:00; Sa 08:00-15:00; PH off","addr:housenumber":"8","name":"11104 Београд 5","amenity":"post_office","phone":"+381 11 3210-114;+381 11 2436-626","ref":"11104","name:sr-Latn":"11104 Beograd 5","addr:pak":"125704","addr:street":"Београдска"},"geometry":{"type":"Point","coordinates":[20.4672813434091,44.803364192568]}},{"type":"Feature","properties":{"name:sr":"11110 Београд 15","opening_hours":"Mo-Fr 08:00-19:00; Sa 08:00-15:00; PH off","addr:housenumber":"2","name":"11110 Београд 15","amenity":"post_office","phone":"+381 11 2437-313;+381 11 3210-118","ref":"11110","name:sr-Latn":"11110 Beograd 15","addr:pak":"126617","addr:street":"Максима Горког"},"geometry":{"type":"Point","coordinates":[20.4764081793682,44.7988948262592]}},{"type":"Feature","properties":{"name:sr":"11111 Београд 17","opening_hours":"Mo-Fr 08:00-19:00; Sa 08:00-15:00; PH off","addr:housenumber":"84","name":"11111 Београд 17","amenity":"post_office","phone":"+381 11 3210-090;+381 11 3210-091;+381 11 3210-095","ref":"11111","name:sr-Latn":"11111 Beograd 17","addr:pak":"125707","addr:street":"Булевар краља Александра"},"geometry":{"type":"Point","coordinates":[20.4743731792504,44.8053538004041]}},{"type":"Feature","properties":{"name:sr":"11124 Београд 45","opening_hours":"Mo-Fr 08:00-15:00; PH off","addr:housenumber":"22","name":"11124 Београд 45","amenity":"post_office","phone":"+381 11 3616-570;+381 11 3631-670","ref":"11124","name:sr-Latn":"11124 Beograd 45","addr:pak":"113306","addr:street":"Немањина"},"geometry":{"type":"Point","coordinates":[20.4620516656718,44.8042736285736]}},{"type":"Feature","properties":{"name:sr":"11167 Београд 113","opening_hours":"Mo-Fr 08:00-19:00; Sa 08:00-15:00; PH off","addr:housenumber":"4","name":"11167 Београд 113","amenity":"post_office","phone":"+381 11 3640-105;+381 11 3210-127","ref":"11167","name:sr-Latn":"11167 Beograd 113","addr:pak":"112812","addr:street":"Масарикова"},"geometry":{"type":"Point","coordinates":[20.4636661853431,44.8067341875748]}},{"type":"Feature","properties":{"name:sr":"11168 Београд 114","opening_hours":"Mo-Fr 07:30-14:30; PH off","addr:housenumber":"24","name":"11168 Београд 114","amenity":"post_office","phone":"+381 11 3068-177","ref":"11168","name:sr-Latn":"11168 Beograd 114","addr:pak":"112804","addr:street":"Кнеза Милоша"},"geometry":{"type":"Point","coordinates":[20.4596401296624,44.8055650678434]}},{"type":"Feature","properties":{"name:sr":"11129 Београд 102","opening_hours":"Mo-Fr 07:00-14:00; PH off","addr:housenumber":"26","name":"11129 Београд 102","amenity":"post_office","phone":"+381 11 3610-511","ref":"11129","name:sr-Latn":"11129 Beograd 102","addr:pak":"112109","addr:street":"Вишеградска"},"geometry":{"type":"Point","coordinates":[20.4570591099065,44.7985816214389]}},{"type":"Feature","properties":{"name:sr":"11350 Београд 120","opening_hours":"Mo-Fr 08:00-19:00; Sa 08:00-14:00; PH off","addr:housenumber":"14","name":"11350 Београд 120","amenity":"post_office","phone":"+381 11 3641-29;+381 11 3641-291","ref":"11350","name:sr-Latn":"11350 Beograd 120","addr:pak":"111515","addr:street":"Катићева"},"geometry":{"type":"Point","coordinates":[20.4645548502686,44.800237933718]}}]}