{"type":"FeatureCollection","features":[{"type":"Feature","properties":{"name:sr":"24312 Гунарош","opening_hours":"Mo-Fr 07:00-11:00; PH off","addr:housenumber":"83","name":"24312 Гунарош","amenity":"post_office","phone":"+381 24 4726-033","ref":"24312","name:sr-Latn":"24312 Gunaroš","addr:pak":"441404","addr:street":"Маршала Тита"},"geometry":{"type":"Point","coordinates":[19.8259113848965,45.7614041201177]}},{"type":"Feature","properties":{"name:sr":"24313 Победа","opening_hours":"Mo-Fr 07:00-10:00; PH off","addr:housenumber":"4","name":"24313 Победа","amenity":"post_office","phone":"+381 24 727-127","ref":"24313","name:sr-Latn":"24313 Pobeda","addr:pak":"440820","addr:street":"Моше Пијаде"},"geometry":{"type":"Point","coordinates":[19.8275202257311,45.7929217696527]}},{"type":"Feature","properties":{"name:sr":"24322 Ловћенац","opening_hours":"Mo-Fr 07:00-14:00; Sa 07:00-12:00; PH off","addr:housenumber":"37","name":"24322 Ловћенац","amenity":"post_office","phone":"+381 24 735-050","ref":"24322","name:sr-Latn":"24322 Lovćenac","addr:pak":"443502","addr:street":"Маршала Тита"},"geometry":{"type":"Point","coordinates":[19.6921236367857,45.6814612268922]}},{"type":"Feature","properties":{"name:sr":"24323 Фекетић","opening_hours":"Mo-Fr 07:00-14:00; Sa 07:00-12:00; PH off","addr:housenumber":"31","name":"24323 Фекетић","amenity":"post_office","phone":"+381 24 738-050","ref":"24323","name:sr-Latn":"24323 Feketić","addr:pak":"443801","addr:street":"Маршала Тита"},"geometry":{"type":"Point","coordinates":[19.699465900868,45.6665253183294]}},{"type":"Feature","properties":{"name:sr":"24437 Утрине","opening_hours":"Mo-Fr 07:00-11:00; PH off","addr:housenumber":"11","name":"24437 Утрине","amenity":"post_office","phone":"+381 24 866-000","ref":"24437","name:sr-Latn":"24437 Utrine","addr:pak":"448934","addr:street":"Кошут Лајоша"},"geometry":{"type":"Point","coordinates":[19.9044797066461,45.8109675416595]}},{"type":"Feature","properties":{"name:sr":"21225 Радичевић","opening_hours":"Mo-Fr 08:00-11:00; PH off","addr:housenumber":"2","name":"21225 Радичевић","amenity":"post_office","phone":"+381 21 809-002","ref":"21225","name:sr-Latn":"21225 Radičević","addr:pak":"381820","addr:street":"Вељка Влаховића"},"geometry":{"type":"Point","coordinates":[19.9216456439129,45.5860455619802]}},{"type":"Feature","properties":{"name:sr":"21227 Милешево","opening_hours":"Mo-Fr 08:00-11:00; PH off","addr:housenumber":"3","name":"21227 Милешево","amenity":"post_office","phone":"+381 21 808-450","ref":"21227","name:sr-Latn":"21227 Mileševo","addr:pak":"381721","addr:street":"Дванаестог октобра"},"geometry":{"type":"Point","coordinates":[19.8242804086383,45.7321738829531]}}]}