{"type":"FeatureCollection","features":[{"type":"Feature","properties":{"name:sr":"11109 Београд 14","opening_hours":"Mo-Fr 08:00-19:00; Sa 08:00-15:00; PH off","addr:housenumber":"121","name":"11109 Београд 14","amenity":"post_office","phone":"+381 11 3210-117;+381 11 6402-025","ref":"11109","name:sr-Latn":"11109 Beograd 14","addr:pak":"145303","addr:street":"Булевар краља Александра"},"geometry":{"type":"Point","coordinates":[20.4858098843794,44.8013122249206]}},{"type":"Feature","properties":{"name:sr":"11127 Београд 57","opening_hours":"Mo-Fr 08:00-19:00; Sa 08:00-15:00; PH off","addr:housenumber":"221","name":"11127 Београд 57","amenity":"post_office","phone":"+381 11 3210-101;+381 11 3210-102","ref":"11127","name:sr-Latn":"11127 Beograd 57","addr:pak":"145218","addr:street":"Булевар краља Александра"},"geometry":{"type":"Point","coordinates":[20.4980092743229,44.7961608113459]}},{"type":"Feature","properties":{"name:sr":"11116 Београд 28","opening_hours":"Mo-Fr 10:00-17:00; PH off","addr:housenumber":"29","name":"11116 Београд 28","amenity":"post_office","phone":"+381 11 2752-133;+381 11 2752-044","ref":"11116","name:sr-Latn":"11116 Beograd 28","addr:pak":"135902","addr:street":"Рузвелтова"},"geometry":{"type":"Point","coordinates":[20.4817373816682,44.8079797437927]}},{"type":"Feature","properties":{"name:sr":"11119 Београд 34","opening_hours":"Mo-Fr 08:00-19:00; Sa 08:00-15:00; PH off","addr:housenumber":"66","name":"11119 Београд 34","amenity":"post_office","phone":"+381 11 3210-151;+381 11 2835-000","ref":"11119","name:sr-Latn":"11119 Beograd 34","addr:pak":"123111","addr:street":"Милешевска"},"geometry":{"type":"Point","coordinates":[20.4864640707279,44.7974555685315]}},{"type":"Feature","properties":{"name:sr":"11051 Београд 130","opening_hours":"Mo-Fr 08:00-15:00; PH off","addr:housenumber":"19","name":"11051 Београд 130","amenity":"post_office","phone":"+381 11 7293-928","ref":"11051","name:sr-Latn":"11051 Beograd 130","addr:pak":"141503","addr:street":"Вељка Дугошевића"},"geometry":{"type":"Point","coordinates":[20.4962064842608,44.8059747770754]}},{"type":"Feature","properties":{"name:sr":"11056 Београд 154","opening_hours":"Mo-Fr 08:00-19:00; Sa 08:00-14:00; PH off","addr:housenumber":"148","name":"11056 Београд 154","amenity":"post_office","phone":"+381 11 2771-038","ref":"11056","name:sr-Latn":"11056 Beograd 154","addr:pak":"146110","addr:street":"Димитрија Туцовића"},"geometry":{"type":"Point","coordinates":[20.498458889305,44.7998961450063]}}]}