{"type":"FeatureCollection","features":[{"type":"Feature","properties":{"name:sr":"11050 Београд 22","opening_hours":"Mo-Fr 08:00-19:00; Sa 08:00-15:00; PH off","addr:housenumber":"182","name":"11050 Београд 22","amenity":"post_office","phone":"+381 11 3210-086;+381 11 3210-077;+381 11 3210-079","ref":"11050","name:sr-Latn":"11050 Beograd 22","addr:pak":"147002","addr:street":"Устаничка"},"geometry":{"type":"Point","coordinates":[20.5063809180286,44.7824083673852]}},{"type":"Feature","properties":{"name:sr":"11114 Београд 21","opening_hours":"Mo-Fr 08:00-19:00; Sa 08:00-13:00; PH off","addr:housenumber":"60","name":"11114 Београд 21","amenity":"post_office","phone":"+381 11 3471-219;+381 11 3470-499","ref":"11114","name:sr-Latn":"11114 Beograd 21","addr:pak":"147809","addr:street":"Учитељска"},"geometry":{"type":"Point","coordinates":[20.5069704405717,44.7862612273177]}},{"type":"Feature","properties":{"name:sr":"11052 Београд 141","opening_hours":"Mo-Fr 08:00-19:00; Sa 08:00-14:00; PH off","addr:housenumber":"516Ж","name":"11052 Београд 141","amenity":"post_office","phone":"+381 11 3476-609;+381 11 3210-148","ref":"11052","name:sr-Latn":"11052 Beograd 141","addr:pak":"148401","addr:street":"Булевар краља Александра"},"geometry":{"type":"Point","coordinates":[20.5197221524746,44.7840118951178]}},{"type":"Feature","properties":{"name:sr":"11055 Београд 153","opening_hours":"Mo-Sa 08:00-19:00; PH off","addr:housenumber":"86","name":"11055 Београд 153","amenity":"post_office","phone":"+381 11 7702-246","ref":"11055","name:sr-Latn":"11055 Beograd 153","addr:pak":"148021","addr:street":"Живка Давидовића"},"geometry":{"type":"Point","coordinates":[20.5146311590862,44.7863372527784]}}]}