{"type":"FeatureCollection","features":[{"type":"Feature","properties":{"name:sr":"11137 Београд 73","opening_hours":"Mo-Fr 08:00-19:00; Sa 08:00-14:00; PH off","addr:housenumber":"28","name":"11137 Београд 73","amenity":"post_office","phone":"+381 11 2332-404;+381 11 2330352","ref":"11137","name:sr-Latn":"11137 Beograd 73","addr:pak":"180514","addr:street":"Патријарха Јоаникија"},"geometry":{"type":"Point","coordinates":[20.4239905278586,44.7390312881245]}},{"type":"Feature","properties":{"amenity":"post_office","name":"11165 Београд 76","name:sr":"11165 Београд 76","name:sr-Latn":"11165 Beograd 76","ref":"11165","opening_hours":"Mo-Fr 10:00-16:30; Sa 10:00-14:00; PH off","phone":"+381 11 2330-594;+381 11 2333-799","addr:pak":"180319"},"geometry":{"type":"Point","coordinates":[20.4222741176458,44.7312536307007]}},{"type":"Feature","properties":{"name:sr":"11192 Београд 50","opening_hours":"Mo-Fr 08:00-19:00; Sa 08:00-14:00; PH off","addr:housenumber":"28","name":"11192 Београд 50","amenity":"post_office","phone":"+381 11 2336-539;+381 11 2333-944","ref":"11192","name:sr-Latn":"11192 Beograd 50","addr:pak":"180213","addr:street":"Милорада Драшковића"},"geometry":{"type":"Point","coordinates":[20.4243803965867,44.7202186801542]}},{"type":"Feature","properties":{"name:sr":"11091 Београд 109","opening_hours":"Mo-Fr 09:00-15:00; Sa 09:00-13:00; PH off","addr:housenumber":"291","name":"11091 Београд 109","amenity":"post_office","phone":"+381 11 6340-780","ref":"11091","name:sr-Latn":"11091 Beograd 109","addr:pak":"180407","addr:street":"Седамнаестог октобра"},"geometry":{"type":"Point","coordinates":[20.4280095102094,44.731412329963]}},{"type":"Feature","properties":{"name:sr":"11140 Београд 117","opening_hours":"Mo-Fr 10:00-16:00; Sa 10:00-14:00; PH off","addr:housenumber":"63","name":"11140 Београд 117","amenity":"post_office","phone":"+381 11 3565-439","ref":"11140","name:sr-Latn":"11140 Beograd 117","addr:pak":"180512","addr:street":"Кнеза Вишеслава"},"geometry":{"type":"Point","coordinates":[20.4272925684309,44.7443448219479]}}]}