{"type":"FeatureCollection","features":[{"type":"Feature","properties":{"name:sr":"11147 Београд 104","opening_hours":"Mo-Fr 08:00-18:30; Sa 08:00-13:30; PH off","addr:housenumber":"1Г","name":"11147 Београд 104","amenity":"post_office","phone":"+381 11 3535-135;+381 11 6392-290","ref":"11147","name:sr-Latn":"11147 Beograd 104","addr:pak":"170344","addr:street":"Момчила Чедића"},"geometry":{"type":"Point","coordinates":[20.4064231462671,44.7519351406078]}},{"type":"Feature","properties":{"name:sr":"11135 Београд 68","opening_hours":"Mo-Fr 10:00-16:30; Sa 10:00-14:00; PH off","addr:housenumber":"141","name":"11135 Београд 68","amenity":"post_office","phone":"+381 11 3535160;+381 11 2397-958","ref":"11135","name:sr-Latn":"11135 Beograd 68","addr:pak":"173823","addr:street":"Ратка Митровића"},"geometry":{"type":"Point","coordinates":[20.424310726064,44.75515935324]}},{"type":"Feature","properties":{"name:sr":"11139 Београд 103","opening_hours":"Mo-Fr 08:30-15:30; PH off","addr:housenumber":"102","name":"11139 Београд 103","amenity":"post_office","phone":"+381 11 3545-491;+381 11 3545-591","ref":"11139","name:sr-Latn":"11139 Beograd 103","addr:pak":"173622","addr:street":"Благоја Паровића"},"geometry":{"type":"Point","coordinates":[20.419436695109,44.7679936755984]}},{"type":"Feature","properties":{"name:sr":"11131 Београд 40","opening_hours":"Mo-Fr 08:00-19:00; Sa 08:00-14:00; PH off","addr:housenumber":"146","name":"11131 Београд 40","amenity":"post_office","phone":"+381 11 3535-133;+381 11 3554-924","ref":"11131","name:sr-Latn":"11131 Beograd 40","addr:pak":"173208","addr:street":"Пожешка"},"geometry":{"type":"Point","coordinates":[20.4133662287262,44.7749712535325]}},{"type":"Feature","properties":{"name:sr":"11136 Београд 69","opening_hours":"Mo-Fr 08:00-19:00; Sa 08:00-14:00; PH off","addr:housenumber":"58","name":"11136 Београд 69","amenity":"post_office","phone":"+381 11 2508-861;+381 11 2509768","ref":"11136","name:sr-Latn":"11136 Beograd 69","addr:pak":"173934","addr:street":"Космајска"},"geometry":{"type":"Point","coordinates":[20.4164003451111,44.7499381224193]}},{"type":"Feature","properties":{"name:sr":"11138 Београд 101","opening_hours":"Mo-Fr 09:00-16:00; PH off","addr:housenumber":"4","name":"11138 Београд 101","amenity":"post_office","phone":"+381 11 7555-064;+381 11 7555-094","ref":"11138","name:sr-Latn":"11138 Beograd 101","addr:pak":"173251","addr:street":"Стевана Бракуса"},"geometry":{"type":"Point","coordinates":[20.4111414530759,44.773110169885]}},{"type":"Feature","properties":{"name:sr":"11032 Београд 133","opening_hours":"Mo-Fr 08:00-19:00; Sa 08:00-14:00; PH off","addr:housenumber":"2Б","name":"11032 Београд 133","amenity":"post_office","phone":"+381 11 3535-154;+381 11 2461-732","ref":"11032","name:sr-Latn":"11032 Beograd 133","addr:pak":"173762","addr:street":"Аце Јоксимовића"},"geometry":{"type":"Point","coordinates":[20.4158698919345,44.7589054181698]}}]}