{"type":"FeatureCollection","features":[{"type":"Feature","properties":{"name:sr":"11040 Београд 33","opening_hours":"Mo-Fr 08:00-19:00; Sa 08:00-15:00; PH off","addr:housenumber":"2А","name":"11040 Београд 33","amenity":"post_office","phone":"+381 11 2661-400;+381 11 3535-132","ref":"11040","name:sr-Latn":"11040 Beograd 33","addr:pak":"116363","addr:street":"Незнаног јунака"},"geometry":{"type":"Point","coordinates":[20.4583060510046,44.7762500835221]}},{"type":"Feature","properties":{"name:sr":"11148 Београд 60","opening_hours":"Mo-Fr 08:00-19:00; Sa 08:00-14:00; PH off","addr:housenumber":"24","name":"11148 Београд 60","amenity":"post_office","phone":"+381 11 3671-703;+381 11 3670-147","ref":"11148","name:sr-Latn":"11148 Beograd 60","addr:pak":"166368","addr:street":"Паунова"},"geometry":{"type":"Point","coordinates":[20.4764389057182,44.7567044026813]}},{"type":"Feature","properties":{"name:sr":"11193 Београд 61","opening_hours":"Mo-Fr 08:00-19:00; Sa 08:00-14:00; PH off","addr:housenumber":"15А","name":"11193 Београд 61","amenity":"post_office","phone":"+381 11 3510-882;+381 11 3535-137","ref":"11193","name:sr-Latn":"11193 Beograd 61","addr:pak":"180824","addr:street":"Борска"},"geometry":{"type":"Point","coordinates":[20.4527563321181,44.7486459345069]}},{"type":"Feature","properties":{"name:sr":"11191 Београд 49","opening_hours":"Mo-Fr 10:00-16:30; Sa 10:00-14:00; PH off","addr:housenumber":"42","name":"11191 Београд 49","amenity":"post_office","phone":"+381 11 3510-701","ref":"11191","name:sr-Latn":"11191 Beograd 49","addr:pak":"180808","addr:street":"Канарево брдо"},"geometry":{"type":"Point","coordinates":[20.4547439808687,44.7524539991613]}},{"type":"Feature","properties":{"amenity":"post_office","name":"11156 Београд 77","name:sr":"11156 Београд 77","name:sr-Latn":"11156 Beograd 77","ref":"11156","opening_hours":"Mo-Fr 08:00-14:30; PH off","phone":"+381 11 3672-911","addr:pak":"116599"},"geometry":{"type":"Point","coordinates":[20.4677060061944,44.770671547524]}},{"type":"Feature","properties":{"name:sr":"11154 Београд 70","opening_hours":"Mo,Tu,We,Th,Fr 07:30-14:30; PH off","addr:housenumber":"17","name":"11154 Београд 70","amenity":"post_office","phone":"+381 11 3670-827;+381 11 3535-136","ref":"11154","name:sr-Latn":"11154 Beograd 70","addr:pak":"116585","addr:street":"Црнотравска"},"geometry":{"type":"Point","coordinates":[20.4672292025967,44.7642239668296]}},{"type":"Feature","properties":{"name:sr":"11195 Београд 98","opening_hours":"Mo-Fr 10:00-16:30; Sa 10:00-14:00; PH off","addr:housenumber":"77А","name":"11195 Београд 98","amenity":"post_office","phone":"+381 11 3535-138;+381 11 3565-293","ref":"11195","name:sr-Latn":"11195 Beograd 98","addr:pak":"180631","addr:street":"Луке Војводића"},"geometry":{"type":"Point","coordinates":[20.4352004606619,44.7502299574546]}},{"type":"Feature","properties":{"name:sr":"11105 Београд 7","opening_hours":"Mo-Fr 10:00-14:30; PH off","addr:housenumber":"38","name":"11105 Београд 7","amenity":"post_office","phone":"+381 11 3671-853","ref":"11105","name:sr-Latn":"11105 Beograd 7","addr:pak":"116560","addr:street":"Незнаног јунака"},"geometry":{"type":"Point","coordinates":[20.4633385255887,44.7709644783848]}},{"type":"Feature","properties":{"name:sr":"11093 Београд 138","opening_hours":"Mo-Fr 08:00-19:00; Sa 08:00-14:00; PH off","addr:housenumber":"17","name":"11093 Београд 138","amenity":"post_office","phone":"+381 11 7561890","ref":"11093","name:sr-Latn":"11093 Beograd 138","addr:pak":"180720","addr:street":"Пере Велимировића"},"geometry":{"type":"Point","coordinates":[20.4522432688066,44.7570686487998]}}]}