{"type":"FeatureCollection","features":[{"type":"Feature","properties":{"name:sr":"24206 Биково","opening_hours":"Mo-Fr 15:00-18:00,08:00-11:00; PH off","addr:housenumber":"16","name":"24206 Биково","amenity":"post_office","phone":"+381 24 4797-000","ref":"24206","name:sr-Latn":"24206 Bikovo","addr:pak":"456205","addr:street":"Ђуре Ђаковића"},"geometry":{"type":"Point","coordinates":[19.7603166596288,46.0180750708492]}},{"type":"Feature","properties":{"name:sr":"24207 Ором","opening_hours":"Mo-Fr 07:00-14:00; PH off","addr:housenumber":"207","name":"24207 Ором","amenity":"post_office","phone":"+381 24 799-000","ref":"24207","name:sr-Latn":"24207 Orom","addr:pak":"444702","addr:street":"Велики пут"},"geometry":{"type":"Point","coordinates":[19.8324518440958,45.9767623861225]}},{"type":"Feature","properties":{"name:sr":"24220 Чантавир","opening_hours":"Mo-Fr 07:00-17:00; Sa 07:00-12:00; PH off","addr:housenumber":"4","name":"24220 Чантавир","amenity":"post_office","phone":"+381 24 782-398","ref":"24220","name:sr-Latn":"24220 Čantavir","addr:pak":"457501","addr:street":"Трг Петефи бригаде"},"geometry":{"type":"Point","coordinates":[19.7636567491727,45.9213249080515]}},{"type":"Feature","properties":{"name:sr":"24351 Ново Орахово","opening_hours":"Mo 07:00-14:00; Tu 07:00-10:00; We 07:00-14:00; Th 07:00-10:00; Fr 07:00-14:00; PH off","addr:housenumber":"1","name":"24351 Ново Орахово","amenity":"post_office","phone":"+381 24 723-033","ref":"24351","name:sr-Latn":"24351 Novo Orahovo","addr:pak":"442935","addr:street":"Петефи Шандора"},"geometry":{"type":"Point","coordinates":[19.7658083637052,45.8480859988378]}},{"type":"Feature","properties":{"name:sr":"24352 Торњош","opening_hours":"Mo-Fr 07:00-14:00; PH off","addr:housenumber":"5","name":"24352 Торњош","amenity":"post_office","phone":"+381 24 841-000","ref":"24352","name:sr-Latn":"24352 Tornjoš","addr:pak":"447454","addr:street":"Светог Стевана"},"geometry":{"type":"Point","coordinates":[19.8328814391902,45.8792160377191]}},{"type":"Feature","properties":{"amenity":"post_office","name":"24406 Горњи Брег","name:sr":"24406 Горњи Брег","name:sr-Latn":"24406 Gornji Breg","ref":"24406","opening_hours":"Mo-Fr 07:00-11:00; PH off","phone":"+381 24 843-000","addr:pak":"447101"},"geometry":{"type":"Point","coordinates":[20.0162817694906,45.9192505293264]}},{"type":"Feature","properties":{"name:sr":"24407 Кеви","opening_hours":"Mo-Fr 07:00-11:00; PH off","addr:housenumber":"2","name":"24407 Кеви","amenity":"post_office","phone":"+381 24 846-020","ref":"24407","name:sr-Latn":"24407 Kevi","addr:pak":"447210","addr:street":"Арањ Јанош"},"geometry":{"type":"Point","coordinates":[19.8777565871455,45.8504498910726]}},{"type":"Feature","properties":{"name:sr":"24408 Богараш","opening_hours":"Mo-Fr 07:00-11:00; PH off","addr:housenumber":"34","name":"24408 Богараш","amenity":"post_office","phone":"+381 24 843-062","ref":"24408","name:sr-Latn":"24408 Bogaraš","addr:pak":"447301","addr:street":"Маршала Тита"},"geometry":{"type":"Point","coordinates":[19.9455418525573,45.9249594290874]}},{"type":"Feature","properties":{"name:sr":"24416 Мале Пијаце","opening_hours":"Mo-Fr 08:00-13:00; PH off","addr:housenumber":"3","name":"24416 Мале Пијаце","amenity":"post_office","phone":"+381 24 882-022","ref":"24416","name:sr-Latn":"24416 Male Pijace","addr:pak":"445301","addr:street":"Арањ Јаноша"},"geometry":{"type":"Point","coordinates":[19.9193631243975,46.0692992728304]}},{"type":"Feature","properties":{"name:sr":"24426 Трешњевац","opening_hours":"Mo-Fr 07:00-14:00; PH off","addr:housenumber":"67","name":"24426 Трешњевац","amenity":"post_office","phone":"+381 24 883-095","ref":"24426","name:sr-Latn":"24426 Trešnjevac","addr:pak":"445701","addr:street":"Маршала Тита"},"geometry":{"type":"Point","coordinates":[19.9845772135889,45.9779715588147]}},{"type":"Feature","properties":{"amenity":"post_office","name":"24427 Тотово Село","name:sr":"24427 Тотово Село","name:sr-Latn":"24427 Totovo Selo","ref":"24427","opening_hours":"Mo-Fr 08:00-10:00; PH off","phone":"+381 24 887-000","addr:pak":"445905"},"geometry":{"type":"Point","coordinates":[19.9179522074174,45.9621815205862]}},{"type":"Feature","properties":{"amenity":"post_office","name":"24428 Велебит","name:sr":"24428 Велебит","name:sr-Latn":"24428 Velebit","ref":"24428","opening_hours":"Mo-Fr 08:00-11:00; PH off","phone":"+381 24 885-511","addr:pak":"445810"},"geometry":{"type":"Point","coordinates":[19.9386380125395,46.0071101345175]}}]}