{"type":"FeatureCollection","features":[{"type":"Feature","properties":{"name:sr":"11010 Београд 48","opening_hours":"Mo-Fr 08:00-19:00; Sa 08:00-15:00; PH off","addr:housenumber":"153","name":"11010 Београд 48","amenity":"post_office","phone":"+381 11 3210-112;+381 11 3210-111;+381 11 3976-448","ref":"11010","name:sr-Latn":"11010 Beograd 48","addr:pak":"160903","addr:street":"Кумодрашка"},"geometry":{"type":"Point","coordinates":[20.4826856819184,44.7722790295851]}},{"type":"Feature","properties":{"name:sr":"11152 Београд 63","opening_hours":"Mo-Fr 10:00-16:30; Sa 10:00-14:00; PH off","addr:housenumber":"378","name":"11152 Београд 63","amenity":"post_office","phone":"+381 11 3975-104;+381 11 3973-356","ref":"11152","name:sr-Latn":"11152 Beograd 63","addr:pak":"165804","addr:street":"Кумодрашка"},"geometry":{"type":"Point","coordinates":[20.4994307532471,44.7495879999734]}},{"type":"Feature","properties":{"name:sr":"11143 Београд 24","opening_hours":"Mo-Fr 08:00-19:00; Sa 08:00-14:00; PH off","addr:housenumber":"32","name":"11143 Београд 24","amenity":"post_office","phone":"+381 11 3975-609;+381 11 3210-154","ref":"11143","name:sr-Latn":"11143 Beograd 24","addr:pak":"162003","addr:street":"Мештровићева"},"geometry":{"type":"Point","coordinates":[20.49002543812,44.7699392763439]}},{"type":"Feature","properties":{"name:sr":"11151 Београд 65","opening_hours":"Mo-Fr 08:00-19:00; Sa 08:00-12:00; PH off","addr:housenumber":"4","name":"11151 Београд 65","amenity":"post_office","phone":"+381 11 7470-989","ref":"11151","name:sr-Latn":"11151 Beograd 65","addr:pak":"163802","addr:street":"Боривоја Стевановића"},"geometry":{"type":"Point","coordinates":[20.5055294924132,44.7743051363099]}},{"type":"Feature","properties":{"name:sr":"11144 Београд 39","opening_hours":"Mo-Fr 08:00-19:00; Sa 08:00-14:00; PH off","addr:housenumber":"298","name":"11144 Београд 39","amenity":"post_office","phone":"+381 11 3975-462;+381 11 3980302","ref":"11144","name:sr-Latn":"11144 Beograd 39","addr:pak":"166124","addr:street":"Војводе Степе"},"geometry":{"type":"Point","coordinates":[20.4810362420237,44.7668131558056]}},{"type":"Feature","properties":{"name:sr":"11011 Београд 145","opening_hours":"Mo-Sa 08:00-19:00; Su 10:00-17:00; PH 08:00-19:00","addr:housenumber":"32","name":"11011 Београд 145","amenity":"post_office","phone":"+381 11 6305-810;+381 11 3210-155","ref":"11011","name:sr-Latn":"11011 Beograd 145","addr:pak":"161512","addr:street":"Заплањска"},"geometry":{"type":"Point","coordinates":[20.4908717461852,44.7748039756708]}},{"type":"Feature","properties":{"name:sr":"11041 Београд 147","opening_hours":"Mo-Fr 08:00-19:00; Sa 08:00-14:00; PH off","addr:housenumber":"25","name":"11041 Београд 147","amenity":"post_office","phone":"+381 11 3535-155;+381 11 3535-156","ref":"11041","name:sr-Latn":"11041 Beograd 147","addr:pak":"165871","addr:street":"Генерала Штефаника"},"geometry":{"type":"Point","coordinates":[20.4920509511086,44.7586221396955]}},{"type":"Feature","properties":{"name:sr":"11042 Београд 152","opening_hours":"Mo-Fr 08:00-19:00; Sa 08:00-15:00; PH off","addr:housenumber":"2Б","name":"11042 Београд 152","amenity":"post_office","phone":"+381 11;+381 11 3535170","ref":"11042","name:sr-Latn":"11042 Beograd 152","addr:pak":"169114","addr:street":"Булевар ЈНА"},"geometry":{"type":"Point","coordinates":[20.4813767648077,44.7507306123714]}},{"type":"Feature","properties":{"name:sr":"11043 Београд 156","opening_hours":"Mo-Fr 08:00-19:00; Sa 08:00-14:00; PH off","addr:housenumber":"2","name":"11043 Београд 156","amenity":"post_office","phone":"+381 11 3535-175","ref":"11043","name:sr-Latn":"11043 Beograd 156","addr:pak":"165602","addr:street":"Војводе Влаховића"},"geometry":{"type":"Point","coordinates":[20.5000205737226,44.7639213572018]}}]}