{"type":"FeatureCollection","features":[{"type":"Feature","properties":{"name:sr":"11126 Београд 56","opening_hours":"Mo-Fr 08:00-14:00; Sa 08:00-12:00; PH off","addr:housenumber":"14","name":"11126 Београд 56","amenity":"post_office","phone":"+381 11 3460-279;+381 11 3210-153","ref":"11126","name:sr-Latn":"11126 Beograd 56","addr:pak":"142116","addr:street":"Николе Груловића"},"geometry":{"type":"Point","coordinates":[20.5255453572378,44.7600647865548]}},{"type":"Feature","properties":{"name:sr":"11130 Калуђерица","opening_hours":"Mo-Fr 08:00-19:00; Sa 08:00-14:00; PH off","addr:housenumber":"9","name":"11130 Калуђерица","amenity":"post_office","phone":"+381 11 3210-121;+381 11 3415-655","ref":"11130","name:sr-Latn":"11130 Kaluđerica","addr:pak":"151302","addr:street":"Краља Петра првог"},"geometry":{"type":"Point","coordinates":[20.5580848373105,44.7648721161083]}},{"type":"Feature","properties":{"name:sr":"11053 Калуђерица 2","opening_hours":"Mo-Fr 10:00-17:00; PH off","addr:housenumber":"2А","name":"11053 Калуђерица 2","amenity":"post_office","phone":"+381 11 3222-304","ref":"11053","name:sr-Latn":"11053 Kaluđerica 2","addr:pak":"151432","addr:street":"Светислава Ристића"},"geometry":{"type":"Point","coordinates":[20.5607550221806,44.7516529013453]}}]}