{"type":"FeatureCollection","features":[{"type":"Feature","properties":{"name:sr":"24105 Суботица","opening_hours":"Mo-Fr 08:00-19:00; Sa 08:00-12:00; PH off","addr:housenumber":"61","name":"24105 Суботица","amenity":"post_office","phone":"+381 24 548-077;+381 24 546-875","ref":"24105","name:sr-Latn":"24105 Subotica","addr:pak":"453101","addr:street":"Сегедински пут"},"geometry":{"type":"Point","coordinates":[19.6885030032146,46.1007823540717]}},{"type":"Feature","properties":{"name:sr":"24108 Суботица","opening_hours":"Mo-Fr 07:00-12:00; PH off","addr:housenumber":"21","name":"24108 Суботица","amenity":"post_office","phone":"+381 24 596-006","ref":"24108","name:sr-Latn":"24108 Subotica","addr:pak":"454401","addr:street":"Венац братства и јединства"},"geometry":{"type":"Point","coordinates":[19.7276043148937,46.1073157396304]}},{"type":"Feature","properties":{"name:sr":"24410 Хоргош","opening_hours":"Mo-Fr 07:00-14:00; Sa 07:00-12:00; PH off","addr:housenumber":"2А","name":"24410 Хоргош","amenity":"post_office","phone":"+381 24 792-105","ref":"24410","name:sr-Latn":"24410 Horgoš","addr:pak":"444950","addr:street":"Барток Беле"},"geometry":{"type":"Point","coordinates":[19.9663739189003,46.1531979313429]}},{"type":"Feature","properties":{"name:sr":"24413 Палић","opening_hours":"Mo-Fr 08:00-19:00; Sa 08:00-13:00; PH off","addr:housenumber":"80","name":"24413 Палић","amenity":"post_office","phone":"+381 24 755-055;+381 24 753-499","ref":"24413","name:sr-Latn":"24413 Palić","addr:pak":"458480","addr:street":"Хоргошки пут"},"geometry":{"type":"Point","coordinates":[19.7597615786783,46.1019482076029]}},{"type":"Feature","properties":{"name:sr":"24414 Хајдуково","opening_hours":"Mo-Fr 07:00-14:00; PH off","addr:housenumber":"20","name":"24414 Хајдуково","amenity":"post_office","phone":"+381 24 758-023","ref":"24414","name:sr-Latn":"24414 Hajdukovo","addr:pak":"458701","addr:street":"Бориса Кидрича"},"geometry":{"type":"Point","coordinates":[19.8123254682722,46.1089308021887]}},{"type":"Feature","properties":{"name:sr":"24415 Бачки Виногради","opening_hours":"Mo-Fr 07:00-14:00; PH off","addr:housenumber":"25","name":"24415 Бачки Виногради","amenity":"post_office","phone":"+381 24 757-088","ref":"24415","name:sr-Latn":"24415 Bački Vinogradi","addr:pak":"458801","addr:street":"Београдска"},"geometry":{"type":"Point","coordinates":[19.8571551597378,46.1242331960609]}},{"type":"Feature","properties":{"amenity":"post_office","name":"24418 Шупљак","name:sr":"24418 Шупљак","name:sr-Latn":"24418 Šupljak","ref":"24418","opening_hours":"Mo-Fr 07:00-11:00; PH off","phone":"+381 24 753-273","addr:pak":"458902"},"geometry":{"type":"Point","coordinates":[19.8025728438049,46.078486919214]}},{"type":"Feature","properties":{"amenity":"post_office","name":"24411 Г. П. Хоргош","name:sr":"24411 Г. П. Хоргош","name:sr-Latn":"24411 G. P. Horgoš","ref":"24411","opening_hours":"Mo-Su,PH 00:00-24:00","phone":"+381 24 795-062","addr:pak":"445210"},"geometry":{"type":"Point","coordinates":[19.9765962441264,46.1744513581201]}}]}