{"type":"FeatureCollection","features":[{"type":"Feature","properties":{"name:sr":"36320 Тутин","opening_hours":"Mo-Fr 07:00-19:00; Sa 09:00-16:00; PH off","addr:housenumber":"10","name":"36320 Тутин","amenity":"post_office","phone":"+381 20 811-733;+381 20 811-640","ref":"36320","name:sr-Latn":"36320 Tutin","addr:pak":"576024","addr:street":"Револуције"},"geometry":{"type":"Point","coordinates":[20.3373027146365,42.9894981531225]}},{"type":"Feature","properties":{"name:sr":"36321 Црквине","opening_hours":"Mo-Fr 08:00-14:00; PH off","addr:housenumber":"ББ","name":"36321 Црквине","amenity":"post_office","phone":"+381 20 5723-040","ref":"36321","name:sr-Latn":"36321 Crkvine","addr:pak":"577201","addr:street":"Црквине"},"geometry":{"type":"Point","coordinates":[20.3865382061126,43.0523091504536]}},{"type":"Feature","properties":{"amenity":"post_office","name":"36323 Лескова","name:sr":"36323 Лескова","name:sr-Latn":"36323 Leskova","ref":"36323","opening_hours":"We,Fr 08:00-14:00; PH off","phone":"+381 20 452-602","addr:pak":"576420"},"geometry":{"type":"Point","coordinates":[20.1704633182036,43.0473107385401]}}]}