{"type":"FeatureCollection","features":[{"type":"Feature","properties":{"amenity":"post_office","name":"36307 Делимеђе","name:sr":"36307 Делимеђе","name:sr-Latn":"36307 Delimeđe","ref":"36307","opening_hours":"Mo,Tu,Th 08:00-15:00; PH off","phone":"+381 20 461-276","addr:pak":"577301"},"geometry":{"type":"Point","coordinates":[20.3114524642786,43.1041323114635]}},{"type":"Feature","properties":{"amenity":"post_office","name":"36311 Штаваљ","name:sr":"36311 Штаваљ","name:sr-Latn":"36311 Štavalj","ref":"36311","opening_hours":"Mo-Fr 08:00-11:00; PH off","phone":"+381 20 5751-122","addr:pak":"575113"},"geometry":{"type":"Point","coordinates":[20.136506387401,43.268434198646]}},{"type":"Feature","properties":{"amenity":"post_office","name":"36312 Дуга Пољана","name:sr":"36312 Дуга Пољана","name:sr-Latn":"36312 Duga Poljana","ref":"36312","opening_hours":"Mo-Fr 09:00-15:00; PH off","phone":"+381 20 5375-060","addr:pak":"575201"},"geometry":{"type":"Point","coordinates":[20.2262933205275,43.2485752306259]}},{"type":"Feature","properties":{"amenity":"post_office","name":"36313 Карајукића Бунари","name:sr":"36313 Карајукића Бунари","name:sr-Latn":"36313 Karajukića Bunari","ref":"36313","opening_hours":"Tu,Fr 09:00-14:00; PH off","phone":"+381 20 485-146","addr:pak":"575401"},"geometry":{"type":"Point","coordinates":[20.0925307870628,43.0914261291691]}},{"type":"Feature","properties":{"amenity":"post_office","name":"36314 Штитаре","name:sr":"36314 Штитаре","name:sr-Latn":"36314 Štitare","ref":"36314","opening_hours":"Mo,Th 07:30-14:00; PH off","phone":"+381 20 351-002","addr:pak":"572945"},"geometry":{"type":"Point","coordinates":[20.2998705347255,43.2200899867439]}}]}