{"type":"FeatureCollection","features":[{"type":"Feature","properties":{"name:sr":"32253 Брезова","opening_hours":"Mo,We,Fr 08:00-13:00; PH off","addr:housenumber":"ББ","name":"32253 Брезова","amenity":"post_office","phone":"+381 32 873-300","ref":"32253","name:sr-Latn":"32253 Brezova","addr:pak":"532335","addr:street":"Брезова"},"geometry":{"type":"Point","coordinates":[20.0622471089311,43.572545044676]}},{"type":"Feature","properties":{"amenity":"post_office","name":"32254 Вионица","name:sr":"32254 Вионица","name:sr-Latn":"32254 Vionica","ref":"32254","opening_hours":"Mo-Fr 08:00-15:00; PH off","phone":"+381 32 5688-099","addr:pak":"532405"},"geometry":{"type":"Point","coordinates":[20.3779151595591,43.4232455018162]}},{"type":"Feature","properties":{"amenity":"post_office","name":"32255 Међуречје","name:sr":"32255 Међуречје","name:sr-Latn":"32255 Međurečje","ref":"32255","opening_hours":"Tu,Th 08:00-14:30; PH off","phone":"+381 32 638-200","addr:pak":"532510"},"geometry":{"type":"Point","coordinates":[20.2270999898742,43.5314735294953]}},{"type":"Feature","properties":{"amenity":"post_office","name":"32256 Братљево","name:sr":"32256 Братљево","name:sr-Latn":"32256 Bratljevo","ref":"32256","opening_hours":"We,Fr 08:00-14:00; PH off","phone":"+381 32 763-103","addr:pak":"532601"},"geometry":{"type":"Point","coordinates":[20.1888379909158,43.461181755487]}},{"type":"Feature","properties":{"amenity":"post_office","name":"32258 Кушићи","name:sr":"32258 Кушићи","name:sr-Latn":"32258 Kušići","ref":"32258","opening_hours":"Tu,Th 08:00-14:00; PH off","phone":"+381 32 5678-200","addr:pak":"532815"},"geometry":{"type":"Point","coordinates":[20.1026450199964,43.5014793362347]}}]}