{"type":"FeatureCollection","features":[{"type":"Feature","properties":{"name:sr":"32230 Гуча","opening_hours":"Mo-Fr 08:00-15:00; Sa 08:00-13:00; PH off","addr:housenumber":"3","name":"32230 Гуча","amenity":"post_office","phone":"+381 32 304-076;+381 32 854-226","ref":"32230","name:sr-Latn":"32230 Guča","addr:pak":"533105","addr:street":"Богдана Капелана"},"geometry":{"type":"Point","coordinates":[20.2258237672163,43.7761509963947]}},{"type":"Feature","properties":{"amenity":"post_office","name":"32232 Горачићи","name:sr":"32232 Горачићи","name:sr-Latn":"32232 Goračići","ref":"32232","opening_hours":"Mo,We,Fr 08:00-13:00; PH off","phone":"+381 32 5857-400","addr:pak":"534201"},"geometry":{"type":"Point","coordinates":[20.3364851472807,43.7725686252535]}},{"type":"Feature","properties":{"amenity":"post_office","name":"32233 Вича","name:sr":"32233 Вича","name:sr-Latn":"32233 Viča","ref":"32233","opening_hours":"Mo,We,Fr 08:00-11:00; PH off","phone":"+381 32 864-000","addr:pak":"534330"},"geometry":{"type":"Point","coordinates":[20.3014613493327,43.7219866541985]}},{"type":"Feature","properties":{"amenity":"post_office","name":"32235 Котража","name:sr":"32235 Котража","name:sr-Latn":"32235 Kotraža","ref":"32235","opening_hours":"Mo-Fr 07:30-14:00; PH off","phone":"+381 32 856-100","addr:pak":"534501"},"geometry":{"type":"Point","coordinates":[20.2319555583305,43.7034806662712]}},{"type":"Feature","properties":{"name:sr":"32250 Ивањица","opening_hours":"Mo-Fr 08:00-17:00; Sa 08:00-16:00; PH off","addr:housenumber":"10","name":"32250 Ивањица","amenity":"post_office","phone":"+381 32 304-078;+381 32 304-065;+381 32 662-499","ref":"32250","name:sr-Latn":"32250 Ivanjica","addr:pak":"530102","addr:street":"Венијамина Маринковића"},"geometry":{"type":"Point","coordinates":[20.2293661896617,43.580911646236]}},{"type":"Feature","properties":{"amenity":"post_office","name":"32252 Прилички кисељак","name:sr":"32252 Прилички кисељак","name:sr-Latn":"32252 Prilički kiseljak","ref":"32252","opening_hours":"Mo-Fr 08:00-14:00; PH off","phone":"+381 32 304-084;+381 32 5462-119","addr:pak":"532295"},"geometry":{"type":"Point","coordinates":[20.153346401616,43.6319876899201]}},{"type":"Feature","properties":{"name:sr":"31230 Ариље","opening_hours":"Mo-Fr 08:00-19:00; Sa 08:00-15:00; PH off","addr:housenumber":"35","name":"31230 Ариље","amenity":"post_office","phone":"+381 31 590-859;+381 31 590-860","ref":"31230","name:sr-Latn":"31230 Arilje","addr:pak":"505804","addr:street":"Светог Ахилија"},"geometry":{"type":"Point","coordinates":[20.0993145356714,43.7514293648014]}},{"type":"Feature","properties":{"amenity":"post_office","name":"31236 Дивљака","name:sr":"31236 Дивљака","name:sr-Latn":"31236 Divljaka","ref":"31236","opening_hours":"Mo-Fr 09:00-15:00; PH off","phone":"+381 31 890-031","addr:pak":"506601"},"geometry":{"type":"Point","coordinates":[20.1265884503775,43.6787934892833]}},{"type":"Feature","properties":{"name:sr":"31212 Пожега","opening_hours":"Mo-Fr 08:00-15:00; Sa 08:00-12:00; PH off","addr:housenumber":"1","name":"31212 Пожега","amenity":"post_office","phone":"+381 31 812-014","ref":"31212","name:sr-Latn":"31212 Požega","addr:pak":"505161","addr:street":"Браће Мићића"},"geometry":{"type":"Point","coordinates":[20.0410820819549,43.8319971090675]}}]}