{"type":"FeatureCollection","features":[{"type":"Feature","properties":{"name:sr":"32102 Чачак 2","opening_hours":"Mo-Fr 08:00-19:00; Sa 08:00-15:00; PH off","addr:housenumber":"1","name":"32102 Чачак 2","amenity":"post_office","phone":"+381 32 304-072;+381 32 304-063;+381 32 304-071","ref":"32102","name:sr-Latn":"32102 Čačak 2","addr:pak":"521701","addr:street":"Железничка Колонија"},"geometry":{"type":"Point","coordinates":[20.3555892939209,43.8897002411162]}},{"type":"Feature","properties":{"name:sr":"32103 Чачак 3","opening_hours":"Mo-Fr 08:00-19:00; Sa 08:00-14:00; PH off","addr:housenumber":"1","name":"32103 Чачак 3","amenity":"post_office","phone":"+381 32 304-073;+381 32 304-018;+381 32 304-080","ref":"32103","name:sr-Latn":"32103 Čačak 3","addr:pak":"523713","addr:street":"Хероја Ђуракића"},"geometry":{"type":"Point","coordinates":[20.3548332962281,43.9031366403365]}},{"type":"Feature","properties":{"name:sr":"32104 Чачак 4","opening_hours":"Mo-Fr 08:00-15:30; Sa 08:00-12:00; PH off","addr:housenumber":"21","name":"32104 Чачак 4","amenity":"post_office","phone":"+381 32 304-075;+381 32 366-399","ref":"32104","name:sr-Latn":"32104 Čačak 4","addr:pak":"524435","addr:street":"Радних Бригада"},"geometry":{"type":"Point","coordinates":[20.3687787070061,43.8678808786867]}},{"type":"Feature","properties":{"amenity":"post_office","name":"32205 Трбушани","name:sr":"32205 Трбушани","name:sr-Latn":"32205 Trbušani","ref":"32205","opening_hours":"Mo-Fr 08:00-14:30; PH off","phone":"+381 32 304-087;+381 32 391-100","addr:pak":"525041"},"geometry":{"type":"Point","coordinates":[20.3243324803627,43.9252048212902]}},{"type":"Feature","properties":{"name:sr":"32240 Лучани","opening_hours":"Mo-Fr 08:00-15:00; Sa 08:00-13:00; PH off","addr:housenumber":"2В","name":"32240 Лучани","amenity":"post_office","phone":"+381 32 304-077;+381 32 817-154","ref":"32240","name:sr-Latn":"32240 Lučani","addr:pak":"535201","addr:street":"Радничка"},"geometry":{"type":"Point","coordinates":[20.1360439072414,43.85978567041]}},{"type":"Feature","properties":{"amenity":"post_office","name":"32242 Овчар Бања","name:sr":"32242 Овчар Бања","name:sr-Latn":"32242 Ovčar Banja","ref":"32242","opening_hours":"Mo,We,Fr 07:30-11:00; PH off","phone":"+381 32 5596-100","addr:pak":"525921"},"geometry":{"type":"Point","coordinates":[20.1870447208047,43.8996197927219]}},{"type":"Feature","properties":{"amenity":"post_office","name":"32304 Таково","name:sr":"32304 Таково","name:sr-Latn":"32304 Takovo","ref":"32304","opening_hours":"Mo-Fr 07:30-14:00; PH off","phone":"+381 32 5736-132","addr:pak":"528220"},"geometry":{"type":"Point","coordinates":[20.3741108283459,44.0505467940849]}},{"type":"Feature","properties":{"amenity":"post_office","name":"32307 Брезна","name:sr":"32307 Брезна","name:sr-Latn":"32307 Brezna","ref":"32307","opening_hours":"Mo,We 08:00-13:00; PH off","phone":"+381 32 742-319","addr:pak":"528401"},"geometry":{"type":"Point","coordinates":[20.2807423420927,44.056593433527]}},{"type":"Feature","properties":{"amenity":"post_office","name":"32308 Прањани","name:sr":"32308 Прањани","name:sr-Latn":"32308 Pranjani","ref":"32308","opening_hours":"Mo-Fr 08:00-14:00; PH off","phone":"+381 32 304-089;+381 32 841-500","addr:pak":"528510"},"geometry":{"type":"Point","coordinates":[20.2085868199016,44.0100811098439]}},{"type":"Feature","properties":{"amenity":"post_office","name":"31214 Горња Добриња","name:sr":"31214 Горња Добриња","name:sr-Latn":"31214 Gornja Dobrinja","ref":"31214","opening_hours":"Mo-Fr 08:00-11:00; PH off","phone":"+381 31 818-111","addr:pak":"505501"},"geometry":{"type":"Point","coordinates":[20.078704272037,43.9611744952791]}},{"type":"Feature","properties":{"amenity":"post_office","name":"31215 Јелен До","name:sr":"31215 Јелен До","name:sr-Latn":"31215 Jelen Do","ref":"31215","opening_hours":"Mo,Th 08:00-11:00; PH off","phone":"+381 31 3810-511","addr:pak":"505601"},"geometry":{"type":"Point","coordinates":[20.1194355667065,43.8904500419559]}},{"type":"Feature","properties":{"name:sr":"32101 Чачак 1","opening_hours":"Mo-Fr 07:00-20:00; Sa 08:00-16:00; PH off","addr:housenumber":"28","name":"32101 Чачак 1","amenity":"post_office","phone":"+381 32 304-013;+381 32 304-015","ref":"32101","name:sr-Latn":"32101 Čačak 1","addr:pak":"522008","addr:street":"Градско Шеталиште"},"geometry":{"type":"Point","coordinates":[20.3478128655271,43.8913819407698]}},{"type":"Feature","properties":{"name:sr":"32105 Чачак 5","opening_hours":"Mo-Fr 08:00-15:00; PH off","addr:housenumber":"5","name":"32105 Чачак 5","amenity":"post_office","phone":"+381 32 304-083;+381 32 372-502","ref":"32105","name:sr-Latn":"32105 Čačak 5","addr:pak":"521340","addr:street":"Чачански Партизански Одред"},"geometry":{"type":"Point","coordinates":[20.3558892351255,43.880809642687]}},{"type":"Feature","properties":{"name:sr":"32106 Чачак 6","opening_hours":"Mo-Fr 09:00-16:00; PH off","addr:housenumber":"228","name":"32106 Чачак 6","amenity":"post_office","phone":"+381 32 372-597","ref":"32106","name:sr-Latn":"32106 Čačak 6","addr:pak":"521873","addr:street":"Војводе Степе"},"geometry":{"type":"Point","coordinates":[20.3299288789392,43.8896692555138]}}]}