{"type":"FeatureCollection","features":[{"type":"Feature","properties":{"name:sr":"11561 Дудовица","opening_hours":"Mo-Fr 07:00-13:00; PH off","addr:housenumber":"1","name":"11561 Дудовица","amenity":"post_office","phone":"+381 11 8186-005","ref":"11561","name:sr-Latn":"11561 Dudovica","addr:pak":"213704","addr:street":"Дванаестог септембра"},"geometry":{"type":"Point","coordinates":[20.2639111540626,44.2963722034247]}},{"type":"Feature","properties":{"amenity":"post_office","name":"32312 Бољковци","name:sr":"32312 Бољковци","name:sr-Latn":"32312 Boljkovci","ref":"32312","opening_hours":"Tu,Th,Fr 07:00-14:00; PH off","phone":"+381 32 5570-400","addr:pak":"528701"},"geometry":{"type":"Point","coordinates":[20.3421424516381,44.1433256746551]}},{"type":"Feature","properties":{"name:sr":"32314 Угриновци","opening_hours":"Mo,We,Fr 07:00-14:00; PH off","addr:housenumber":"999","name":"32314 Угриновци","amenity":"post_office","phone":"+381 32 5749-018","ref":"32314","name:sr-Latn":"32314 Ugrinovci","addr:pak":"528901","addr:street":"Угриновци"},"geometry":{"type":"Point","coordinates":[20.3890840096282,44.1714524883847]}},{"type":"Feature","properties":{"amenity":"post_office","name":"14225 Боговађа","name:sr":"14225 Боговађа","name:sr-Latn":"14225 Bogovađa","ref":"14225","opening_hours":"Mo-Fr 08:00-14:00; PH off","phone":"+381 14 438-008","addr:pak":"244501"},"geometry":{"type":"Point","coordinates":[20.2012479446853,44.3273488460403]}},{"type":"Feature","properties":{"name:sr":"14240 Љиг","opening_hours":"Mo-Fr 08:00-15:00; Sa 08:00-12:00; PH off","addr:housenumber":"12","name":"14240 Љиг","amenity":"post_office","phone":"+381 14 294-054;+381 14 294-055;+381 14 3444-880","ref":"14240","name:sr-Latn":"14240 Ljig","addr:pak":"245106","addr:street":"Карађорђева"},"geometry":{"type":"Point","coordinates":[20.2388061089927,44.2265525128187]}},{"type":"Feature","properties":{"name:sr":"14242 Мионица","opening_hours":"Mo-Sa 07:00-14:00; PH off","addr:housenumber":"66","name":"14242 Мионица","amenity":"post_office","phone":"+381 14 294-056;+381 14 3421-155","ref":"14242","name:sr-Latn":"14242 Mionica","addr:pak":"256101","addr:street":"Војводе Мишића"},"geometry":{"type":"Point","coordinates":[20.0808571007748,44.2518721415786]}},{"type":"Feature","properties":{"amenity":"post_office","name":"14243 Горња Топлица","name:sr":"14243 Горња Топлица","name:sr-Latn":"14243 Gornja Toplica","ref":"14243","opening_hours":"Mo-Fr 08:00-14:00; PH off","phone":"+381 14 3426-126","addr:pak":"256901"},"geometry":{"type":"Point","coordinates":[20.1549290064841,44.22181779231]}},{"type":"Feature","properties":{"amenity":"post_office","name":"14244 Брежђе","name:sr":"14244 Брежђе","name:sr-Latn":"14244 Brežđe","ref":"14244","opening_hours":"Mo,Th 08:00-14:00; PH off","phone":"+381 14 3425-520","addr:pak":"257101"},"geometry":{"type":"Point","coordinates":[20.0591576814296,44.1715853291421]}},{"type":"Feature","properties":{"amenity":"post_office","name":"14245 Славковица","name:sr":"14245 Славковица","name:sr-Latn":"14245 Slavkovica","ref":"14245","opening_hours":"Mo-Fr 08:00-11:00; PH off","phone":"+381 14 344-01-10","addr:pak":"245801"},"geometry":{"type":"Point","coordinates":[20.2491001586501,44.1660926238671]}}]}