{"type":"FeatureCollection","features":[{"type":"Feature","properties":{"name:sr":"11500 Обреновац","opening_hours":"Mo-Fr 08:00-19:00; Sa 08:00-15:00; PH off","addr:housenumber":"128","name":"11500 Обреновац","amenity":"post_office","phone":"+381 11 3535-092;+381 11 3535-100","ref":"11500","name:sr-Latn":"11500 Obrenovac","addr:pak":"210118","addr:street":"Милоша Обреновића"},"geometry":{"type":"Point","coordinates":[20.2025566588112,44.6536138426145]}},{"type":"Feature","properties":{"name:sr":"11505 Забрежје","opening_hours":"Mo-Fr 08:00-14:00; Sa 08:00-12:00; PH off","addr:housenumber":"1","name":"11505 Забрежје","amenity":"post_office","phone":"+381 11 8755-919","ref":"11505","name:sr-Latn":"11505 Zabrežje","addr:pak":"213620","addr:street":"Савска"},"geometry":{"type":"Point","coordinates":[20.2023060189878,44.6832427795698]}},{"type":"Feature","properties":{"name:sr":"11508 Грабовац","opening_hours":"Mo-Fr 08:00-14:00; PH off","addr:housenumber":"ББ","name":"11508 Грабовац","amenity":"post_office","phone":"+381 11 8760-641","ref":"11508","name:sr-Latn":"11508 Grabovac","addr:pak":"212131","addr:street":"Школска"},"geometry":{"type":"Point","coordinates":[20.1053172126048,44.602405364023]}},{"type":"Feature","properties":{"amenity":"post_office","name":"11509 Скела","name:sr":"11509 Скела","name:sr-Latn":"11509 Skela","ref":"11509","opening_hours":"Mo-Fr 08:00-14:00; PH off","phone":"+381 11 8770-218","addr:pak":"212925"},"geometry":{"type":"Point","coordinates":[20.0533392015722,44.6806062780686]}},{"type":"Feature","properties":{"name:sr":"11280 Прогар","opening_hours":"Mo-Fr 07:30-14:30; PH off","addr:housenumber":"2","name":"11280 Прогар","amenity":"post_office","phone":"+381 11 8427-152","ref":"11280","name:sr-Latn":"11280 Progar","addr:pak":"202201","addr:street":"Жртава Фашизма"},"geometry":{"type":"Point","coordinates":[20.1611025566008,44.7143311585245]}},{"type":"Feature","properties":{"name:sr":"22419 Купиново","opening_hours":"Mo-Fr 07:00-14:00; PH off","addr:housenumber":"6","name":"22419 Купиново","amenity":"post_office","phone":"+381 22 2438-210","ref":"22419","name:sr-Latn":"22419 Kupinovo","addr:pak":"339336","addr:street":"Орачка"},"geometry":{"type":"Point","coordinates":[20.0511013807433,44.7065660251864]}},{"type":"Feature","properties":{"name:sr":"11503 Обреновац 3","opening_hours":"Mo-Fr 10:00-16:30; Sa 10:00-14:00; PH off","addr:housenumber":"15","name":"11503 Обреновац 3","amenity":"post_office","phone":"+381 11 8754-337;+381 11 8754-482","ref":"11503","name:sr-Latn":"11503 Obrenovac 3","addr:pak":"210804","addr:street":"Краља Милутина"},"geometry":{"type":"Point","coordinates":[20.1960729977728,44.6672072382108]}},{"type":"Feature","properties":{"amenity":"post_office","name":"11511 Звечка","name:sr":"11511 Звечка","name:sr-Latn":"11511 Zvečka","ref":"11511","opening_hours":"Mo-Fr 08:00-14:00; PH off","phone":"+381 11 8766-755","addr:pak":"210915"},"geometry":{"type":"Point","coordinates":[20.1659268365985,44.6388871231887]}}]}