{"type":"FeatureCollection","features":[{"type":"Feature","properties":{"name:sr":"11279 Бечмен","opening_hours":"Mo-Fr 07:30-13:30; PH off","addr:housenumber":"2","name":"11279 Бечмен","amenity":"post_office","phone":"+381 11 3718-015;+381 11 8438-597","ref":"11279","name:sr-Latn":"11279 Bečmen","addr:pak":"202333","addr:street":"Николе Тесле"},"geometry":{"type":"Point","coordinates":[20.2022207229919,44.7800577130329]}},{"type":"Feature","properties":{"name:sr":"11282 Петровчић","opening_hours":"Mo-Fr 08:00-11:00; PH off","addr:housenumber":"1","name":"11282 Петровчић","amenity":"post_office","phone":"+381 11 8438-811","ref":"11282","name:sr-Latn":"11282 Petrovčić","addr:pak":"202405","addr:street":"Душана Вукасовића"},"geometry":{"type":"Point","coordinates":[20.1448154846725,44.7942558577331]}},{"type":"Feature","properties":{"name:sr":"22418 Ашања","opening_hours":"Mo-Fr 07:00-10:30; PH off","addr:housenumber":"2","name":"22418 Ашања","amenity":"post_office","phone":"+381 22 497-474","ref":"22418","name:sr-Latn":"22418 Ašanja","addr:pak":"339148","addr:street":"Карађорђева"},"geometry":{"type":"Point","coordinates":[20.0756749337917,44.7554251514414]}},{"type":"Feature","properties":{"name:sr":"22441 Деч","opening_hours":"Mo-Fr 07:00-10:30; PH off","addr:housenumber":"3","name":"22441 Деч","amenity":"post_office","phone":"+381 22 493-011","ref":"22441","name:sr-Latn":"22441 Deč","addr:pak":"339831","addr:street":"Ивана Петровића"},"geometry":{"type":"Point","coordinates":[20.1146611310696,44.8352084691361]}},{"type":"Feature","properties":{"name:sr":"22443 Карловчић","opening_hours":"Mo-Fr 07:00-10:30; PH off","addr:housenumber":"2","name":"22443 Карловчић","amenity":"post_office","phone":"+381 22 2434-011","ref":"22443","name:sr-Latn":"22443 Karlovčić","addr:pak":"338226","addr:street":"Паћановачка"},"geometry":{"type":"Point","coordinates":[20.0449303702582,44.82377852852]}}]}