{"type":"FeatureCollection","features":[{"type":"Feature","properties":{"name:sr":"11260 Умка","opening_hours":"Mo-Fr 08:00-18:30; Sa 08:00-14:00; PH off","addr:housenumber":"7","name":"11260 Умка","amenity":"post_office","phone":"+381 11 3535-145;+381 11 8025-025","ref":"11260","name:sr-Latn":"11260 Umka","addr:pak":"176208","addr:street":"Железничка"},"geometry":{"type":"Point","coordinates":[20.306797340703,44.6824221261027]}},{"type":"Feature","properties":{"name:sr":"11261 Мала Моштаница","opening_hours":"Mo-Fr 08:00-14:00; PH off","addr:housenumber":"56","name":"11261 Мала Моштаница","amenity":"post_office","phone":"+381 11 8750-600","ref":"11261","name:sr-Latn":"11261 Mala Moštanica","addr:pak":"213535","addr:street":"Палих бораца Мале Моштанице"},"geometry":{"type":"Point","coordinates":[20.3023427399003,44.647144634686]}},{"type":"Feature","properties":{"name:sr":"11262 Велика Моштаница","opening_hours":"Mo-Fr 08:00-14:00; Sa 08:00-13:00; PH off","addr:housenumber":"4","name":"11262 Велика Моштаница","amenity":"post_office","phone":"+381 11 8075-167","ref":"11262","name:sr-Latn":"11262 Velika Moštanica","addr:pak":"171501","addr:street":"Десетог октобра"},"geometry":{"type":"Point","coordinates":[20.3536519265181,44.6660419399117]}},{"type":"Feature","properties":{"name:sr":"11426 Мељак","opening_hours":"Mo-Fr 09:00-15:00; Sa 09:00-14:30; PH off","addr:housenumber":"32А","name":"11426 Мељак","amenity":"post_office","phone":"+381 11 8340-033;+381 11 8340-609","ref":"11426","name:sr-Latn":"11426 Meljak","addr:pak":"217921","addr:street":"Маршала Тита"},"geometry":{"type":"Point","coordinates":[20.3672455167855,44.6222861572964]}},{"type":"Feature","properties":{"amenity":"post_office","name":"11427 Вранић","name:sr":"11427 Вранић","name:sr-Latn":"11427 Vranić","ref":"11427","opening_hours":"Mo-Fr 08:00-15:00; Sa 08:00-14:00; PH off","phone":"+381 11 8333-000","addr:pak":"219801"},"geometry":{"type":"Point","coordinates":[20.3089091484634,44.5945172492662]}},{"type":"Feature","properties":{"name:sr":"11504 Барич","opening_hours":"Mo-Fr 08:00-14:00; Sa 08:00-13:00; PH off","addr:housenumber":"140","name":"11504 Барич","amenity":"post_office","phone":"+381 11 8702-193","ref":"11504","name:sr-Latn":"11504 Barič","addr:pak":"213224","addr:street":"Обреновачки пут"},"geometry":{"type":"Point","coordinates":[20.2611307607133,44.6523952759001]}},{"type":"Feature","properties":{"name:sr":"11255 Сремчица","opening_hours":"Mo-Fr 08:00-14:00; Sa 08:00-13:00; PH off","addr:housenumber":"ББ","name":"11255 Сремчица","amenity":"post_office","phone":"+381 11 2522-808","ref":"11255","name:sr-Latn":"11255 Sremčica","addr:pak":"175197","addr:street":"Београдска"},"geometry":{"type":"Point","coordinates":[20.3816858044234,44.6888990715599]}}]}