{"type":"FeatureCollection","features":[{"type":"Feature","properties":{"name:sr":"11250 Београд 92","opening_hours":"Mo-Fr 08:00-19:00; Sa 08:00-15:00; PH off","addr:housenumber":"23","name":"11250 Београд 92","amenity":"post_office","phone":"+381 11 2572-212;+381 11 3535-143","ref":"11250","name:sr-Latn":"11250 Beograd 92","addr:pak":"172141","addr:street":"Авалска"},"geometry":{"type":"Point","coordinates":[20.383324398862,44.7290642221488]}},{"type":"Feature","properties":{"name:sr":"11251 Остружница","opening_hours":"Mo-Fr 07:30-14:00; PH off","addr:housenumber":"14","name":"11251 Остружница","amenity":"post_office","phone":"+381 11 8070-468","ref":"11251","name:sr-Latn":"11251 Ostružnica","addr:pak":"179603","addr:street":"Карађорђева"},"geometry":{"type":"Point","coordinates":[20.316427155922,44.7304324070604]}},{"type":"Feature","properties":{"name:sr":"11077 Београд 99","opening_hours":"Mo-Fr 08:00-19:00; Sa 08:00-15:00; PH off","addr:housenumber":"25","name":"11077 Београд 99","amenity":"post_office","phone":"+381 11 3714-072;+381 11 3714-073","ref":"11077","name:sr-Latn":"11077 Beograd 99","addr:pak":"192045","addr:street":"Партизанске авијације"},"geometry":{"type":"Point","coordinates":[20.3870763783306,44.8199724210405]}},{"type":"Feature","properties":{"name:sr":"11271 Сурчин","opening_hours":"Mo-Fr 08:00-19:00; Sa 08:00-14:00; PH off","addr:housenumber":"73","name":"11271 Сурчин","amenity":"post_office","phone":"+381 11 3718-005;+381 11 8440-389","ref":"11271","name:sr-Latn":"11271 Surčin","addr:pak":"201802","addr:street":"Војвођанска"},"geometry":{"type":"Point","coordinates":[20.2690576314932,44.7910656149513]}},{"type":"Feature","properties":{"name:sr":"11272 Добановци","opening_hours":"Mo-Fr 08:00-18:30; Sa 08:00-14:00; PH off","addr:housenumber":"12","name":"11272 Добановци","amenity":"post_office","phone":"+381 11 3718-006;+381 11 8467-269","ref":"11272","name:sr-Latn":"11272 Dobanovci","addr:pak":"201619","addr:street":"Угриновачка"},"geometry":{"type":"Point","coordinates":[20.2223284862502,44.8286578256356]}},{"type":"Feature","properties":{"name:sr":"11275 Бољевци","opening_hours":"Mo-Fr 08:00-14:00; PH off","addr:housenumber":"2","name":"11275 Бољевци","amenity":"post_office","phone":"+381 11 3718-012;+381 11 8403-460","ref":"11275","name:sr-Latn":"11275 Boljevci","addr:pak":"202123","addr:street":"Браће Кокар"},"geometry":{"type":"Point","coordinates":[20.2170810464924,44.722774603558]}},{"type":"Feature","properties":{"name:sr":"11276 Јаково","opening_hours":"Mo-Fr 08:00-14:00; PH off","addr:housenumber":"12","name":"11276 Јаково","amenity":"post_office","phone":"+381 11 3718-013;+381 11 8416-610","ref":"11276","name:sr-Latn":"11276 Jakovo","addr:pak":"202042","addr:street":"Проте Стаматовића"},"geometry":{"type":"Point","coordinates":[20.2605372231527,44.753339402779]}},{"type":"Feature","properties":{"name:sr":"11254 Београд 121","opening_hours":"Mo-Fr 09:00-15:00; Sa 09:00-13:00; PH off","addr:housenumber":"156","name":"11254 Београд 121","amenity":"post_office","phone":"+381 11 2571-880","ref":"11254","name:sr-Latn":"11254 Beograd 121","addr:pak":"172264","addr:street":"Лоле Рибара"},"geometry":{"type":"Point","coordinates":[20.3684080138483,44.7269534281953]}},{"type":"Feature","properties":{"name:sr":"11174 Београд 43","opening_hours":"Mo-Fr 09:00-16:00; PH off","addr:housenumber":"221","name":"11174 Београд 43","amenity":"post_office","phone":"+381 11 3714-095;+381 11 6159-040","ref":"11174","name:sr-Latn":"11174 Beograd 43","addr:pak":"191254","addr:street":"Јурија Гагарина"},"geometry":{"type":"Point","coordinates":[20.3771183196923,44.7975043314933]}},{"type":"Feature","properties":{"name:sr":"11180 Београд 59","opening_hours":"Mo-Fr 00:00-19:00,19:10-24:00; Sa 00:00-19:00; Sa 19:10-24:00; Su 00:00-19:00; Su 19:10-24:00; PH 00:00-19:00; PH 19:10-24:00","addr:housenumber":"1","name":"11180 Београд 59","amenity":"post_office","phone":"+381 11 2281-027","ref":"11180","name:sr-Latn":"11180 Beograd 59","addr:pak":"201970","addr:street":"Аеродром Београд"},"geometry":{"type":"Point","coordinates":[20.2917930127153,44.8199418710486]}},{"type":"Feature","properties":{"name:sr":"11188 Београд 67","opening_hours":"Mo-Fr 08:00-19:00; Sa 08:00-14:00; PH off","addr:housenumber":"91","name":"11188 Београд 67","amenity":"post_office","phone":"+381 11 3718-001;+381 11 3175-619","ref":"11188","name:sr-Latn":"11188 Beograd 67","addr:pak":"192918","addr:street":"Др Ивана Рибара"},"geometry":{"type":"Point","coordinates":[20.3710962304846,44.8012600824764]}},{"type":"Feature","properties":{"name:sr":"11199 Београд 124","opening_hours":"Mo-Fr 08:00-15:00; PH off","addr:housenumber":"ББ","name":"11199 Београд 124","amenity":"post_office","phone":"+381 11 3718-023","ref":"11199","name:sr-Latn":"11199 Beograd 124","addr:pak":"193198","addr:street":"Аутопут за Нови Сад"},"geometry":{"type":"Point","coordinates":[20.360265710885,44.8282490894944]}},{"type":"Feature","properties":{"name:sr":"11184 Београд 83","opening_hours":"Mo-Fr 08:00-15:00; PH off","addr:housenumber":"71А","name":"11184 Београд 83","amenity":"post_office","phone":"+381 11 2196-585","ref":"11184","name:sr-Latn":"11184 Beograd 83","addr:pak":"200855","addr:street":"Крајишка"},"geometry":{"type":"Point","coordinates":[20.3688887147688,44.8401534689203]}},{"type":"Feature","properties":{"name:sr":"11175 Београд 94","opening_hours":"Mo-Fr 08:30-15:30; PH off","addr:housenumber":"13","name":"11175 Београд 94","amenity":"post_office","phone":"+381 11 2279-038","ref":"11175","name:sr-Latn":"11175 Beograd 94","addr:pak":"192511","addr:street":"Пере Сегединца"},"geometry":{"type":"Point","coordinates":[20.3782706082053,44.8098821454814]}},{"type":"Feature","properties":{"name:sr":"11178 Београд 95","opening_hours":"Mo-Fr 08:00-18:00; Sa 08:00-13:30; PH off","addr:housenumber":"ББ","name":"11178 Београд 95","amenity":"post_office","phone":"+381 11 2273-083","ref":"11178","name:sr-Latn":"11178 Beograd 95","addr:pak":"192499","addr:street":"Обреновачка"},"geometry":{"type":"Point","coordinates":[20.3487263215997,44.8047036385811]}},{"type":"Feature","properties":{"amenity":"post_office","name":"11071 Београд 125","name:sr":"11071 Београд 125","name:sr-Latn":"11071 Beograd 125","ref":"11071","opening_hours":"Mo-Fr 07:30-14:30; PH off","phone":"+381 11 2690-220","addr:pak":"200759"},"geometry":{"type":"Point","coordinates":[20.3829645646519,44.8312850953285]}},{"type":"Feature","properties":{"name:sr":"11196 Београд 116","opening_hours":"Mo-Sa 08:00-19:00; Su 09:00-16:00; PH 08:00-19:00","addr:housenumber":"21","name":"11196 Београд 116","amenity":"post_office","phone":"+381 11 3718-002;+381 11 2289-102","ref":"11196","name:sr-Latn":"11196 Beograd 116","addr:pak":"192605","addr:street":"Гандијева"},"geometry":{"type":"Point","coordinates":[20.3860288312273,44.8078000174328]}},{"type":"Feature","properties":{"name:sr":"11197 Београд 119","opening_hours":"Mo-Sa 08:00-19:00; PH off","addr:housenumber":"153А","name":"11197 Београд 119","amenity":"post_office","phone":"+381 11 3718-017;+381 11 3181-513","ref":"11197","name:sr-Latn":"11197 Beograd 119","addr:pak":"191208","addr:street":"Јурија Гагарина"},"geometry":{"type":"Point","coordinates":[20.3859203976518,44.8015696500291]}},{"type":"Feature","properties":{"name:sr":"11073 Београд 129","opening_hours":"Mo-Fr 08:00-19:00; Sa 08:00-14:00; PH off","addr:housenumber":"94","name":"11073 Београд 129","amenity":"post_office","phone":"+381 11 3714-090;+381 11 3714-046","ref":"11073","name:sr-Latn":"11073 Beograd 129","addr:pak":"192780","addr:street":"Јурија Гагарина"},"geometry":{"type":"Point","coordinates":[20.378678336792,44.8035731253821]}},{"type":"Feature","properties":{"name:sr":"11076 Београд 134","opening_hours":"Mo-Fr 09:00-16:00; PH off","addr:housenumber":"22А","name":"11076 Београд 134","amenity":"post_office","phone":"+381 11 3718-009;+381 11 7701-207","ref":"11076","name:sr-Latn":"11076 Beograd 134","addr:pak":"192110","addr:street":"Недељка Гвозденовића"},"geometry":{"type":"Point","coordinates":[20.3703354843162,44.8124168897622]}},{"type":"Feature","properties":{"name:sr":"11078 Београд 140","opening_hours":"Mo-Sa 08:00-20:00; Su 09:30-16:30; PH 08:00-20:00","addr:housenumber":"68Б","name":"11078 Београд 140","amenity":"post_office","phone":"+381 11 2283-681","ref":"11078","name:sr-Latn":"11078 Beograd 140","addr:pak":"192790","addr:street":"Нехруова"},"geometry":{"type":"Point","coordinates":[20.3771319217036,44.80399621771]}}]}