{"type":"FeatureCollection","features":[{"type":"Feature","properties":{"name:sr":"11273 Београд 87","opening_hours":"Mo-Fr 08:00-19:00; Sa 08:00-14:00; PH off","addr:housenumber":"1","name":"11273 Београд 87","amenity":"post_office","phone":"+381 11 3718-007;+381 11 7870-300","ref":"11273","name:sr-Latn":"11273 Beograd 87","addr:pak":"201375","addr:street":"Бихаћка"},"geometry":{"type":"Point","coordinates":[20.2918609833127,44.8937417775852]}},{"type":"Feature","properties":{"name:sr":"11277 Угриновци","opening_hours":"Mo-Fr 08:00-18:00; Sa 08:00-13:30; PH off","addr:housenumber":"1","name":"11277 Угриновци","amenity":"post_office","phone":"+381 11 3718-014;+381 11 8409-602","ref":"11277","name:sr-Latn":"11277 Ugrinovci","addr:pak":"201539","addr:street":"Косанчић Ивана"},"geometry":{"type":"Point","coordinates":[20.1868699316184,44.8762992755728]}},{"type":"Feature","properties":{"name:sr":"22300 Стара Пазова","opening_hours":"Mo-Fr 08:00-19:00; Sa 08:00-14:00; PH off","addr:housenumber":"4","name":"22300 Стара Пазова","amenity":"post_office","phone":"+381 22 600-681;+381 22 310-574;+381 22 600-694","ref":"22300","name:sr-Latn":"22300 Stara Pazova","addr:pak":"340519","addr:street":"Краља Петра Првог Карађорђевића"},"geometry":{"type":"Point","coordinates":[20.1588746644113,44.9854599605505]}},{"type":"Feature","properties":{"amenity":"post_office","name":"22303 Бановци-дунав","name:sr":"22303 Бановци-дунав","name:sr-Latn":"22303 Banovci-dunav","ref":"22303","opening_hours":"Mo-Fr 08:00-19:00; Sa 08:00-13:00; PH off","phone":"+381 22 600-682;+381 22 600-711","addr:pak":"342516"},"geometry":{"type":"Point","coordinates":[20.2806797098514,44.967893734975]}},{"type":"Feature","properties":{"name:sr":"22306 Белегиш","opening_hours":"Mo-Fr 08:00-14:00; PH off","addr:housenumber":"38","name":"22306 Белегиш","amenity":"post_office","phone":"+381 22 361-386","ref":"22306","name:sr-Latn":"22306 Belegiš","addr:pak":"343157","addr:street":"Краља Петра првог"},"geometry":{"type":"Point","coordinates":[20.3326192519259,45.0189740945238]}},{"type":"Feature","properties":{"name:sr":"22307 Сурдук","opening_hours":"Mo-Fr 07:00-14:00; PH off","addr:housenumber":"22","name":"22307 Сурдук","amenity":"post_office","phone":"+381 22 371210","ref":"22307","name:sr-Latn":"22307 Surduk","addr:pak":"343355","addr:street":"Цара Лазара"},"geometry":{"type":"Point","coordinates":[20.3233449981184,45.072562133297]}},{"type":"Feature","properties":{"name:sr":"22308 Голубинци","opening_hours":"Mo-Fr 07:30-13:30; Sa 08:00-12:00; PH off","addr:housenumber":"18","name":"22308 Голубинци","amenity":"post_office","phone":"+381 22 381-810;+381 22 600-706","ref":"22308","name:sr-Latn":"22308 Golubinci","addr:pak":"343505","addr:street":"Путиначка"},"geometry":{"type":"Point","coordinates":[20.0633683959085,44.9846935790632]}},{"type":"Feature","properties":{"name:sr":"22310 Шимановци","opening_hours":"Mo-Fr 08:00-14:00; Sa 07:00-12:00; PH off","addr:housenumber":"2","name":"22310 Шимановци","amenity":"post_office","phone":"+381 22 600-692;+381 22 480-018","ref":"22310","name:sr-Latn":"22310 Šimanovci","addr:pak":"339640","addr:street":"Прховачка"},"geometry":{"type":"Point","coordinates":[20.0889260682957,44.8748934487166]}},{"type":"Feature","properties":{"name:sr":"22313 Војка","opening_hours":"Mo-Fr 08:00-13:30; Sa 08:00-11:00; PH off","addr:housenumber":"3","name":"22313 Војка","amenity":"post_office","phone":"+381 22 2301-010;+381 22 600-713","ref":"22313","name:sr-Latn":"22313 Vojka","addr:pak":"344152","addr:street":"Цара Душана"},"geometry":{"type":"Point","coordinates":[20.1512829225706,44.9364350457423]}},{"type":"Feature","properties":{"name:sr":"22314 Крњешевци","opening_hours":"Mo-Fr 07:00-10:30; PH off","addr:housenumber":"21","name":"22314 Крњешевци","amenity":"post_office","phone":"+381 22 2391-110","ref":"22314","name:sr-Latn":"22314 Krnješevci","addr:pak":"344328","addr:street":"Војачка"},"geometry":{"type":"Point","coordinates":[20.1380696635354,44.8909462561738]}},{"type":"Feature","properties":{"name:sr":"22320 Инђија","opening_hours":"Mo-Fr 08:00-19:00; Sa 08:00-14:00; PH off","addr:housenumber":"14","name":"22320 Инђија","amenity":"post_office","phone":"+381 22 600-683;+381 22 561-383","ref":"22320","name:sr-Latn":"22320 Inđija","addr:pak":"346803","addr:street":"Војводе Степе"},"geometry":{"type":"Point","coordinates":[20.0832395114356,45.0489047132434]}},{"type":"Feature","properties":{"name:sr":"22322 Нови Карловци","opening_hours":"Mo-Fr 07:00-14:00; PH off","addr:housenumber":"24","name":"22322 Нови Карловци","amenity":"post_office","phone":"+381 22 584-411","ref":"22322","name:sr-Latn":"22322 Novi Karlovci","addr:pak":"348366","addr:street":"Главна"},"geometry":{"type":"Point","coordinates":[20.1780792342244,45.0789372461826]}},{"type":"Feature","properties":{"name:sr":"22330 Нова Пазова","opening_hours":"Mo-Fr 08:00-19:00; Sa 08:00-13:00; PH off","addr:housenumber":"6","name":"22330 Нова Пазова","amenity":"post_office","phone":"+381 22 600-685;+381 22 322-699","ref":"22330","name:sr-Latn":"22330 Nova Pazova","addr:pak":"344904","addr:street":"Цара Душана"},"geometry":{"type":"Point","coordinates":[20.2186588421425,44.9451154550661]}},{"type":"Feature","properties":{"name:sr":"22319 Инђија","opening_hours":"Mo-Fr 07:30-14:30; PH off","addr:housenumber":"1","name":"22319 Инђија","amenity":"post_office","phone":"+381 22 561-154","ref":"22319","name:sr-Latn":"22319 Inđija","addr:pak":"346427","addr:street":"Мирослава Антића"},"geometry":{"type":"Point","coordinates":[20.0734710893653,45.0429915874209]}},{"type":"Feature","properties":{"name:sr":"11186 Београд 85","opening_hours":"Mo-Fr 08:00-19:00; Sa 08:00-14:00; PH off","addr:housenumber":"34","name":"11186 Београд 85","amenity":"post_office","phone":"+381 11 3714-099;+381 11 6619-331","ref":"11186","name:sr-Latn":"11186 Beograd 85","addr:pak":"201026","addr:street":"Момчила Радивојевића"},"geometry":{"type":"Point","coordinates":[20.3698077037382,44.8571143556451]}},{"type":"Feature","properties":{"name:sr":"11190 Београд 100","opening_hours":"Mo-Fr 08:00-15:00; PH off","addr:housenumber":"11А","name":"11190 Београд 100","amenity":"post_office","phone":"+381 11 2100-352","ref":"11190","name:sr-Latn":"11190 Beograd 100","addr:pak":"200636","addr:street":"Бачка"},"geometry":{"type":"Point","coordinates":[20.3805914741975,44.8465881875578]}},{"type":"Feature","properties":{"name:sr":"22304 Нови Бановци","opening_hours":"Mo-Fr 07:00-14:00; PH off","addr:housenumber":"91","name":"22304 Нови Бановци","amenity":"post_office","phone":"+381 22 341-310","ref":"22304","name:sr-Latn":"22304 Novi Banovci","addr:pak":"342339","addr:street":"Светосавска"},"geometry":{"type":"Point","coordinates":[20.280967165943,44.9563932139591]}},{"type":"Feature","properties":{"name:sr":"22305 Стари Бановци","opening_hours":"Mo-Fr 07:00-14:00; PH off","addr:housenumber":"9","name":"22305 Стари Бановци","amenity":"post_office","phone":"+381 22 351-210;+381 22 600-712","ref":"22305","name:sr-Latn":"22305 Stari Banovci","addr:pak":"342425","addr:street":"Грчка"},"geometry":{"type":"Point","coordinates":[20.2836523954116,44.9831305477939]}},{"type":"Feature","properties":{"name:sr":"11183 Београд 82","opening_hours":"Mo-Fr 08:30-15:30; PH off","addr:housenumber":"214","name":"11183 Београд 82","amenity":"post_office","phone":"+381 11 2191-478;+381 11 3752-277","ref":"11183","name:sr-Latn":"11183 Beograd 82","addr:pak":"200430","addr:street":"Цара Душана"},"geometry":{"type":"Point","coordinates":[20.3848599812871,44.8563295849301]}},{"type":"Feature","properties":{"amenity":"post_office","name":"11185 Београд 84","name:sr":"11185 Београд 84","name:sr-Latn":"11185 Beograd 84","ref":"11185","opening_hours":"Mo-Fr 08:00-19:00; Sa 08:00-14:00; PH off","phone":"+381 11 3714-098;+381 11 3752-770","addr:pak":"201161"},"geometry":{"type":"Point","coordinates":[20.3251006705677,44.8708960230881]}},{"type":"Feature","properties":{"name:sr":"11281 Београд 108","opening_hours":"Mo-Fr 09:00-16:00; PH off","addr:housenumber":"10","name":"11281 Београд 108","amenity":"post_office","phone":"+381 11 3718-024;+381 11 7874-204","ref":"11281","name:sr-Latn":"11281 Beograd 108","addr:pak":"201203","addr:street":"Јована Бранковића"},"geometry":{"type":"Point","coordinates":[20.2760801261511,44.9069041178736]}},{"type":"Feature","properties":{"name:sr":"11283 Београд 135","opening_hours":"Mo-Fr 08:00-19:00; Sa 08:00-14:00; PH off","addr:housenumber":"25","name":"11283 Београд 135","amenity":"post_office","phone":"+381 11 3718-008;+381 11 3718-019","ref":"11283","name:sr-Latn":"11283 Beograd 135","addr:pak":"200948","addr:street":"Борхесова"},"geometry":{"type":"Point","coordinates":[20.3492812284062,44.8513903336859]}},{"type":"Feature","properties":{"name:sr":"11284 Бусије","opening_hours":"Mo-Fr 08:00-14:00; Sa 09:00-13:00; PH off","addr:housenumber":"2","name":"11284 Бусије","amenity":"post_office","phone":"+381 11 6304-028","ref":"11284","name:sr-Latn":"11284 Busije","addr:pak":"203028","addr:street":"Стефана Кнежевића"},"geometry":{"type":"Point","coordinates":[20.2285493893196,44.8983459513917]}},{"type":"Feature","properties":{"name:sr":"11084 Београд 146","opening_hours":"Mo-Fr 08:00-19:00; Sa 08:00-14:00; PH off","addr:housenumber":"210Б","name":"11084 Београд 146","amenity":"post_office","phone":"+381 11 3714-083;+381 11 3714-084","ref":"11084","name:sr-Latn":"11084 Beograd 146","addr:pak":"200020","addr:street":"Угриновачка"},"geometry":{"type":"Point","coordinates":[20.3754560620711,44.8494206286842]}}]}