{"type":"FeatureCollection","features":[{"type":"Feature","properties":{"name:sr":"22323 Нови Сланкамен","opening_hours":"Mo-Fr 07:00-14:00; PH off","addr:housenumber":"123","name":"22323 Нови Сланкамен","amenity":"post_office","phone":"+381 22 591-611","ref":"22323","name:sr-Latn":"22323 Novi Slankamen","addr:pak":"348510","addr:street":"Цара Душана"},"geometry":{"type":"Point","coordinates":[20.2394494658074,45.1256706957157]}},{"type":"Feature","properties":{"name:sr":"22324 Бешка","opening_hours":"Mo-Fr 08:00-14:00; Sa 08:00-13:00; PH off","addr:housenumber":"5","name":"22324 Бешка","amenity":"post_office","phone":"+381 22 600-700","ref":"22324","name:sr-Latn":"22324 Beška","addr:pak":"348702","addr:street":"Краља Петра првог"},"geometry":{"type":"Point","coordinates":[20.0659653834719,45.1298526457365]}},{"type":"Feature","properties":{"name:sr":"22325 Крчедин","opening_hours":"Mo-Fr 07:00-14:00; PH off","addr:housenumber":"2","name":"22325 Крчедин","amenity":"post_office","phone":"+381 22 2500-311","ref":"22325","name:sr-Latn":"22325 Krčedin","addr:pak":"349304","addr:street":"Наде Јаношевић"},"geometry":{"type":"Point","coordinates":[20.1325841376475,45.1402095263939]}},{"type":"Feature","properties":{"name:sr":"22329 Стари Сланкамен","opening_hours":"Mo-Fr 07:00-10:30; PH off","addr:housenumber":"21","name":"22329 Стари Сланкамен","amenity":"post_office","phone":"+381 22 2591-490","ref":"22329","name:sr-Latn":"22329 Stari Slankamen","addr:pak":"349905","addr:street":"др Боривоја Гњатића"},"geometry":{"type":"Point","coordinates":[20.2583347641624,45.141975715525]}},{"type":"Feature","properties":{"name:sr":"23205 Бело Блато","opening_hours":"Mo-Fr 07:30-14:00; PH off","addr:housenumber":"10","name":"23205 Бело Блато","amenity":"post_office","phone":"+381 23 889-948","ref":"23205","name:sr-Latn":"23205 Belo Blato","addr:pak":"357835","addr:street":"Бенешова"},"geometry":{"type":"Point","coordinates":[20.3743531861012,45.2727028099774]}},{"type":"Feature","properties":{"name:sr":"23260 Перлез","opening_hours":"Mo-Fr 07:30-13:30; Sa 08:00-12:00; PH off","addr:housenumber":"14","name":"23260 Перлез","amenity":"post_office","phone":"+381 23 3814-901","ref":"23260","name:sr-Latn":"23260 Perlez","addr:pak":"356021","addr:street":"Светосавска"},"geometry":{"type":"Point","coordinates":[20.3740662860153,45.2089073022647]}},{"type":"Feature","properties":{"name:sr":"23265 Книћанин","opening_hours":"Mo-Fr 08:00-14:30; PH off","addr:housenumber":"10","name":"23265 Книћанин","amenity":"post_office","phone":"+381 23 867-100","ref":"23265","name:sr-Latn":"23265 Knićanin","addr:pak":"356702","addr:street":"Карађорђева"},"geometry":{"type":"Point","coordinates":[20.3160648454623,45.1862169784113]}},{"type":"Feature","properties":{"name:sr":"23266 Чента","opening_hours":"Mo-Fr 08:00-14:00; Sa 08:00-12:00; PH off","addr:housenumber":"12","name":"23266 Чента","amenity":"post_office","phone":"+381 23 899-040","ref":"23266","name:sr-Latn":"23266 Čenta","addr:pak":"356501","addr:street":"Чарнојевићева"},"geometry":{"type":"Point","coordinates":[20.3845235298037,45.1060905649538]}},{"type":"Feature","properties":{"name:sr":"21239 Ђурђево","opening_hours":"Mo-Fr 08:00-14:00; Sa 09:00-13:00; PH off","addr:housenumber":"63","name":"21239 Ђурђево","amenity":"post_office","phone":"+381 21 4807-286","ref":"21239","name:sr-Latn":"21239 Đurđevo","addr:pak":"382701","addr:street":"Краља Петра првог"},"geometry":{"type":"Point","coordinates":[20.0657684631407,45.3235887946955]}},{"type":"Feature","properties":{"name:sr":"21240 Тител","opening_hours":"Mo-Fr 08:00-14:00; Sa 08:00-13:00; PH off","addr:housenumber":"2","name":"21240 Тител","amenity":"post_office","phone":"+381 21 2960-277;+381 21 2960-226","ref":"21240","name:sr-Latn":"21240 Titel","addr:pak":"386328","addr:street":"Змај Јовина"},"geometry":{"type":"Point","coordinates":[20.3059239246127,45.2043127103897]}},{"type":"Feature","properties":{"name:sr":"21244 Шајкаш","opening_hours":"Mo-Fr 08:00-14:00; Sa 09:00-13:00; PH off","addr:housenumber":"9","name":"21244 Шајкаш","amenity":"post_office","phone":"+381 21 2964-002","ref":"21244","name:sr-Latn":"21244 Šajkaš","addr:pak":"386810","addr:street":"Николе Тесле"},"geometry":{"type":"Point","coordinates":[20.0858327513691,45.2724156772295]}},{"type":"Feature","properties":{"name:sr":"21245 Мошорин","opening_hours":"Mo-Fr 08:00-14:00; PH off","addr:housenumber":"73","name":"21245 Мошорин","amenity":"post_office","phone":"+381 21 2969-002","ref":"21245","name:sr-Latn":"21245 Mošorin","addr:pak":"386701","addr:street":"Светозара Милетића"},"geometry":{"type":"Point","coordinates":[20.1758757994223,45.3007080222244]}},{"type":"Feature","properties":{"name:sr":"21246 Вилово","opening_hours":"Mo-Fr 08:00-11:00; PH off","addr:housenumber":"1Б","name":"21246 Вилово","amenity":"post_office","phone":"+381 21 2966-002","ref":"21246","name:sr-Latn":"21246 Vilovo","addr:pak":"386421","addr:street":"Жарка Зрењанина"},"geometry":{"type":"Point","coordinates":[20.1567982152384,45.2454362850784]}},{"type":"Feature","properties":{"name:sr":"21247 Гардиновци","opening_hours":"Mo-Fr 08:00-11:00; PH off","addr:housenumber":"43","name":"21247 Гардиновци","amenity":"post_office","phone":"+381 21 2968-002","ref":"21247","name:sr-Latn":"21247 Gardinovci","addr:pak":"386509","addr:street":"Краља Петра првог"},"geometry":{"type":"Point","coordinates":[20.1355316888188,45.20340835357]}},{"type":"Feature","properties":{"name:sr":"21248 Лок","opening_hours":"Mo-Fr 08:00-11:00; PH off","addr:housenumber":"13","name":"21248 Лок","amenity":"post_office","phone":"+381 21 2967-002","ref":"21248","name:sr-Latn":"21248 Lok","addr:pak":"386608","addr:street":"Бранка Радичевића"},"geometry":{"type":"Point","coordinates":[20.2074310286085,45.2167078234947]}}]}