{"type":"FeatureCollection","features":[{"type":"Feature","properties":{"amenity":"post_office","name":"23207 Арадац","name:sr":"23207 Арадац","name:sr-Latn":"23207 Aradac","ref":"23207","opening_hours":"Mo-Fr 07:30-13:30; Sa 07:30-11:30; PH off","phone":"+381 23 887-803","addr:pak":"354546"},"geometry":{"type":"Point","coordinates":[20.295671064802,45.3767205600578]}},{"type":"Feature","properties":{"name:sr":"23208 Елемир","opening_hours":"Mo-Fr 07:30-13:30; Sa 07:30-11:30; PH off","addr:housenumber":"32","name":"23208 Елемир","amenity":"post_office","phone":"+381 23 593-453","ref":"23208","name:sr-Latn":"23208 Elemir","addr:pak":"358004","addr:street":"Жарка Зрењанина"},"geometry":{"type":"Point","coordinates":[20.2998487412853,45.439447763717]}},{"type":"Feature","properties":{"name:sr":"23209 Тараш","opening_hours":"Mo-Fr 07:30-11:30; PH off","addr:housenumber":"57","name":"23209 Тараш","amenity":"post_office","phone":"+381 23 3735-500","ref":"23209","name:sr-Latn":"23209 Taraš","addr:pak":"358516","addr:street":"Маршала Тита"},"geometry":{"type":"Point","coordinates":[20.1960534725331,45.4668024805259]}},{"type":"Feature","properties":{"name:sr":"23270 Меленци","opening_hours":"Mo-Fr 07:30-13:30; Sa 08:00-12:00; PH off","addr:housenumber":"54","name":"23270 Меленци","amenity":"post_office","phone":"+381 23 593-457","ref":"23270","name:sr-Latn":"23270 Melenci","addr:pak":"355231","addr:street":"Српских владара"},"geometry":{"type":"Point","coordinates":[20.3173336988812,45.5141924972462]}},{"type":"Feature","properties":{"name:sr":"23271 Кумане","opening_hours":"Mo-Fr 07:30-13:30; Sa 07:30-11:30; PH off","addr:housenumber":"2","name":"23271 Кумане","amenity":"post_office","phone":"+381 23 786-118","ref":"23271","name:sr-Latn":"23271 Kumane","addr:pak":"366601","addr:street":"Трг Слободе"},"geometry":{"type":"Point","coordinates":[20.229656778794,45.5369349762147]}},{"type":"Feature","properties":{"name:sr":"21230 Жабаљ","opening_hours":"Mo-Fr 08:00-14:00; Sa 08:00-13:00; PH off","addr:housenumber":"60","name":"21230 Жабаљ","amenity":"post_office","phone":"+381 21 4807-097;+381 21 831-126","ref":"21230","name:sr-Latn":"21230 Žabalj","addr:pak":"382401","addr:street":"Николе Тесле"},"geometry":{"type":"Point","coordinates":[20.062551845578,45.3738591651823]}},{"type":"Feature","properties":{"name:sr":"21238 Чуруг","opening_hours":"Mo-Fr 08:00-14:00; Sa 09:00-13:00; PH off","addr:housenumber":"63","name":"21238 Чуруг","amenity":"post_office","phone":"+381 21 4807-096;+381 21 833-027","ref":"21238","name:sr-Latn":"21238 Čurug","addr:pak":"383084","addr:street":"Светог Саве"},"geometry":{"type":"Point","coordinates":[20.0694449784039,45.4723707209547]}},{"type":"Feature","properties":{"name:sr":"23108 Зрењанин","opening_hours":"Mo-Fr 07:30-19:00; Sa 07:30-14:00; PH off","addr:housenumber":"ББ","name":"23108 Зрењанин","amenity":"post_office","phone":"+381 23 593-451","ref":"23108","name:sr-Latn":"23108 Zrenjanin","addr:pak":"351205","addr:street":"Булевар Вељка Влаховића"},"geometry":{"type":"Point","coordinates":[20.3701171379669,45.3815660211459]}},{"type":"Feature","properties":{"name:sr":"23114 Зрењанин","opening_hours":"Mo-Fr 07:30-14:00; PH off","addr:housenumber":"1","name":"23114 Зрењанин","amenity":"post_office","phone":"+381 23 562-088","ref":"23114","name:sr-Latn":"23114 Zrenjanin","addr:pak":"352621","addr:street":"Кеј другог октобра"},"geometry":{"type":"Point","coordinates":[20.3892852037724,45.3784378585449]}},{"type":"Feature","properties":{"name:sr":"23110 Зрењанин","opening_hours":"Mo-Fr 07:30-14:30; PH off","addr:housenumber":"10","name":"23110 Зрењанин","amenity":"post_office","phone":"+381 23 530-890","ref":"23110","name:sr-Latn":"23110 Zrenjanin","addr:pak":"350101","addr:street":"Трг Слободе"},"geometry":{"type":"Point","coordinates":[20.3895522362534,45.3802263734157]}},{"type":"Feature","properties":{"name:sr":"23113 Зрењанин","opening_hours":"Mo,We,Fr 07:30-14:30; PH off","addr:housenumber":"94","name":"23113 Зрењанин","amenity":"post_office","phone":"+381 23 530-449","ref":"23113","name:sr-Latn":"23113 Zrenjanin","addr:pak":"350859","addr:street":"Жарка Зрењанина"},"geometry":{"type":"Point","coordinates":[20.3799362475835,45.392699475633]}},{"type":"Feature","properties":{"name:sr":"23117 Зрењанин","opening_hours":"Mo-Sa,PH 07:30-19:30","addr:housenumber":"ББ","name":"23117 Зрењанин","amenity":"post_office","phone":"+381 23 582-471","ref":"23117","name:sr-Latn":"23117 Zrenjanin","addr:pak":"351454","addr:street":"Јунака Милана Тепића"},"geometry":{"type":"Point","coordinates":[20.3644376634626,45.3798380626162]}}]}