{"type":"FeatureCollection","features":[{"type":"Feature","properties":{"name:sr":"24430 Ада","opening_hours":"Mo-Fr 07:00-19:00; Sa 07:00-13:00; PH off","addr:housenumber":"6","name":"24430 Ада","amenity":"post_office","phone":"+381 24 853-210;+381 24 852-199","ref":"24430","name:sr-Latn":"24430 Ada","addr:pak":"448302","addr:street":"Маршала Тита"},"geometry":{"type":"Point","coordinates":[20.1345303371769,45.796082843556]}},{"type":"Feature","properties":{"name:sr":"24435 Мол","opening_hours":"Mo-Fr 07:00-14:00; Sa 07:00-12:00; PH off","addr:housenumber":"61","name":"24435 Мол","amenity":"post_office","phone":"+381 24 862-000","ref":"24435","name:sr-Latn":"24435 Mol","addr:pak":"449229","addr:street":"Маршала Тита"},"geometry":{"type":"Point","coordinates":[20.1322820470331,45.7637294768339]}},{"type":"Feature","properties":{"name:sr":"23323 Иђош","opening_hours":"Mo-Fr 07:00-14:00; PH off","addr:housenumber":"20","name":"23323 Иђош","amenity":"post_office","phone":"+381 230 65-200","ref":"23323","name:sr-Latn":"23323 Iđoš","addr:pak":"372869","addr:street":"Светосавска"},"geometry":{"type":"Point","coordinates":[20.3168081834238,45.8217142664128]}},{"type":"Feature","properties":{"name:sr":"23325 Падеј","opening_hours":"Mo-Fr 07:00-14:00; PH off","addr:housenumber":"55","name":"23325 Падеј","amenity":"post_office","phone":"+381 230 75-500","ref":"23325","name:sr-Latn":"23325 Padej","addr:pak":"373140","addr:street":"Жарка Зрењанина"},"geometry":{"type":"Point","coordinates":[20.164202270116,45.8268628156009]}},{"type":"Feature","properties":{"name:sr":"23272 Нови Бечеј","opening_hours":"Mo-Fr 07:30-14:00; Sa 07:30-12:00; PH off","addr:housenumber":"27","name":"23272 Нови Бечеј","amenity":"post_office","phone":"+381 23 593-458","ref":"23272","name:sr-Latn":"23272 Novi Bečej","addr:pak":"365056","addr:street":"Маршала Тита"},"geometry":{"type":"Point","coordinates":[20.1360563340119,45.5974160588902]}},{"type":"Feature","properties":{"name:sr":"23273 Ново Милошево","opening_hours":"Mo-Fr 08:00-14:00; Sa 08:00-12:00; PH off","addr:housenumber":"7","name":"23273 Ново Милошево","amenity":"post_office","phone":"+381 23 593-459","ref":"23273","name:sr-Latn":"23273 Novo Miloševo","addr:pak":"366141","addr:street":"Маршала Тита"},"geometry":{"type":"Point","coordinates":[20.3051164608526,45.7196355124664]}},{"type":"Feature","properties":{"name:sr":"23274 Бочар","opening_hours":"Mo-Fr 07:30-14:00; PH off","addr:housenumber":"8","name":"23274 Бочар","amenity":"post_office","phone":"+381 23 789-240","ref":"23274","name:sr-Latn":"23274 Bočar","addr:pak":"366911","addr:street":"Војвођанска"},"geometry":{"type":"Point","coordinates":[20.2788100195927,45.7683340362345]}},{"type":"Feature","properties":{"name:sr":"21220 Бечеј","opening_hours":"Mo-Fr 08:00-19:00; Sa 08:00-14:00; PH off","addr:housenumber":"2","name":"21220 Бечеј","amenity":"post_office","phone":"+381 21 4807-075;+381 21 4807-081","ref":"21220","name:sr-Latn":"21220 Bečej","addr:pak":"380909","addr:street":"Данила Киша"},"geometry":{"type":"Point","coordinates":[20.0484320325034,45.6171889858597]}},{"type":"Feature","properties":{"name:sr":"21226 Бачко Петрово Село","opening_hours":"Mo-Fr 08:00-14:00; Sa 09:00-13:00; PH off","addr:housenumber":"12А","name":"21226 Бачко Петрово Село","amenity":"post_office","phone":"+381 21 803-002","ref":"21226","name:sr-Latn":"21226 Bačko Petrovo Selo","addr:pak":"381639","addr:street":"Патријарха Вићентија Проданова"},"geometry":{"type":"Point","coordinates":[20.0857226557972,45.7016818991861]}}]}