{"type":"FeatureCollection","features":[{"type":"Feature","properties":{"name:sr":"24400 Сента","opening_hours":"Mo-Fr 07:00-19:00; Sa 07:00-13:00; PH off","addr:housenumber":"2","name":"24400 Сента","amenity":"post_office","phone":"+381 24 815-700;+381 24 815-701;+381 24 815-707","ref":"24400","name:sr-Latn":"24400 Senta","addr:pak":"446692","addr:street":"Поштанска"},"geometry":{"type":"Point","coordinates":[20.0884909116301,45.9302500148784]}},{"type":"Feature","properties":{"amenity":"post_office","name":"24420 Кањижа","name:sr":"24420 Кањижа","name:sr-Latn":"24420 Kanjiža","ref":"24420","opening_hours":"Mo-Fr 07:00-19:00; Sa 07:00-13:00; PH off","phone":"+381 24 874-028;+381 24 873-400;+381 24 873-413","addr:pak":"444423"},"geometry":{"type":"Point","coordinates":[20.055693915159,46.0620112971103]}},{"type":"Feature","properties":{"name:sr":"24425 Адорјан","opening_hours":"Mo-Fr 07:00-10:00; PH off","addr:housenumber":"10","name":"24425 Адорјан","amenity":"post_office","phone":"+381 24 4884-158","ref":"24425","name:sr-Latn":"24425 Adorjan","addr:pak":"445605","addr:street":"Маршала Тита"},"geometry":{"type":"Point","coordinates":[20.0404226075913,46.0050496961673]}},{"type":"Feature","properties":{"name:sr":"23320 Чока","opening_hours":"Mo-Fr 07:00-13:00; Sa 07:00-10:00; PH off","addr:housenumber":"45","name":"23320 Чока","amenity":"post_office","phone":"+381 230 471-001","ref":"23320","name:sr-Latn":"23320 Čoka","addr:pak":"377101","addr:street":"Потиска"},"geometry":{"type":"Point","coordinates":[20.1398256034578,45.9375898094848]}},{"type":"Feature","properties":{"name:sr":"23324 Сајан","opening_hours":"Mo-Fr 07:00-11:30; PH off","addr:housenumber":"92","name":"23324 Сајан","amenity":"post_office","phone":"+381 230 66-000","ref":"23324","name:sr-Latn":"23324 Sajan","addr:pak":"372901","addr:street":"Велика"},"geometry":{"type":"Point","coordinates":[20.277696784223,45.8414967193461]}},{"type":"Feature","properties":{"name:sr":"23326 Остојићево","opening_hours":"Mo-Fr 07:00-14:00; PH off","addr:housenumber":"55","name":"23326 Остојићево","amenity":"post_office","phone":"+381 230 77-002","ref":"23326","name:sr-Latn":"23326 Ostojićevo","addr:pak":"373271","addr:street":"Маршала Тита"},"geometry":{"type":"Point","coordinates":[20.1682095201576,45.8894627798692]}},{"type":"Feature","properties":{"name:sr":"23327 Јазово","opening_hours":"Mo-Fr 07:00-11:00; PH off","addr:housenumber":"120","name":"23327 Јазово","amenity":"post_office","phone":"+381 230 78-700","ref":"23327","name:sr-Latn":"23327 Jazovo","addr:pak":"373301","addr:street":"Маршала Тита"},"geometry":{"type":"Point","coordinates":[20.2188465132801,45.8926831652207]}},{"type":"Feature","properties":{"name:sr":"23328 Црна Бара","opening_hours":"Mo,We,Fr 07:00-11:00; PH off","addr:housenumber":"48","name":"23328 Црна Бара","amenity":"post_office","phone":"+381 230 370-200","ref":"23328","name:sr-Latn":"23328 Crna Bara","addr:pak":"373401","addr:street":"ЈНА"},"geometry":{"type":"Point","coordinates":[20.2769604765097,45.972015865037]}},{"type":"Feature","properties":{"name:sr":"23329 Врбица","opening_hours":"Tu,Th 08:30-11:30; PH off","addr:housenumber":"40","name":"23329 Врбица","amenity":"post_office","phone":"+381 230 370-900","ref":"23329","name:sr-Latn":"23329 Vrbica","addr:pak":"373506","addr:street":"Дожа Ђерђа"},"geometry":{"type":"Point","coordinates":[20.3079563199542,46.010350125962]}},{"type":"Feature","properties":{"name:sr":"23330 Нови Кнежевац","opening_hours":"Mo-Fr 08:00-14:00; Sa 08:00-12:00; PH off","addr:housenumber":"8","name":"23330 Нови Кнежевац","amenity":"post_office","phone":"+381 230 82-840","ref":"23330","name:sr-Latn":"23330 Novi Kneževac","addr:pak":"375295","addr:street":"Краља Петра Првог Карађорђевића"},"geometry":{"type":"Point","coordinates":[20.0920281517171,46.0452702702102]}},{"type":"Feature","properties":{"name:sr":"23331 Санад","opening_hours":"Mo-Fr 07:00-11:30; PH off","addr:housenumber":"55","name":"23331 Санад","amenity":"post_office","phone":"+381 230 79-000","ref":"23331","name:sr-Latn":"23331 Sanad","addr:pak":"373607","addr:street":"Маршала Тита"},"geometry":{"type":"Point","coordinates":[20.1068055367257,45.9765984066504]}},{"type":"Feature","properties":{"name:sr":"23332 Банатско Аранђелово","opening_hours":"Mo-Fr 07:00-14:00; PH off","addr:housenumber":"93","name":"23332 Банатско Аранђелово","amenity":"post_office","phone":"+381 230 389-014","ref":"23332","name:sr-Latn":"23332 Banatsko Aranđelovo","addr:pak":"375533","addr:street":"Партизанска"},"geometry":{"type":"Point","coordinates":[20.2430068991751,46.0650360643448]}}]}