{"type":"FeatureCollection","features":[{"type":"Feature","properties":{"amenity":"post_office","name":"36306 Лукаре","name:sr":"36306 Лукаре","name:sr-Latn":"36306 Lukare","ref":"36306","opening_hours":"Mo-Fr 08:00-15:00; PH off","phone":"+381 20 433-045","addr:pak":"572601"},"geometry":{"type":"Point","coordinates":[20.4843598762857,43.068004966691]}},{"type":"Feature","properties":{"name:sr":"36309 Рибариће","opening_hours":"Mo-Fr 08:00-15:00; PH off","addr:housenumber":"ББ","name":"36309 Рибариће","amenity":"post_office","phone":"+381 20 821-066","ref":"36309","name:sr-Latn":"36309 Ribariće","addr:pak":"577001","addr:street":"Рибариће"},"geometry":{"type":"Point","coordinates":[20.4525775943646,42.9708214927]}},{"type":"Feature","properties":{"amenity":"post_office","name":"38228 ЗУБИН Поток","name:sr":"38228 ЗУБИН Поток","name:sr-Latn":"38228 ZUBIN Potok","ref":"38228","opening_hours":"Mo-Fr 08:00-15:00; Sa 07:00-12:00; PH off","phone":"+381 28 460-110;+381 28 460-010","addr:pak":"920102"},"geometry":{"type":"Point","coordinates":[20.6892894665731,42.9153191147423]}},{"type":"Feature","properties":{"amenity":"post_office","name":"38226 Брњак","name:sr":"38226 Брњак","name:sr-Latn":"38226 Brnjak","ref":"38226","opening_hours":"Mo-Su,PH 00:00-24:00","phone":"+381 20 313-015","addr:pak":"921044"},"geometry":{"type":"Point","coordinates":[20.5573614521023,42.9613430469256]}}]}