{"type":"FeatureCollection","features":[{"type":"Feature","properties":{"amenity":"post_office","name":"36300 Нови Пазар","name:sr":"36300 Нови Пазар","name:sr-Latn":"36300 Novi Pazar","ref":"36300","opening_hours":"Mo-Fr 07:00-19:00; Sa 08:00-15:00; PH off","phone":"+381 20 332-130;+381 20 313-155;+381 20 313-288","addr:pak":"570313"},"geometry":{"type":"Point","coordinates":[20.5149936396162,43.143344470644]}},{"type":"Feature","properties":{"amenity":"post_office","name":"36305 Дежева","name:sr":"36305 Дежева","name:sr-Latn":"36305 Deževa","ref":"36305","opening_hours":"Mo-Fr 07:30-14:30; PH off","phone":"+381 20 353-511","addr:pak":"572401"},"geometry":{"type":"Point","coordinates":[20.4789686743,43.203918056518]}},{"type":"Feature","properties":{"name:sr":"36350 Рашка","opening_hours":"Mo-Fr 07:00-19:00; Sa 07:00-14:00; PH off","addr:housenumber":"15","name":"36350 Рашка","amenity":"post_office","phone":"+381 36 303-128;+381 36 303-104;+381 36 303-105","ref":"36350","name:sr-Latn":"36350 Raška","addr:pak":"569001","addr:street":"Немањина"},"geometry":{"type":"Point","coordinates":[20.6139419615686,43.2860021752153]}},{"type":"Feature","properties":{"amenity":"post_office","name":"36352 Рашка","name:sr":"36352 Рашка","name:sr-Latn":"36352 Raška","ref":"36352","opening_hours":"Mo-Fr 07:00-19:00; Sa 07:00-14:00; PH off","phone":"+381 36 736-164","addr:pak":"569317"},"geometry":{"type":"Point","coordinates":[20.6204570621677,43.2821368279529]}},{"type":"Feature","properties":{"name:sr":"36302 Нови Пазар","opening_hours":"Mo-Fr 08:00-15:30; PH off","addr:housenumber":"1","name":"36302 Нови Пазар","amenity":"post_office","phone":"+381 20 315-190","ref":"36302","name:sr-Latn":"36302 Novi Pazar","addr:pak":"570434","addr:street":"Вељка Влаховића"},"geometry":{"type":"Point","coordinates":[20.5127860397766,43.1349955942097]}},{"type":"Feature","properties":{"name:sr":"36303 Нови Пазар","opening_hours":"Mo-Fr 07:00-19:00; Sa 08:00-14:00; PH off","addr:housenumber":"Х","name":"36303 Нови Пазар","amenity":"post_office","phone":"+381 20 315-191","ref":"36303","name:sr-Latn":"36303 Novi Pazar","addr:pak":"570204","addr:street":"АВНОЈ-а"},"geometry":{"type":"Point","coordinates":[20.5170662982778,43.142359272374]}},{"type":"Feature","properties":{"name:sr":"36316 Нови Пазар","opening_hours":"Mo-Fr 07:00-19:00; Sa 07:00-14:00; PH off","addr:housenumber":"12","name":"36316 Нови Пазар","amenity":"post_office","phone":"+381 20 382-151;+381 20 382-221","ref":"36316","name:sr-Latn":"36316 Novi Pazar","addr:pak":"570919","addr:street":"Кеј скопских жртава"},"geometry":{"type":"Point","coordinates":[20.5151432308179,43.1296887758814]}},{"type":"Feature","properties":{"amenity":"post_office","name":"38219 Лешак","name:sr":"38219 Лешак","name:sr-Latn":"38219 Lešak","ref":"38219","opening_hours":"Mo-Fr 07:00-15:00; PH off","phone":"+381 28 88-111","addr:pak":"901101"},"geometry":{"type":"Point","coordinates":[20.7406597786519,43.1673921166294]}},{"type":"Feature","properties":{"name:sr":"36318 Нови Пазар","opening_hours":"Mo-Fr 08:00-15:00; Sa 08:00-13:00; PH off","addr:housenumber":"246","name":"36318 Нови Пазар","amenity":"post_office","phone":"+381 20 315-848","ref":"36318","name:sr-Latn":"36318 Novi Pazar","addr:pak":"570811","addr:street":"Рифата Бурџевића"},"geometry":{"type":"Point","coordinates":[20.4962640600335,43.1396019370277]}},{"type":"Feature","properties":{"name:sr":"36319 Нови Пазар","opening_hours":"Mo-Fr 08:00-15:00; Sa 08:00-13:00; PH off","addr:housenumber":"41","name":"36319 Нови Пазар","amenity":"post_office","phone":"+381 20 387-122","ref":"36319","name:sr-Latn":"36319 Novi Pazar","addr:pak":"570910","addr:street":"Станимира Ђоковића"},"geometry":{"type":"Point","coordinates":[20.5073095767282,43.1293577798032]}},{"type":"Feature","properties":{"amenity":"post_office","name":"36322 Нови Пазар","name:sr":"36322 Нови Пазар","name:sr-Latn":"36322 Novi Pazar","ref":"36322","opening_hours":"Mo-Fr 08:00-15:00; PH off","phone":"+381 20 371-346","addr:pak":"571616"},"geometry":{"type":"Point","coordinates":[20.5291674601991,43.1649330539044]}},{"type":"Feature","properties":{"amenity":"post_office","name":"38221 Јариње","name:sr":"38221 Јариње","name:sr-Latn":"38221 Jarinje","ref":"38221","opening_hours":"Mo-Su,PH 00:00-24:00","phone":"+381 36 373-461","addr:pak":"901242"},"geometry":{"type":"Point","coordinates":[20.6952205191705,43.2205676539509]}}]}