{"type":"FeatureCollection","features":[{"type":"Feature","properties":{"amenity":"post_office","name":"36222 Рудно","name:sr":"36222 Рудно","name:sr-Latn":"36222 Rudno","ref":"36222","opening_hours":"Mo-Fr 08:00-11:00; PH off","phone":"+381 36 5437-075","addr:pak":"565818"},"geometry":{"type":"Point","coordinates":[20.4844140389808,43.4144859653793]}},{"type":"Feature","properties":{"name:sr":"36342 Ушће","opening_hours":"Mo-Fr 07:30-13:30; PH off","addr:housenumber":"13","name":"36342 Ушће","amenity":"post_office","phone":"+381 36 303-126;+381 36 5430-116","ref":"36342","name:sr-Latn":"36342 Ušće","addr:pak":"565303","addr:street":"Двадесеттрећег новембра"},"geometry":{"type":"Point","coordinates":[20.6181857150334,43.468106221019]}},{"type":"Feature","properties":{"amenity":"post_office","name":"36343 Студеница","name:sr":"36343 Студеница","name:sr-Latn":"36343 Studenica","ref":"36343","opening_hours":"Mo-Fr 08:00-14:00; PH off","phone":"+381 36 5436-411","addr:pak":"565601"},"geometry":{"type":"Point","coordinates":[20.5336772545887,43.4843105246317]}},{"type":"Feature","properties":{"name:sr":"36344 Баљевац","opening_hours":"Mo-Fr 07:30-14:00; PH off","addr:housenumber":"5","name":"36344 Баљевац","amenity":"post_office","phone":"+381 36 791-065","ref":"36344","name:sr-Latn":"36344 Baljevac","addr:pak":"568601","addr:street":"Бошка Бухе"},"geometry":{"type":"Point","coordinates":[20.6326507299563,43.3907030862783]}},{"type":"Feature","properties":{"name:sr":"36346 Брвеник","opening_hours":"Mo-Fr 08:00-11:30; PH off","addr:housenumber":"26","name":"36346 Брвеник","amenity":"post_office","phone":"+381 36 5498-220","ref":"36346","name:sr-Latn":"36346 Brvenik","addr:pak":"568803","addr:street":"Војводе Степе Степановића"},"geometry":{"type":"Point","coordinates":[20.6461204411773,43.3549587591964]}}]}