{"type":"FeatureCollection","features":[{"type":"Feature","properties":{"name:sr":"32210 Мрчајевци","opening_hours":"Mo-Fr 08:00-15:00; Sa 08:00-11:00; PH off","addr:housenumber":"ББ","name":"32210 Мрчајевци","amenity":"post_office","phone":"+381 32 304-088;+381 32 800-301","ref":"32210","name:sr-Latn":"32210 Mrčajevci","addr:pak":"525202","addr:street":"Милоја Стојановића"},"geometry":{"type":"Point","coordinates":[20.5281320199016,43.8672947634132]}},{"type":"Feature","properties":{"amenity":"post_office","name":"32212 Прељина","name:sr":"32212 Прељина","name:sr-Latn":"32212 Preljina","ref":"32212","opening_hours":"Mo-Fr 08:00-14:30; PH off","phone":"+381 32 304-086;+381 32 381-994","addr:pak":"525304"},"geometry":{"type":"Point","coordinates":[20.4065204261575,43.9145144697837]}},{"type":"Feature","properties":{"amenity":"post_office","name":"32213 Бресница","name:sr":"32213 Бресница","name:sr-Latn":"32213 Bresnica","ref":"32213","opening_hours":"Mo-Fr 08:00-14:00; PH off","phone":"+381 32 804-120","addr:pak":"525401"},"geometry":{"type":"Point","coordinates":[20.5905599085925,43.873723379269]}},{"type":"Feature","properties":{"amenity":"post_office","name":"32215 Горња Трепча","name:sr":"32215 Горња Трепча","name:sr-Latn":"32215 Gornja Trepča","ref":"32215","opening_hours":"Mo-Fr 08:00-14:30; PH off","phone":"+381 32 822-380","addr:pak":"525502"},"geometry":{"type":"Point","coordinates":[20.4851469177247,43.9521670020573]}},{"type":"Feature","properties":{"amenity":"post_office","name":"32223 Заблаће","name:sr":"32223 Заблаће","name:sr-Latn":"32223 Zablaće","ref":"32223","opening_hours":"Mo-Fr 08:00-14:30; PH off","phone":"+381 32 5813-001","addr:pak":"525701"},"geometry":{"type":"Point","coordinates":[20.4371464095871,43.840622003211]}},{"type":"Feature","properties":{"name:sr":"32300 Горњи Милановац 1","opening_hours":"Mo-Fr 08:00-19:00; Sa 08:00-16:00; PH off","addr:housenumber":"1","name":"32300 Горњи Милановац 1","amenity":"post_office","phone":"+381 32 304-079;+381 32 304-067;+381 32 716-058","ref":"32300","name:sr-Latn":"32300 Gornji Milanovac 1","addr:pak":"526124","addr:street":"Хероја Дражевића"},"geometry":{"type":"Point","coordinates":[20.4607893366961,44.0223012341571]}},{"type":"Feature","properties":{"name:sr":"32303 Брђани","opening_hours":"Mo-Fr 07:00-13:00; PH off","addr:housenumber":"ББ","name":"32303 Брђани","amenity":"post_office","phone":"+381 32 738-666","ref":"32303","name:sr-Latn":"32303 Brđani","addr:pak":"528101","addr:street":"Брђани"},"geometry":{"type":"Point","coordinates":[20.4002729598634,43.9669754693987]}},{"type":"Feature","properties":{"amenity":"post_office","name":"32315 Враћевшница","name:sr":"32315 Враћевшница","name:sr-Latn":"32315 Vraćevšnica","ref":"32315","opening_hours":"Mo-Fr 07:30-14:00; PH off","phone":"+381 32 5733-300","addr:pak":"529001"},"geometry":{"type":"Point","coordinates":[20.6195923457192,44.0405740178217]}},{"type":"Feature","properties":{"name:sr":"34205 Баре","opening_hours":"Mo-Fr 08:00-14:00; PH off","addr:housenumber":"ББ","name":"34205 Баре","amenity":"post_office","phone":"+381 34 6796-222","ref":"34205","name:sr-Latn":"34205 Bare","addr:pak":"558347","addr:street":"Баре"},"geometry":{"type":"Point","coordinates":[20.6875834915507,44.0460558148206]}},{"type":"Feature","properties":{"amenity":"post_office","name":"34240 Кнић","name:sr":"34240 Кнић","name:sr-Latn":"34240 Knić","ref":"34240","opening_hours":"Mo-Fr 08:00-16:00; Sa 07:00-14:00; PH off","phone":"+381 34 504-085;+381 34 510-125","addr:pak":"558002"},"geometry":{"type":"Point","coordinates":[20.7199578756112,43.9262965931834]}},{"type":"Feature","properties":{"amenity":"post_office","name":"34242 Бумбарево Брдо","name:sr":"34242 Бумбарево Брдо","name:sr-Latn":"34242 Bumbarevo Brdo","ref":"34242","opening_hours":"Mo-Fr 07:00-11:00; PH off","phone":"+381 34 6337820","addr:pak":"558606"},"geometry":{"type":"Point","coordinates":[20.63045298736,43.9024848944868]}},{"type":"Feature","properties":{"amenity":"post_office","name":"34243 Топоница","name:sr":"34243 Топоница","name:sr-Latn":"34243 Toponica","ref":"34243","opening_hours":"Mo-Fr 08:00-14:00; PH off","phone":"+381 34 519-139","addr:pak":"558707"},"geometry":{"type":"Point","coordinates":[20.6759113253147,43.9700565581067]}},{"type":"Feature","properties":{"name:sr":"32301 Горњи Милановац 2","opening_hours":"Mo-Fr 08:00-15:00; PH off","addr:housenumber":"2","name":"32301 Горњи Милановац 2","amenity":"post_office","phone":"+381 32 716-960","ref":"32301","name:sr-Latn":"32301 Gornji Milanovac 2","addr:pak":"526439","addr:street":"Цара Душана"},"geometry":{"type":"Point","coordinates":[20.4672470392823,44.0309120394497]}},{"type":"Feature","properties":{"amenity":"post_office","name":"32214 Прислоница","name:sr":"32214 Прислоница","name:sr-Latn":"32214 Prislonica","ref":"32214","opening_hours":"Mo-Fr 08:00-11:00; PH off","phone":"+381 32 5485-441","addr:pak":"525358"},"geometry":{"type":"Point","coordinates":[20.4333151152542,43.9506998427434]}}]}