{"type":"FeatureCollection","features":[{"type":"Feature","properties":{"name:sr":"32313 Рудник","opening_hours":"Mo-Fr 08:30-15:00; PH off","addr:housenumber":"34","name":"32313 Рудник","amenity":"post_office","phone":"+381 32 741-401","ref":"32313","name:sr-Latn":"32313 Rudnik","addr:pak":"528802","addr:street":"Карађорђева"},"geometry":{"type":"Point","coordinates":[20.4986673878123,44.1407288057479]}},{"type":"Feature","properties":{"name:sr":"14246 Белановица","opening_hours":"Mo-Fr 07:00-14:00; PH off","addr:housenumber":"2","name":"14246 Белановица","amenity":"post_office","phone":"+381 14 3449-908","ref":"14246","name:sr-Latn":"14246 Belanovica","addr:pak":"246405","addr:street":"Ломина"},"geometry":{"type":"Point","coordinates":[20.3957016817535,44.2479064983961]}},{"type":"Feature","properties":{"name:sr":"34300 Аранђеловац","opening_hours":"Mo-Fr 08:00-19:00; Sa 07:00-19:00; PH 08:00-14:00","addr:housenumber":"28","name":"34300 Аранђеловац","amenity":"post_office","phone":"+381 34 504-086;+381 34 504-087;+381 34 725-174","ref":"34300","name:sr-Latn":"34300 Aranđelovac","addr:pak":"540106","addr:street":"Илије Гарашанина"},"geometry":{"type":"Point","coordinates":[20.5544903356526,44.3097179021591]}},{"type":"Feature","properties":{"amenity":"post_office","name":"34301 Буковик","name:sr":"34301 Буковик","name:sr-Latn":"34301 Bukovik","ref":"34301","opening_hours":"Mo-Fr 07:00-14:00; PH off","phone":"+381 34 6742-125","addr:pak":"541801"},"geometry":{"type":"Point","coordinates":[20.5192683574425,44.3286977706561]}},{"type":"Feature","properties":{"amenity":"post_office","name":"34304 Бања","name:sr":"34304 Бања","name:sr-Latn":"34304 Banja","ref":"34304","opening_hours":"Mo-Fr 07:00-13:00; PH off","phone":"+381 34 6777-011","addr:pak":"542001"},"geometry":{"type":"Point","coordinates":[20.6186136571899,44.2819102422229]}},{"type":"Feature","properties":{"amenity":"post_office","name":"34305 Даросава","name:sr":"34305 Даросава","name:sr-Latn":"34305 Darosava","ref":"34305","opening_hours":"Mo-Fr 08:00-14:00; PH off","phone":"+381 34 6741-111","addr:pak":"542201"},"geometry":{"type":"Point","coordinates":[20.4593731088241,44.3369809521953]}},{"type":"Feature","properties":{"amenity":"post_office","name":"34308 Орашац","name:sr":"34308 Орашац","name:sr-Latn":"34308 Orašac","ref":"34308","opening_hours":"Mo-Fr 07:30-14:00; PH off","phone":"+381 34 6709-111","addr:pak":"542501"},"geometry":{"type":"Point","coordinates":[20.5874527873645,44.3342149132038]}},{"type":"Feature","properties":{"amenity":"post_office","name":"34309 Јеловик","name:sr":"34309 Јеловик","name:sr-Latn":"34309 Jelovik","ref":"34309","opening_hours":"Mo-Fr 07:00-11:00; PH off","phone":"+381 34 743-219","addr:pak":"542601"},"geometry":{"type":"Point","coordinates":[20.4551075172306,44.2648980418132]}},{"type":"Feature","properties":{"name:sr":"34310 Топола","opening_hours":"Mo-Fr 08:00-19:00; Sa 07:00-19:00; PH off","addr:housenumber":"27","name":"34310 Топола","amenity":"post_office","phone":"+381 34 504-146;+381 34 504-147","ref":"34310","name:sr-Latn":"34310 Topola","addr:pak":"543212","addr:street":"Булевар Вожда Карађорђа"},"geometry":{"type":"Point","coordinates":[20.6781079510774,44.2548631425462]}},{"type":"Feature","properties":{"amenity":"post_office","name":"34312 Белосавци","name:sr":"34312 Белосавци","name:sr-Latn":"34312 Belosavci","ref":"34312","opening_hours":"Mo-Fr 07:00-13:00; PH off","phone":"+381 34 6883-011","addr:pak":"544101"},"geometry":{"type":"Point","coordinates":[20.6903105013544,44.3281632694726]}},{"type":"Feature","properties":{"amenity":"post_office","name":"34314 Доња Шаторња","name:sr":"34314 Доња Шаторња","name:sr-Latn":"34314 Donja Šatornja","ref":"34314","opening_hours":"Mo-Fr 07:00-15:00; PH off","phone":"+381 34 6837-081","addr:pak":"544301"},"geometry":{"type":"Point","coordinates":[20.6051614292803,44.1937299709808]}},{"type":"Feature","properties":{"amenity":"post_office","name":"34318 Јарменовци","name:sr":"34318 Јарменовци","name:sr-Latn":"34318 Jarmenovci","ref":"34318","opening_hours":"Mo-Fr 07:00-13:00; PH off","phone":"+381 34 6828-011","addr:pak":"544408"},"geometry":{"type":"Point","coordinates":[20.543682961798,44.1846832416059]}},{"type":"Feature","properties":{"name:sr":"34323 Страгари","opening_hours":"Mo-Fr 08:00-14:00; PH off","addr:housenumber":"ББ","name":"34323 Страгари","amenity":"post_office","phone":"+381 34 522-073","ref":"34323","name:sr-Latn":"34323 Stragari","addr:pak":"557702","addr:street":"Танаска Рајића"},"geometry":{"type":"Point","coordinates":[20.6636695151016,44.1546739736025]}},{"type":"Feature","properties":{"name:sr":"34303 Аранђеловац","opening_hours":"Mo-Fr 07:00-15:00; PH off","addr:housenumber":"73","name":"34303 Аранђеловац","amenity":"post_office","phone":"+381 34 720-873","ref":"34303","name:sr-Latn":"34303 Aranđelovac","addr:pak":"540718","addr:street":"Књаза Милоша"},"geometry":{"type":"Point","coordinates":[20.5704044661934,44.3021863996803]}}]}