{"type":"FeatureCollection","features":[{"type":"Feature","properties":{"name:sr":"11194 Рушањ","opening_hours":"Mo-Fr 08:00-18:30; Sa 08:00-15:00; PH off","addr:housenumber":"27А","name":"11194 Рушањ","amenity":"post_office","phone":"+381 11 8000-021","ref":"11194","name:sr-Latn":"11194 Rušanj","addr:pak":"176715","addr:street":"Ослобођења"},"geometry":{"type":"Point","coordinates":[20.4363657042064,44.6830309661465]}},{"type":"Feature","properties":{"name:sr":"11223 Бели Поток","opening_hours":"Mo-Fr 07:30-15:00; Sa 08:00-13:00; PH off","addr:housenumber":"53","name":"11223 Бели Поток","amenity":"post_office","phone":"+381 11 3907-987","ref":"11223","name:sr-Latn":"11223 Beli Potok","addr:pak":"167607","addr:street":"Васе Чарапића"},"geometry":{"type":"Point","coordinates":[20.5195493703161,44.7059578660613]}},{"type":"Feature","properties":{"name:sr":"11225 Зуце","opening_hours":"Mo-Fr 08:00-14:00; Sa 08:00-12:00; PH off","addr:housenumber":"1","name":"11225 Зуце","amenity":"post_office","phone":"+381 11 8052-499","ref":"11225","name:sr-Latn":"11225 Zuce","addr:pak":"167414","addr:street":"Драгомира Мише Ђорђевића"},"geometry":{"type":"Point","coordinates":[20.5572772417426,44.6990511168721]}},{"type":"Feature","properties":{"name:sr":"11226 Пиносава","opening_hours":"Mo-Fr 07:30-14:30; Sa 08:00-13:00; PH off","addr:housenumber":"57","name":"11226 Пиносава","amenity":"post_office","phone":"+381 11 3908-244","ref":"11226","name:sr-Latn":"11226 Pinosava","addr:pak":"167718","addr:street":"Булевар патријарха Германа"},"geometry":{"type":"Point","coordinates":[20.5060829435522,44.7019696969954]}},{"type":"Feature","properties":{"name:sr":"11231 Београд 79","opening_hours":"Mo-Fr 08:00-19:00; Sa 08:00-14:00; PH off","addr:housenumber":"98А","name":"11231 Београд 79","amenity":"post_office","phone":"+381 11 8041-131;+381 11 3535-141","ref":"11231","name:sr-Latn":"11231 Beograd 79","addr:pak":"185302","addr:street":"Славка Миљковића"},"geometry":{"type":"Point","coordinates":[20.4575761142401,44.7128433615087]}},{"type":"Feature","properties":{"name:sr":"11232 Рипањ 1","opening_hours":"Mo-Fr 08:00-19:00; Sa 08:00-13:30; PH off","addr:housenumber":"1","name":"11232 Рипањ 1","amenity":"post_office","phone":"+381 11 3535-142;+381 11 8650-807","ref":"11232","name:sr-Latn":"11232 Ripanj 1","addr:pak":"168202","addr:street":"Ерчанска"},"geometry":{"type":"Point","coordinates":[20.5198419598012,44.6393126821248]}},{"type":"Feature","properties":{"name:sr":"11253 Сремчица","opening_hours":"Mo-Fr 08:00-19:00; Sa 08:00-14:30; PH off","addr:housenumber":"157А","name":"11253 Сремчица","amenity":"post_office","phone":"+381 11 3535-144;+381 11 2526-088","ref":"11253","name:sr-Latn":"11253 Sremčica","addr:pak":"175264","addr:street":"Београдска"},"geometry":{"type":"Point","coordinates":[20.391557816641,44.676815624947]}},{"type":"Feature","properties":{"name:sr":"11236 Београд 137","opening_hours":"Mo-Fr 08:00-15:00; Sa 08:00-13:00; PH off","addr:housenumber":"78","name":"11236 Београд 137","amenity":"post_office","phone":"+381 11 8042-329","ref":"11236","name:sr-Latn":"11236 Beograd 137","addr:pak":"185349","addr:street":"Александра Војиновића"},"geometry":{"type":"Point","coordinates":[20.44922138124,44.7047035328824]}}]}