{"type":"FeatureCollection","features":[{"type":"Feature","properties":{"name:sr":"11040 Београд 33","opening_hours":"Mo-Fr 08:00-19:00; Sa 08:00-15:00; PH off","addr:housenumber":"2А","name":"11040 Београд 33","amenity":"post_office","phone":"+381 11 2661-400;+381 11 3535-132","ref":"11040","name:sr-Latn":"11040 Beograd 33","addr:pak":"116363","addr:street":"Незнаног јунака"},"geometry":{"type":"Point","coordinates":[20.4583060510046,44.7762500835221]}},{"type":"Feature","properties":{"name:sr":"11090 Београд 75","opening_hours":"Mo-Fr 08:00-19:00; Sa 08:00-15:00; PH off","addr:housenumber":"8","name":"11090 Београд 75","amenity":"post_office","phone":"+381 11 3535-186;+381 11 3535-193","ref":"11090","name:sr-Latn":"11090 Beograd 75","addr:pak":"180657","addr:street":"Пилота Михаила Петровића"},"geometry":{"type":"Point","coordinates":[20.4360288478224,44.7457460151103]}},{"type":"Feature","properties":{"name:sr":"11147 Београд 104","opening_hours":"Mo-Fr 08:00-18:30; Sa 08:00-13:30; PH off","addr:housenumber":"1Г","name":"11147 Београд 104","amenity":"post_office","phone":"+381 11 3535-135;+381 11 6392-290","ref":"11147","name:sr-Latn":"11147 Beograd 104","addr:pak":"170344","addr:street":"Момчила Чедића"},"geometry":{"type":"Point","coordinates":[20.4064231462671,44.7519351406078]}},{"type":"Feature","properties":{"name:sr":"11137 Београд 73","opening_hours":"Mo-Fr 08:00-19:00; Sa 08:00-14:00; PH off","addr:housenumber":"28","name":"11137 Београд 73","amenity":"post_office","phone":"+381 11 2332-404;+381 11 2330352","ref":"11137","name:sr-Latn":"11137 Beograd 73","addr:pak":"180514","addr:street":"Патријарха Јоаникија"},"geometry":{"type":"Point","coordinates":[20.4239905278586,44.7390312881245]}},{"type":"Feature","properties":{"name:sr":"11148 Београд 60","opening_hours":"Mo-Fr 08:00-19:00; Sa 08:00-14:00; PH off","addr:housenumber":"24","name":"11148 Београд 60","amenity":"post_office","phone":"+381 11 3671-703;+381 11 3670-147","ref":"11148","name:sr-Latn":"11148 Beograd 60","addr:pak":"166368","addr:street":"Паунова"},"geometry":{"type":"Point","coordinates":[20.4764389057182,44.7567044026813]}},{"type":"Feature","properties":{"amenity":"post_office","name":"11165 Београд 76","name:sr":"11165 Београд 76","name:sr-Latn":"11165 Beograd 76","ref":"11165","opening_hours":"Mo-Fr 10:00-16:30; Sa 10:00-14:00; PH off","phone":"+381 11 2330-594;+381 11 2333-799","addr:pak":"180319"},"geometry":{"type":"Point","coordinates":[20.4222741176458,44.7312536307007]}},{"type":"Feature","properties":{"name:sr":"11193 Београд 61","opening_hours":"Mo-Fr 08:00-19:00; Sa 08:00-14:00; PH off","addr:housenumber":"15А","name":"11193 Београд 61","amenity":"post_office","phone":"+381 11 3510-882;+381 11 3535-137","ref":"11193","name:sr-Latn":"11193 Beograd 61","addr:pak":"180824","addr:street":"Борска"},"geometry":{"type":"Point","coordinates":[20.4527563321181,44.7486459345069]}},{"type":"Feature","properties":{"name:sr":"11191 Београд 49","opening_hours":"Mo-Fr 10:00-16:30; Sa 10:00-14:00; PH off","addr:housenumber":"42","name":"11191 Београд 49","amenity":"post_office","phone":"+381 11 3510-701","ref":"11191","name:sr-Latn":"11191 Beograd 49","addr:pak":"180808","addr:street":"Канарево брдо"},"geometry":{"type":"Point","coordinates":[20.4547439808687,44.7524539991613]}},{"type":"Feature","properties":{"name:sr":"11135 Београд 68","opening_hours":"Mo-Fr 10:00-16:30; Sa 10:00-14:00; PH off","addr:housenumber":"141","name":"11135 Београд 68","amenity":"post_office","phone":"+381 11 3535160;+381 11 2397-958","ref":"11135","name:sr-Latn":"11135 Beograd 68","addr:pak":"173823","addr:street":"Ратка Митровића"},"geometry":{"type":"Point","coordinates":[20.424310726064,44.75515935324]}},{"type":"Feature","properties":{"name:sr":"11139 Београд 103","opening_hours":"Mo-Fr 08:30-15:30; PH off","addr:housenumber":"102","name":"11139 Београд 103","amenity":"post_office","phone":"+381 11 3545-491;+381 11 3545-591","ref":"11139","name:sr-Latn":"11139 Beograd 103","addr:pak":"173622","addr:street":"Благоја Паровића"},"geometry":{"type":"Point","coordinates":[20.419436695109,44.7679936755984]}},{"type":"Feature","properties":{"name:sr":"11131 Београд 40","opening_hours":"Mo-Fr 08:00-19:00; Sa 08:00-14:00; PH off","addr:housenumber":"146","name":"11131 Београд 40","amenity":"post_office","phone":"+381 11 3535-133;+381 11 3554-924","ref":"11131","name:sr-Latn":"11131 Beograd 40","addr:pak":"173208","addr:street":"Пожешка"},"geometry":{"type":"Point","coordinates":[20.4133662287262,44.7749712535325]}},{"type":"Feature","properties":{"name:sr":"11192 Београд 50","opening_hours":"Mo-Fr 08:00-19:00; Sa 08:00-14:00; PH off","addr:housenumber":"28","name":"11192 Београд 50","amenity":"post_office","phone":"+381 11 2336-539;+381 11 2333-944","ref":"11192","name:sr-Latn":"11192 Beograd 50","addr:pak":"180213","addr:street":"Милорада Драшковића"},"geometry":{"type":"Point","coordinates":[20.4243803965867,44.7202186801542]}},{"type":"Feature","properties":{"amenity":"post_office","name":"11156 Београд 77","name:sr":"11156 Београд 77","name:sr-Latn":"11156 Beograd 77","ref":"11156","opening_hours":"Mo-Fr 08:00-14:30; PH off","phone":"+381 11 3672-911","addr:pak":"116599"},"geometry":{"type":"Point","coordinates":[20.4677060061944,44.770671547524]}},{"type":"Feature","properties":{"name:sr":"11136 Београд 69","opening_hours":"Mo-Fr 08:00-19:00; Sa 08:00-14:00; PH off","addr:housenumber":"58","name":"11136 Београд 69","amenity":"post_office","phone":"+381 11 2508-861;+381 11 2509768","ref":"11136","name:sr-Latn":"11136 Beograd 69","addr:pak":"173934","addr:street":"Космајска"},"geometry":{"type":"Point","coordinates":[20.4164003451111,44.7499381224193]}},{"type":"Feature","properties":{"name:sr":"11154 Београд 70","opening_hours":"Mo,Tu,We,Th,Fr 07:30-14:30; PH off","addr:housenumber":"17","name":"11154 Београд 70","amenity":"post_office","phone":"+381 11 3670-827;+381 11 3535-136","ref":"11154","name:sr-Latn":"11154 Beograd 70","addr:pak":"116585","addr:street":"Црнотравска"},"geometry":{"type":"Point","coordinates":[20.4672292025967,44.7642239668296]}},{"type":"Feature","properties":{"name:sr":"11195 Београд 98","opening_hours":"Mo-Fr 10:00-16:30; Sa 10:00-14:00; PH off","addr:housenumber":"77А","name":"11195 Београд 98","amenity":"post_office","phone":"+381 11 3535-138;+381 11 3565-293","ref":"11195","name:sr-Latn":"11195 Beograd 98","addr:pak":"180631","addr:street":"Луке Војводића"},"geometry":{"type":"Point","coordinates":[20.4352004606619,44.7502299574546]}},{"type":"Feature","properties":{"name:sr":"11105 Београд 7","opening_hours":"Mo-Fr 10:00-14:30; PH off","addr:housenumber":"38","name":"11105 Београд 7","amenity":"post_office","phone":"+381 11 3671-853","ref":"11105","name:sr-Latn":"11105 Beograd 7","addr:pak":"116560","addr:street":"Незнаног јунака"},"geometry":{"type":"Point","coordinates":[20.4633385255887,44.7709644783848]}},{"type":"Feature","properties":{"name:sr":"11138 Београд 101","opening_hours":"Mo-Fr 09:00-16:00; PH off","addr:housenumber":"4","name":"11138 Београд 101","amenity":"post_office","phone":"+381 11 7555-064;+381 11 7555-094","ref":"11138","name:sr-Latn":"11138 Beograd 101","addr:pak":"173251","addr:street":"Стевана Бракуса"},"geometry":{"type":"Point","coordinates":[20.4111414530759,44.773110169885]}},{"type":"Feature","properties":{"name:sr":"11091 Београд 109","opening_hours":"Mo-Fr 09:00-15:00; Sa 09:00-13:00; PH off","addr:housenumber":"291","name":"11091 Београд 109","amenity":"post_office","phone":"+381 11 6340-780","ref":"11091","name:sr-Latn":"11091 Beograd 109","addr:pak":"180407","addr:street":"Седамнаестог октобра"},"geometry":{"type":"Point","coordinates":[20.4280095102094,44.731412329963]}},{"type":"Feature","properties":{"name:sr":"11140 Београд 117","opening_hours":"Mo-Fr 10:00-16:00; Sa 10:00-14:00; PH off","addr:housenumber":"63","name":"11140 Београд 117","amenity":"post_office","phone":"+381 11 3565-439","ref":"11140","name:sr-Latn":"11140 Beograd 117","addr:pak":"180512","addr:street":"Кнеза Вишеслава"},"geometry":{"type":"Point","coordinates":[20.4272925684309,44.7443448219479]}},{"type":"Feature","properties":{"name:sr":"11032 Београд 133","opening_hours":"Mo-Fr 08:00-19:00; Sa 08:00-14:00; PH off","addr:housenumber":"2Б","name":"11032 Београд 133","amenity":"post_office","phone":"+381 11 3535-154;+381 11 2461-732","ref":"11032","name:sr-Latn":"11032 Beograd 133","addr:pak":"173762","addr:street":"Аце Јоксимовића"},"geometry":{"type":"Point","coordinates":[20.4158698919345,44.7589054181698]}},{"type":"Feature","properties":{"name:sr":"11092 Београд 136","opening_hours":"Mo-Fr 07:30-18:00; PH off","addr:housenumber":"12","name":"11092 Београд 136","amenity":"post_office","phone":"+381 11 3051-864;+381 11 3583-268","ref":"11092","name:sr-Latn":"11092 Beograd 136","addr:pak":"180859","addr:street":"Мишка Крањца"},"geometry":{"type":"Point","coordinates":[20.445308184333,44.7429176804198]}},{"type":"Feature","properties":{"name:sr":"11093 Београд 138","opening_hours":"Mo-Fr 08:00-19:00; Sa 08:00-14:00; PH off","addr:housenumber":"17","name":"11093 Београд 138","amenity":"post_office","phone":"+381 11 7561890","ref":"11093","name:sr-Latn":"11093 Beograd 138","addr:pak":"180720","addr:street":"Пере Велимировића"},"geometry":{"type":"Point","coordinates":[20.4522432688066,44.7570686487998]}}]}