{"type":"FeatureCollection","features":[{"type":"Feature","properties":{"name:sr":"11000 Београд 6","opening_hours":"Mo-Su 08:00-19:00; PH 08:00-15:00","addr:housenumber":"2","name":"11000 Београд 6","amenity":"post_office","phone":"+381 11 3643-071;+381 11 3643-117;+381 11 3643-118","ref":"11000","name:sr-Latn":"11000 Beograd 6","addr:pak":"111101","addr:street":"Савска"},"geometry":{"type":"Point","coordinates":[20.4551225799788,44.8072671560023]}},{"type":"Feature","properties":{"name:sr":"11108 Београд 12","opening_hours":"Mo-Fr 08:00-19:00; Sa 08:00-15:00; PH off","addr:housenumber":"68А","name":"11108 Београд 12","amenity":"post_office","phone":"+381 11 3210-098;+381 11 2764-899;+381 11 3210-126","ref":"11108","name:sr-Latn":"11108 Beograd 12","addr:pak":"137102","addr:street":"Булевар Деспота Стефана"},"geometry":{"type":"Point","coordinates":[20.4757470102858,44.8166590235298]}},{"type":"Feature","properties":{"name:sr":"11120 Београд 35","opening_hours":"Mo-Fr 08:00-19:00; Sa 08:00-15:00; PH off","addr:housenumber":"3","name":"11120 Београд 35","amenity":"post_office","phone":"+381 11 3210-108;+381 11 3210-107;+381 11 3210-110","ref":"11120","name:sr-Latn":"11120 Beograd 35","addr:pak":"135311","addr:street":"Краљице Марије"},"geometry":{"type":"Point","coordinates":[20.476154843843,44.8090454974015]}},{"type":"Feature","properties":{"name:sr":"11030 Београд 8","opening_hours":"Mo-Fr 07:30-19:30; Sa 07:30-15:30; PH off","addr:housenumber":"2А","name":"11030 Београд 8","amenity":"post_office","phone":"+381 11 3535-013;+381 11 3535-015","ref":"11030","name:sr-Latn":"11030 Beograd 8","addr:pak":"173130","addr:street":"Шумадијски трг"},"geometry":{"type":"Point","coordinates":[20.4151433683945,44.7827265265307]}},{"type":"Feature","properties":{"name:sr":"11070 Београд 27","opening_hours":"Mo-Fr 08:00-19:00; Sa 08:00-15:00; PH off","addr:housenumber":"2","name":"11070 Београд 27","amenity":"post_office","phone":"+381 11 3714-058;+381 11 3714-060","ref":"11070","name:sr-Latn":"11070 Beograd 27","addr:pak":"190146","addr:street":"Генерала Жданова"},"geometry":{"type":"Point","coordinates":[20.4049380056179,44.8301974524782]}},{"type":"Feature","properties":{"name:sr":"11101 Београд 1","opening_hours":"Mo-Su,PH 07:00-19:00","addr:housenumber":"2","name":"11101 Београд 1","amenity":"post_office","phone":"+381 11 3210-069;+381 11 3210-070;+381 11 3210-073","ref":"11101","name:sr-Latn":"11101 Beograd 1","addr:pak":"135403","addr:street":"Таковска"},"geometry":{"type":"Point","coordinates":[20.4671641134815,44.8106331929204]}},{"type":"Feature","properties":{"amenity":"post_office","name":"11102 Београд 3","name:sr":"11102 Београд 3","name:sr-Latn":"11102 Beograd 3","ref":"11102","opening_hours":"Mo-Fr 08:00-19:00; Sa 08:00-15:00; PH off","phone":"+381 11 3210-013;+381 11 3210-015;+381 11 3210-018","addr:pak":"104325"},"geometry":{"type":"Point","coordinates":[20.4584880352628,44.8178305204711]}},{"type":"Feature","properties":{"name:sr":"11103 Београд 4","opening_hours":"Mo-Fr 08:00-19:00; Sa 08:00-15:00; PH off","addr:housenumber":"16","name":"11103 Београд 4","amenity":"post_office","phone":"+381 11 3210-131;+381 11 3210-132","ref":"11103","name:sr-Latn":"11103 Beograd 4","addr:pak":"106806","addr:street":"Нушићева"},"geometry":{"type":"Point","coordinates":[20.46369834027,44.8148087945654]}},{"type":"Feature","properties":{"name:sr":"11104 Београд 5","opening_hours":"Mo-Fr 08:00-19:00; Sa 08:00-15:00; PH off","addr:housenumber":"8","name":"11104 Београд 5","amenity":"post_office","phone":"+381 11 3210-114;+381 11 2436-626","ref":"11104","name:sr-Latn":"11104 Beograd 5","addr:pak":"125704","addr:street":"Београдска"},"geometry":{"type":"Point","coordinates":[20.4672813434091,44.803364192568]}},{"type":"Feature","properties":{"name:sr":"11106 Београд 10","opening_hours":"Mo-Fr 08:00-19:00; Sa 08:00-15:00; PH off","addr:housenumber":"14","name":"11106 Београд 10","amenity":"post_office","phone":"+381 11 3210-115;+381 11 2637-078","ref":"11106","name:sr-Latn":"11106 Beograd 10","addr:pak":"104801","addr:street":"Цара Душана"},"geometry":{"type":"Point","coordinates":[20.4573059230402,44.82463679203]}},{"type":"Feature","properties":{"name:sr":"11110 Београд 15","opening_hours":"Mo-Fr 08:00-19:00; Sa 08:00-15:00; PH off","addr:housenumber":"2","name":"11110 Београд 15","amenity":"post_office","phone":"+381 11 2437-313;+381 11 3210-118","ref":"11110","name:sr-Latn":"11110 Beograd 15","addr:pak":"126617","addr:street":"Максима Горког"},"geometry":{"type":"Point","coordinates":[20.4764081793682,44.7988948262592]}},{"type":"Feature","properties":{"name:sr":"11111 Београд 17","opening_hours":"Mo-Fr 08:00-19:00; Sa 08:00-15:00; PH off","addr:housenumber":"84","name":"11111 Београд 17","amenity":"post_office","phone":"+381 11 3210-090;+381 11 3210-091;+381 11 3210-095","ref":"11111","name:sr-Latn":"11111 Beograd 17","addr:pak":"125707","addr:street":"Булевар краља Александра"},"geometry":{"type":"Point","coordinates":[20.4743731792504,44.8053538004041]}},{"type":"Feature","properties":{"name:sr":"11113 Београд 20","opening_hours":"Mo-Fr 08:00-15:00; PH off","addr:housenumber":"17А","name":"11113 Београд 20","amenity":"post_office","phone":"+381 11 3210-162;+381 11 6682-372","ref":"11113","name:sr-Latn":"11113 Beograd 20","addr:pak":"111105","addr:street":"Савска"},"geometry":{"type":"Point","coordinates":[20.4545093473881,44.8052573480963]}},{"type":"Feature","properties":{"name:sr":"11124 Београд 45","opening_hours":"Mo-Fr 08:00-15:00; PH off","addr:housenumber":"22","name":"11124 Београд 45","amenity":"post_office","phone":"+381 11 3616-570;+381 11 3631-670","ref":"11124","name:sr-Latn":"11124 Beograd 45","addr:pak":"113306","addr:street":"Немањина"},"geometry":{"type":"Point","coordinates":[20.4620516656718,44.8042736285736]}},{"type":"Feature","properties":{"name:sr":"11158 Београд 118","opening_hours":"Mo-Fr 08:00-19:00; Sa 08:00-15:00; PH off","addr:housenumber":"35","name":"11158 Београд 118","amenity":"post_office","phone":"+381 11 2920-723;+381 11 2920-724;+381 11 3210-170","ref":"11158","name:sr-Latn":"11158 Beograd 118","addr:pak":"105311","addr:street":"Дубровачка"},"geometry":{"type":"Point","coordinates":[20.4623304029324,44.8278668772601]}},{"type":"Feature","properties":{"name:sr":"11166 Београд 112","opening_hours":"Mo-Fr 08:30-16:00; PH off","addr:housenumber":"14","name":"11166 Београд 112","amenity":"post_office","phone":"+381 11 3347-882","ref":"11166","name:sr-Latn":"11166 Beograd 112","addr:pak":"103404","addr:street":"Краља Милана"},"geometry":{"type":"Point","coordinates":[20.4625171897184,44.8097151669428]}},{"type":"Feature","properties":{"name:sr":"11167 Београд 113","opening_hours":"Mo-Fr 08:00-19:00; Sa 08:00-15:00; PH off","addr:housenumber":"4","name":"11167 Београд 113","amenity":"post_office","phone":"+381 11 3640-105;+381 11 3210-127","ref":"11167","name:sr-Latn":"11167 Beograd 113","addr:pak":"112812","addr:street":"Масарикова"},"geometry":{"type":"Point","coordinates":[20.4636661853431,44.8067341875748]}},{"type":"Feature","properties":{"name:sr":"11168 Београд 114","opening_hours":"Mo-Fr 07:30-14:30; PH off","addr:housenumber":"24","name":"11168 Београд 114","amenity":"post_office","phone":"+381 11 3068-177","ref":"11168","name:sr-Latn":"11168 Beograd 114","addr:pak":"112804","addr:street":"Кнеза Милоша"},"geometry":{"type":"Point","coordinates":[20.4596401296624,44.8055650678434]}},{"type":"Feature","properties":{"name:sr":"11169 Београд 115","opening_hours":"Mo-Fr 08:00-19:00; Sa 08:00-14:00; PH off","addr:housenumber":"81","name":"11169 Београд 115","amenity":"post_office","phone":"+381 11 3614-389;+381 11 3210-128","ref":"11169","name:sr-Latn":"11169 Beograd 115","addr:pak":"111716","addr:street":"Кнеза Милоша"},"geometry":{"type":"Point","coordinates":[20.4555567258863,44.8014316288366]}},{"type":"Feature","properties":{"name:sr":"11142 Београд 13","opening_hours":"Mo-Fr 08:00-19:00; Sa 08:00-14:00; PH off","addr:housenumber":"7А","name":"11142 Београд 13","amenity":"post_office","phone":"+381 11 3691-885;+381 11 3691-331","ref":"11142","name:sr-Latn":"11142 Beograd 13","addr:pak":"116169","addr:street":"Косте Главинића"},"geometry":{"type":"Point","coordinates":[20.4413045959079,44.7948707958788]}},{"type":"Feature","properties":{"name:sr":"11159 Београд 111","opening_hours":"Mo-Fr 10:00-16:30; Sa 10:00-14:00; PH off","addr:housenumber":"63Б","name":"11159 Београд 111","amenity":"post_office","phone":"+381 11 3544-517;+381 11 3544-129","ref":"11159","name:sr-Latn":"11159 Beograd 111","addr:pak":"173310","addr:street":"Радничка"},"geometry":{"type":"Point","coordinates":[20.4085576756187,44.7779763972979]}},{"type":"Feature","properties":{"name:sr":"11075 Београд 97","opening_hours":"Mo-Fr 09:00-16:00; PH off","addr:housenumber":"5","name":"11075 Београд 97","amenity":"post_office","phone":"+381 11 3714-091;+381 11 2670-869","ref":"11075","name:sr-Latn":"11075 Beograd 97","addr:pak":"190432","addr:street":"Палмира Тољатија"},"geometry":{"type":"Point","coordinates":[20.4127011921051,44.8289316440638]}},{"type":"Feature","properties":{"name:sr":"11150 Београд 105","opening_hours":"Mo-Fr 08:00-19:00; Sa 08:00-14:00; PH off","addr:housenumber":"16А","name":"11150 Београд 105","amenity":"post_office","phone":"+381 11 3714-092;+381 11 2140-488","ref":"11150","name:sr-Latn":"11150 Beograd 105","addr:pak":"190541","addr:street":"Булевар уметности"},"geometry":{"type":"Point","coordinates":[20.4125264211857,44.817777807466]}},{"type":"Feature","properties":{"name:sr":"11172 Београд 30","opening_hours":"Mo-Fr 09:00-16:00; PH off","addr:housenumber":"13","name":"11172 Београд 30","amenity":"post_office","phone":"+381 11 2604-897;+381 11 2606-443","ref":"11172","name:sr-Latn":"11172 Beograd 30","addr:pak":"190279","addr:street":"Париске Комуне"},"geometry":{"type":"Point","coordinates":[20.4090962206536,44.8252857471854]}},{"type":"Feature","properties":{"name:sr":"11176 Београд 52","opening_hours":"Mo-Fr 08:00-19:00; Sa 07:30-13:30; PH off","addr:housenumber":"42","name":"11176 Београд 52","amenity":"post_office","phone":"+381 11 3718-010;+381 11 6139-998","ref":"11176","name:sr-Latn":"11176 Beograd 52","addr:pak":"190358","addr:street":"Народних хероја"},"geometry":{"type":"Point","coordinates":[20.4024494320464,44.8197683181824]}},{"type":"Feature","properties":{"name:sr":"11177 Београд 53","opening_hours":"Mo-Fr 08:00-19:00; Sa 08:00-14:00; PH off","addr:housenumber":"81","name":"11177 Београд 53","amenity":"post_office","phone":"+381 11 3714-096;+381 11 3175-839","ref":"11177","name:sr-Latn":"11177 Beograd 53","addr:pak":"191072","addr:street":"Јурија Гагарина"},"geometry":{"type":"Point","coordinates":[20.3945494173037,44.8012205902357]}},{"type":"Feature","properties":{"name:sr":"11187 Београд 62","opening_hours":"Mo-Fr 08:00-19:00; Sa 08:00-14:00; PH off","addr:housenumber":"34","name":"11187 Београд 62","amenity":"post_office","phone":"+381 11 3718-011;+381 11 6132-148","ref":"11187","name:sr-Latn":"11187 Beograd 62","addr:pak":"190709","addr:street":"Милутина Миланковића"},"geometry":{"type":"Point","coordinates":[20.4245112089574,44.8072134267602]}},{"type":"Feature","properties":{"name:sr":"11198 Београд 123","opening_hours":"Mo-Sa 08:00-19:00; Su 09:00-16:00; PH 08:00-19:00","addr:housenumber":"4","name":"11198 Београд 123","amenity":"post_office","phone":"+381 11 3718-003;+381 11 3116-847","ref":"11198","name:sr-Latn":"11198 Beograd 123","addr:pak":"190540","addr:street":"Булевар уметности"},"geometry":{"type":"Point","coordinates":[20.4143292755961,44.8205121675985]}},{"type":"Feature","properties":{"name:sr":"11141 Београд 9","opening_hours":"Mo-Fr 08:00-19:00; Sa 08:00-14:00; PH off","addr:housenumber":"114","name":"11141 Београд 9","amenity":"post_office","phone":"+381 11 3975-051;+381 11 3975489","ref":"11141","name:sr-Latn":"11141 Beograd 9","addr:pak":"166112","addr:street":"Војводе Степе"},"geometry":{"type":"Point","coordinates":[20.4730783066951,44.7784916394383]}},{"type":"Feature","properties":{"name:sr":"11173 Београд 42","opening_hours":"Mo-Fr 08:00-19:00; Sa 07:30-13:30; PH off","addr:housenumber":"44","name":"11173 Београд 42","amenity":"post_office","phone":"+381 11 3714-094;+381 11 2144-028","ref":"11173","name:sr-Latn":"11173 Beograd 42","addr:pak":"190675","addr:street":"Булевар Зорана Ђинђића"},"geometry":{"type":"Point","coordinates":[20.4276139398261,44.8144344149931]}},{"type":"Feature","properties":{"name:sr":"11278 Београд 86","opening_hours":"Mo-Fr 08:00-15:00; PH off","addr:housenumber":"49","name":"11278 Београд 86","amenity":"post_office","phone":"+381 11 2601-762","ref":"11278","name:sr-Latn":"11278 Beograd 86","addr:pak":"200753","addr:street":"Марије Бурсаћ"},"geometry":{"type":"Point","coordinates":[20.3925024293864,44.8333225225032]}},{"type":"Feature","properties":{"name:sr":"11129 Београд 102","opening_hours":"Mo-Fr 07:00-14:00; PH off","addr:housenumber":"26","name":"11129 Београд 102","amenity":"post_office","phone":"+381 11 3610-511","ref":"11129","name:sr-Latn":"11129 Beograd 102","addr:pak":"112109","addr:street":"Вишеградска"},"geometry":{"type":"Point","coordinates":[20.4570591099065,44.7985816214389]}},{"type":"Feature","properties":{"name:sr":"11179 Београд 55","opening_hours":"Mo-Fr 08:00-15:00; PH off","addr:housenumber":"80","name":"11179 Београд 55","amenity":"post_office","phone":"+381 11 2132-889","ref":"11179","name:sr-Latn":"11179 Beograd 55","addr:pak":"190913","addr:street":"Булевар Зорана Ђинђића"},"geometry":{"type":"Point","coordinates":[20.4186039748965,44.8183972992678]}},{"type":"Feature","properties":{"name:sr":"11189 Београд 71","opening_hours":"Mo-Fr 09:00-16:00; PH off","addr:housenumber":"155","name":"11189 Београд 71","amenity":"post_office","phone":"+381 11 2692-096;+381 11 2604-230","ref":"11189","name:sr-Latn":"11189 Beograd 71","addr:pak":"190281","addr:street":"Тошин бунар"},"geometry":{"type":"Point","coordinates":[20.3990382169002,44.8236901138582]}},{"type":"Feature","properties":{"name:sr":"11252 Београд 93","opening_hours":"Mo-Fr 08:00-15:00; PH off","addr:housenumber":"10З","name":"11252 Београд 93","amenity":"post_office","phone":"+381 11 3718-004","ref":"11252","name:sr-Latn":"11252 Beograd 93","addr:pak":"190803","addr:street":"Булевар Михаила Пупина"},"geometry":{"type":"Point","coordinates":[20.4204176237816,44.8232110869135]}},{"type":"Feature","properties":{"name:sr":"11112 Београд 19","opening_hours":"Mo-Fr 08:00-19:00; Sa 08:00-15:00; PH off","addr:housenumber":"7","name":"11112 Београд 19","amenity":"post_office","phone":"+381 11 3282-823;+381 11 3210-152","ref":"11112","name:sr-Latn":"11112 Beograd 19","addr:pak":"112604","addr:street":"Ломина"},"geometry":{"type":"Point","coordinates":[20.4571942450508,44.8125079011356]}},{"type":"Feature","properties":{"name:sr":"11123 Београд 44","opening_hours":"Mo-Fr 08:00-15:00; PH off","addr:housenumber":"4","name":"11123 Београд 44","amenity":"post_office","phone":"+381 11 3210-119;+381 11 7618-661","ref":"11123","name:sr-Latn":"11123 Beograd 44","addr:pak":"111406","addr:street":"Железничка"},"geometry":{"type":"Point","coordinates":[20.454080150378,44.81006649599]}},{"type":"Feature","properties":{"name:sr":"11125 Београд 51","opening_hours":"Mo-Fr 09:00-16:00; PH off","addr:housenumber":"10","name":"11125 Београд 51","amenity":"post_office","phone":"+381 11 3223-451","ref":"11125","name:sr-Latn":"11125 Beograd 51","addr:pak":"106102","addr:street":"Булевар Деспота Стефана"},"geometry":{"type":"Point","coordinates":[20.4627491512207,44.8164556289441]}},{"type":"Feature","properties":{"name:sr":"11115 Београд 23","opening_hours":"Mo-Fr 08:00-19:00; Sa 08:00-14:00; PH off","addr:housenumber":"51","name":"11115 Београд 23","amenity":"post_office","phone":"+381 11 3210-160;+381 11 2436-425","ref":"11115","name:sr-Latn":"11115 Beograd 23","addr:pak":"122230","addr:street":"Булевар ослобођења"},"geometry":{"type":"Point","coordinates":[20.4667811879699,44.7929076473352]}},{"type":"Feature","properties":{"name:sr":"11072 Београд 126","opening_hours":"Mo-Fr 08:00-15:30; PH off","addr:housenumber":"16","name":"11072 Београд 126","amenity":"post_office","phone":"+381 11 2018-352","ref":"11072","name:sr-Latn":"11072 Beograd 126","addr:pak":"190403","addr:street":"Булевар Михаила Пупина"},"geometry":{"type":"Point","coordinates":[20.4114873353529,44.8320374889264]}},{"type":"Feature","properties":{"name:sr":"11074 Београд 132","opening_hours":"Mo-Fr 08:00-19:00; Sa 08:00-15:00; PH off","addr:housenumber":"11Г","name":"11074 Београд 132","amenity":"post_office","phone":"+381 11 3718-018","ref":"11074","name:sr-Latn":"11074 Beograd 132","addr:pak":"191623","addr:street":"Булевар Црвене армије"},"geometry":{"type":"Point","coordinates":[20.4042426798325,44.806745723633]}},{"type":"Feature","properties":{"name:sr":"11081 Београд 128","opening_hours":"Mo-Fr 08:00-15:30; PH off","addr:housenumber":"42А","name":"11081 Београд 128","amenity":"post_office","phone":"+381 11 3376-015","ref":"11081","name:sr-Latn":"11081 Beograd 128","addr:pak":"190457","addr:street":"Булевар Николе Тесле"},"geometry":{"type":"Point","coordinates":[20.419393882292,44.8272073542263]}},{"type":"Feature","properties":{"name:sr":"11350 Београд 120","opening_hours":"Mo-Fr 08:00-19:00; Sa 08:00-14:00; PH off","addr:housenumber":"14","name":"11350 Београд 120","amenity":"post_office","phone":"+381 11 3641-29;+381 11 3641-291","ref":"11350","name:sr-Latn":"11350 Beograd 120","addr:pak":"111515","addr:street":"Катићева"},"geometry":{"type":"Point","coordinates":[20.4645548502686,44.800237933718]}},{"type":"Feature","properties":{"name:sr":"11061 Београд 139","opening_hours":"Mo-Fr 00:00-07:00,19:00-24:00; Sa 00:00-07:00; Sa 19:00-24:00; Su 00:00-07:00; Su 19:00-24:00; PH 00:00-07:00; PH 19:00-24:00","addr:housenumber":"2","name":"11061 Београд 139","amenity":"post_office","phone":"+381 11 3210-068","ref":"11061","name:sr-Latn":"11061 Beograd 139","addr:pak":"135403","addr:street":"Таковска"},"geometry":{"type":"Point","coordinates":[20.4669677943973,44.8105897583635]}}]}