{"type":"FeatureCollection","features":[{"type":"Feature","properties":{"name:sr":"11050 Београд 22","opening_hours":"Mo-Fr 08:00-19:00; Sa 08:00-15:00; PH off","addr:housenumber":"182","name":"11050 Београд 22","amenity":"post_office","phone":"+381 11 3210-086;+381 11 3210-077;+381 11 3210-079","ref":"11050","name:sr-Latn":"11050 Beograd 22","addr:pak":"147002","addr:street":"Устаничка"},"geometry":{"type":"Point","coordinates":[20.5063809180286,44.7824083673852]}},{"type":"Feature","properties":{"name:sr":"11060 Београд 38","opening_hours":"Mo-Fr 08:00-19:00; Sa 08:00-15:00; PH off","addr:housenumber":"50","name":"11060 Београд 38","amenity":"post_office","phone":"+381 11 2771-095;+381 11 2776-416;+381 11 3210-113","ref":"11060","name:sr-Latn":"11060 Beograd 38","addr:pak":"137413","addr:street":"Патриса Лумумбе"},"geometry":{"type":"Point","coordinates":[20.5121245896625,44.814768257763]}},{"type":"Feature","properties":{"name:sr":"11118 Београд 32","opening_hours":"Mo-Fr 08:00-19:00; Sa 08:00-15:00; PH off","addr:housenumber":"89","name":"11118 Београд 32","amenity":"post_office","phone":"+381 11 3210-150;+381 11 6450-194","ref":"11118","name:sr-Latn":"11118 Beograd 32","addr:pak":"121512","addr:street":"Максима Горког"},"geometry":{"type":"Point","coordinates":[20.478856927326,44.7922545475434]}},{"type":"Feature","properties":{"name:sr":"11160 Београд 74","opening_hours":"Mo-Fr 08:00-19:00; Sa 08:00-15:00; PH off","addr:housenumber":"22А","name":"11160 Београд 74","amenity":"post_office","phone":"+381 11 3643-143;+381 11 3643-142;+381 11 3643-144","ref":"11160","name:sr-Latn":"11160 Beograd 74","addr:pak":"142706","addr:street":"Миријевски венац"},"geometry":{"type":"Point","coordinates":[20.5279031578749,44.789800458315]}},{"type":"Feature","properties":{"name:sr":"11109 Београд 14","opening_hours":"Mo-Fr 08:00-19:00; Sa 08:00-15:00; PH off","addr:housenumber":"121","name":"11109 Београд 14","amenity":"post_office","phone":"+381 11 3210-117;+381 11 6402-025","ref":"11109","name:sr-Latn":"11109 Beograd 14","addr:pak":"145303","addr:street":"Булевар краља Александра"},"geometry":{"type":"Point","coordinates":[20.4858098843794,44.8013122249206]}},{"type":"Feature","properties":{"name:sr":"11114 Београд 21","opening_hours":"Mo-Fr 08:00-19:00; Sa 08:00-13:00; PH off","addr:housenumber":"60","name":"11114 Београд 21","amenity":"post_office","phone":"+381 11 3471-219;+381 11 3470-499","ref":"11114","name:sr-Latn":"11114 Beograd 21","addr:pak":"147809","addr:street":"Учитељска"},"geometry":{"type":"Point","coordinates":[20.5069704405717,44.7862612273177]}},{"type":"Feature","properties":{"name:sr":"11127 Београд 57","opening_hours":"Mo-Fr 08:00-19:00; Sa 08:00-15:00; PH off","addr:housenumber":"221","name":"11127 Београд 57","amenity":"post_office","phone":"+381 11 3210-101;+381 11 3210-102","ref":"11127","name:sr-Latn":"11127 Beograd 57","addr:pak":"145218","addr:street":"Булевар краља Александра"},"geometry":{"type":"Point","coordinates":[20.4980092743229,44.7961608113459]}},{"type":"Feature","properties":{"name:sr":"11122 Београд 110","opening_hours":"Mo-Fr 08:00-19:00; Sa 08:00-12:00; PH off","addr:housenumber":"2","name":"11122 Београд 110","amenity":"post_office","phone":"+381 11 2758-222;+381 11 2970-028","ref":"11122","name:sr-Latn":"11122 Beograd 110","addr:pak":"139302","addr:street":"Слободана Јовановића"},"geometry":{"type":"Point","coordinates":[20.5362731393962,44.8163982549723]}},{"type":"Feature","properties":{"name:sr":"11116 Београд 28","opening_hours":"Mo-Fr 10:00-17:00; PH off","addr:housenumber":"29","name":"11116 Београд 28","amenity":"post_office","phone":"+381 11 2752-133;+381 11 2752-044","ref":"11116","name:sr-Latn":"11116 Beograd 28","addr:pak":"135902","addr:street":"Рузвелтова"},"geometry":{"type":"Point","coordinates":[20.4817373816682,44.8079797437927]}},{"type":"Feature","properties":{"name:sr":"11119 Београд 34","opening_hours":"Mo-Fr 08:00-19:00; Sa 08:00-15:00; PH off","addr:housenumber":"66","name":"11119 Београд 34","amenity":"post_office","phone":"+381 11 3210-151;+381 11 2835-000","ref":"11119","name:sr-Latn":"11119 Beograd 34","addr:pak":"123111","addr:street":"Милешевска"},"geometry":{"type":"Point","coordinates":[20.4864640707279,44.7974555685315]}},{"type":"Feature","properties":{"name:sr":"11128 Београд 78","opening_hours":"Mo-Fr 08:00-19:00; Sa 08:00-15:00; PH off","addr:housenumber":"34А","name":"11128 Београд 78","amenity":"post_office","phone":"+381 11 3436-009;+381 11 3210-149","ref":"11128","name:sr-Latn":"11128 Beograd 78","addr:pak":"143504","addr:street":"Косте Нађа"},"geometry":{"type":"Point","coordinates":[20.5400577484522,44.7917711040162]}},{"type":"Feature","properties":{"name:sr":"11163 Београд 107","opening_hours":"Mo-Fr 08:00-19:00; Sa 08:00-14:00; PH off","addr:housenumber":"21","name":"11163 Београд 107","amenity":"post_office","phone":"+381 11 2851-655","ref":"11163","name:sr-Latn":"11163 Beograd 107","addr:pak":"164226","addr:street":"Бачванска"},"geometry":{"type":"Point","coordinates":[20.4934870189543,44.7901597102426]}},{"type":"Feature","properties":{"name:sr":"11164 Београд 106","opening_hours":"Mo-Sa 08:00-19:00; Su 08:00-15:00; PH off","addr:housenumber":"18Б","name":"11164 Београд 106","amenity":"post_office","phone":"+381 11 2972-020","ref":"11164","name:sr-Latn":"11164 Beograd 106","addr:pak":"138207","addr:street":"Миријевски булевар"},"geometry":{"type":"Point","coordinates":[20.5223351939227,44.8116219047373]}},{"type":"Feature","properties":{"name:sr":"11145 Београд 41","opening_hours":"Mo-Fr 08:00-15:00; PH off","addr:housenumber":"126","name":"11145 Београд 41","amenity":"post_office","phone":"+381 11 2990-641","ref":"11145","name:sr-Latn":"11145 Beograd 41","addr:pak":"139445","addr:street":"Маршала Тита"},"geometry":{"type":"Point","coordinates":[20.5490173787382,44.8311631911648]}},{"type":"Feature","properties":{"name:sr":"11107 Београд 11","opening_hours":"Mo-Fr 08:00-19:00; Sa 08:00-15:00; PH off","addr:housenumber":"79","name":"11107 Београд 11","amenity":"post_office","phone":"+381 11 3210-116;+381 11 2451-162","ref":"11107","name:sr-Latn":"11107 Beograd 11","addr:pak":"164603","addr:street":"Устаничка"},"geometry":{"type":"Point","coordinates":[20.4821597350664,44.7858786478906]}},{"type":"Feature","properties":{"name:sr":"11051 Београд 130","opening_hours":"Mo-Fr 08:00-15:00; PH off","addr:housenumber":"19","name":"11051 Београд 130","amenity":"post_office","phone":"+381 11 7293-928","ref":"11051","name:sr-Latn":"11051 Beograd 130","addr:pak":"141503","addr:street":"Вељка Дугошевића"},"geometry":{"type":"Point","coordinates":[20.4962064842608,44.8059747770754]}},{"type":"Feature","properties":{"name:sr":"11052 Београд 141","opening_hours":"Mo-Fr 08:00-19:00; Sa 08:00-14:00; PH off","addr:housenumber":"516Ж","name":"11052 Београд 141","amenity":"post_office","phone":"+381 11 3476-609;+381 11 3210-148","ref":"11052","name:sr-Latn":"11052 Beograd 141","addr:pak":"148401","addr:street":"Булевар краља Александра"},"geometry":{"type":"Point","coordinates":[20.5197221524746,44.7840118951178]}},{"type":"Feature","properties":{"name:sr":"11062 Београд 150","opening_hours":"Mo-Su,PH 09:00-19:00","addr:housenumber":"84","name":"11062 Београд 150","amenity":"post_office","phone":"+381 64 665-77-94","ref":"11062","name:sr-Latn":"11062 Beograd 150","addr:pak":"138815","addr:street":"Вишњичка"},"geometry":{"type":"Point","coordinates":[20.5082506087344,44.8168666119746]}},{"type":"Feature","properties":{"name:sr":"11054 Београд 151","opening_hours":"Mo-Fr 08:00-19:00; Sa 08:00-15:00; PH off","addr:housenumber":"69","name":"11054 Београд 151","amenity":"post_office","phone":"+381 11 3210-161;+381 11 3475-158","ref":"11054","name:sr-Latn":"11054 Beograd 151","addr:pak":"147105","addr:street":"Војислава Илића"},"geometry":{"type":"Point","coordinates":[20.4967330021809,44.7926405406524]}},{"type":"Feature","properties":{"name:sr":"11055 Београд 153","opening_hours":"Mo-Sa 08:00-19:00; PH off","addr:housenumber":"86","name":"11055 Београд 153","amenity":"post_office","phone":"+381 11 7702-246","ref":"11055","name:sr-Latn":"11055 Beograd 153","addr:pak":"148021","addr:street":"Живка Давидовића"},"geometry":{"type":"Point","coordinates":[20.5146311590862,44.7863372527784]}},{"type":"Feature","properties":{"name:sr":"11056 Београд 154","opening_hours":"Mo-Fr 08:00-19:00; Sa 08:00-14:00; PH off","addr:housenumber":"148","name":"11056 Београд 154","amenity":"post_office","phone":"+381 11 2771-038","ref":"11056","name:sr-Latn":"11056 Beograd 154","addr:pak":"146110","addr:street":"Димитрија Туцовића"},"geometry":{"type":"Point","coordinates":[20.498458889305,44.7998961450063]}}]}