{"type":"FeatureCollection","features":[{"type":"Feature","properties":{"name:sr":"11224 Врчин","opening_hours":"Mo-Fr 08:00-18:00; Sa 08:00-14:00; PH off","addr:housenumber":"2","name":"11224 Врчин","amenity":"post_office","phone":"+381 11 8054-363","ref":"11224","name:sr-Latn":"11224 Vrčin","addr:pak":"158311","addr:street":"Саве Ковачевића"},"geometry":{"type":"Point","coordinates":[20.5920662535468,44.6628833194222]}},{"type":"Feature","properties":{"name:sr":"11306 Гроцка","opening_hours":"Mo-Fr 08:00-19:00; Sa 08:00-14:00; PH off","addr:housenumber":"24","name":"11306 Гроцка","amenity":"post_office","phone":"+381 11 3210-137;+381 11 8501-905","ref":"11306","name:sr-Latn":"11306 Grocka","addr:pak":"155217","addr:street":"Булевар ослобођења"},"geometry":{"type":"Point","coordinates":[20.7164452066003,44.671165169527]}},{"type":"Feature","properties":{"name:sr":"11308 Бегаљица","opening_hours":"Mo-Fr 08:00-15:00; PH off","addr:housenumber":"211","name":"11308 Бегаљица","amenity":"post_office","phone":"+381 11 8530-645","ref":"11308","name:sr-Latn":"11308 Begaljica","addr:pak":"156112","addr:street":"Бориса Кидрича"},"geometry":{"type":"Point","coordinates":[20.6951657239607,44.6317958657954]}},{"type":"Feature","properties":{"amenity":"post_office","name":"11352 Заклопача","name:sr":"11352 Заклопача","name:sr-Latn":"11352 Zaklopača","ref":"11352","opening_hours":"Mo-Fr 08:00-14:00; Sa 08:00-12:00; PH off","phone":"+381 11 8525-160","addr:pak":"155411"},"geometry":{"type":"Point","coordinates":[20.6614426758286,44.6761792639223]}}]}