{"type":"FeatureCollection","features":[{"type":"Feature","properties":{"name:sr":"26230 Омољица","opening_hours":"Mo-Fr 08:00-14:00; PH off","addr:housenumber":"1","name":"26230 Омољица","amenity":"post_office","phone":"+381 13 309-111","ref":"26230","name:sr-Latn":"26230 Omoljica","addr:pak":"307718","addr:street":"Краља Петра првог"},"geometry":{"type":"Point","coordinates":[20.7385508587794,44.7570166424804]}},{"type":"Feature","properties":{"name:sr":"26233 Иваново","opening_hours":"Mo-Fr 07:00-11:00; PH off","addr:housenumber":"30","name":"26233 Иваново","amenity":"post_office","phone":"+381 13 629-100","ref":"26233","name:sr-Latn":"26233 Ivanovo","addr:pak":"307813","addr:street":"Бориса Кидрича"},"geometry":{"type":"Point","coordinates":[20.6959403092357,44.740907884098]}},{"type":"Feature","properties":{"name:sr":"11353 Ритопек","opening_hours":"Mo-Fr 08:00-14:00; Sa 08:00-12:00; PH off","addr:housenumber":"17","name":"11353 Ритопек","amenity":"post_office","phone":"+381 11 7873-155","ref":"11353","name:sr-Latn":"11353 Ritopek","addr:pak":"154207","addr:street":"Карађорђева"},"geometry":{"type":"Point","coordinates":[20.6551147578136,44.738387324871]}}]}