{"type":"FeatureCollection","features":[{"type":"Feature","properties":{"name:sr":"11210 Београд 26","opening_hours":"Mo-Fr 08:00-19:00; Sa 08:00-13:00; PH off","addr:housenumber":"ББ","name":"11210 Београд 26","amenity":"post_office","phone":"+381 11 3210-100;+381 11 3210-129","ref":"11210","name:sr-Latn":"11210 Beograd 26","addr:pak":"134611","addr:street":"Зрењанински пут"},"geometry":{"type":"Point","coordinates":[20.4862748513547,44.8476127981472]}},{"type":"Feature","properties":{"name:sr":"11211 Борча","opening_hours":"Mo-Fr 08:00-19:00; Sa 08:00-13:00; PH off","addr:housenumber":"15А","name":"11211 Борча","amenity":"post_office","phone":"+381 11 3325-871;+381 11 3210-130;+381 11 3320-304","ref":"11211","name:sr-Latn":"11211 Borča","addr:pak":"133244","addr:street":"Ваљевског одреда"},"geometry":{"type":"Point","coordinates":[20.4579676707444,44.8777403415997]}},{"type":"Feature","properties":{"name:sr":"11212 Овча","opening_hours":"Mo-Fr 08:00-14:00; PH off","addr:housenumber":"78А","name":"11212 Овча","amenity":"post_office","phone":"+381 11 3319-988","ref":"11212","name:sr-Latn":"11212 Ovča","addr:pak":"131810","addr:street":"Михаја Еминескуа"},"geometry":{"type":"Point","coordinates":[20.5366498550798,44.8880397823303]}},{"type":"Feature","properties":{"name:sr":"11213 Падинска Скела","opening_hours":"Mo-Fr 08:00-14:00; Sa 08:00-12:00; PH off","addr:housenumber":"12","name":"11213 Падинска Скела","amenity":"post_office","phone":"+381 11 3210-133;+381 11 8871-425","ref":"11213","name:sr-Latn":"11213 Padinska Skela","addr:pak":"131201","addr:street":"Дејана Смиљковића"},"geometry":{"type":"Point","coordinates":[20.4258273373819,44.9459714975222]}},{"type":"Feature","properties":{"name:sr":"11080 Београд 80","opening_hours":"Mo-Fr 08:00-19:00; Sa 08:00-15:00; PH off","addr:housenumber":"8","name":"11080 Београд 80","amenity":"post_office","phone":"+381 11 3714-013;+381 11 3714-018","ref":"11080","name:sr-Latn":"11080 Beograd 80","addr:pak":"200108","addr:street":"Главна"},"geometry":{"type":"Point","coordinates":[20.4131592984257,44.8427178585341]}},{"type":"Feature","properties":{"name:sr":"26201 Јабука","opening_hours":"Mo-Fr 08:00-14:00; PH off","addr:housenumber":"1","name":"26201 Јабука","amenity":"post_office","phone":"+381 13 2358-878;+381 13 309-100","ref":"26201","name:sr-Latn":"26201 Jabuka","addr:pak":"304244","addr:street":"Маршала Тита"},"geometry":{"type":"Point","coordinates":[20.5965558220852,44.9469743855102]}},{"type":"Feature","properties":{"name:sr":"26202 Глогоњ","opening_hours":"Mo-Fr 07:00-14:00; PH off","addr:housenumber":"18","name":"26202 Глогоњ","amenity":"post_office","phone":"+381 13 627-690","ref":"26202","name:sr-Latn":"26202 Glogonj","addr:pak":"304312","addr:street":"ЈНА"},"geometry":{"type":"Point","coordinates":[20.5285314999888,44.9859650164741]}},{"type":"Feature","properties":{"name:sr":"26203 Сефкерин","opening_hours":"Mo-Fr 07:00-14:00; PH off","addr:housenumber":"10","name":"26203 Сефкерин","amenity":"post_office","phone":"+381 13 2684-720","ref":"26203","name:sr-Latn":"26203 Sefkerin","addr:pak":"309316","addr:street":"Ослобођења"},"geometry":{"type":"Point","coordinates":[20.4828008856632,45.0040508780109]}},{"type":"Feature","properties":{"name:sr":"26204 Опово","opening_hours":"Mo-Fr 08:00-14:00; Sa 08:00-12:00; PH off","addr:housenumber":"24","name":"26204 Опово","amenity":"post_office","phone":"+381 13 309-101;+381 13 681-040","ref":"26204","name:sr-Latn":"26204 Opovo","addr:pak":"309043","addr:street":"Бориса Кидрича"},"geometry":{"type":"Point","coordinates":[20.4264670903017,45.0510993636411]}},{"type":"Feature","properties":{"name:sr":"26205 Баранда","opening_hours":"Mo-Fr 07:00-14:00; PH off","addr:housenumber":"9","name":"26205 Баранда","amenity":"post_office","phone":"+381 13 686-010","ref":"26205","name:sr-Latn":"26205 Baranda","addr:pak":"309106","addr:street":"Трг Маршала Тита"},"geometry":{"type":"Point","coordinates":[20.441724656307,45.0845816381312]}},{"type":"Feature","properties":{"name:sr":"26212 Качарево","opening_hours":"Mo-Fr 08:00-14:00; PH off","addr:housenumber":"23","name":"26212 Качарево","amenity":"post_office","phone":"+381 13 309-103","ref":"26212","name:sr-Latn":"26212 Kačarevo","addr:pak":"304158","addr:street":"Народног фронта"},"geometry":{"type":"Point","coordinates":[20.6979378872677,44.9673631686705]}},{"type":"Feature","properties":{"name:sr":"26213 Црепаја","opening_hours":"Mo-Fr 07:00-14:00; PH off","addr:housenumber":"5","name":"26213 Црепаја","amenity":"post_office","phone":"+381 13 309-116","ref":"26213","name:sr-Latn":"26213 Crepaja","addr:pak":"308814","addr:street":"Трг ослобођења"},"geometry":{"type":"Point","coordinates":[20.637068403438,45.0096302092096]}},{"type":"Feature","properties":{"name:sr":"26214 Дебељача","opening_hours":"Mo-Fr 07:00-14:00; PH off","addr:housenumber":"7","name":"26214 Дебељача","amenity":"post_office","phone":"+381 13 309-114","ref":"26214","name:sr-Latn":"26214 Debeljača","addr:pak":"308230","addr:street":"Трг Маршала Тита"},"geometry":{"type":"Point","coordinates":[20.602418532155,45.0698861025061]}},{"type":"Feature","properties":{"name:sr":"26101 Панчево 1","opening_hours":"Mo-Fr 08:00-19:00; Sa 08:00-16:00; PH off","addr:housenumber":"11","name":"26101 Панчево 1","amenity":"post_office","phone":"+381 13 309-013;+381 13 309-015","ref":"26101","name:sr-Latn":"26101 Pančevo 1","addr:pak":"300444","addr:street":"Светог Саве"},"geometry":{"type":"Point","coordinates":[20.6467374012762,44.871301602931]}},{"type":"Feature","properties":{"name:sr":"26105 Панчево 5","opening_hours":"Mo-Fr 08:00-18:00; Sa 08:00-13:00; PH off","addr:housenumber":"3","name":"26105 Панчево 5","amenity":"post_office","phone":"+381 13 319-999","ref":"26105","name:sr-Latn":"26105 Pančevo 5","addr:pak":"303204","addr:street":"Милутина Бојића"},"geometry":{"type":"Point","coordinates":[20.6655471798547,44.8631672537189]}},{"type":"Feature","properties":{"name:sr":"26106 Панчево 6","opening_hours":"Mo-Fr 07:00-19:00; Sa 07:00-15:00; PH off","addr:housenumber":"1","name":"26106 Панчево 6","amenity":"post_office","phone":"+381 13 309-059;+381 13 309-020;+381 13 309-060","ref":"26106","name:sr-Latn":"26106 Pančevo 6","addr:pak":"300801","addr:street":"Милоша Црњанског"},"geometry":{"type":"Point","coordinates":[20.6392928553927,44.8703324110654]}},{"type":"Feature","properties":{"name:sr":"26107 Панчево 7","opening_hours":"Mo-Fr 08:00-18:00; Sa 08:00-13:00; PH off","addr:housenumber":"111А","name":"26107 Панчево 7","amenity":"post_office","phone":"+381 13 316-061","ref":"26107","name:sr-Latn":"26107 Pančevo 7","addr:pak":"300715","addr:street":"Браће Јовановића"},"geometry":{"type":"Point","coordinates":[20.6514315104857,44.8782355801466]}},{"type":"Feature","properties":{"name:sr":"26108 Панчево 8","opening_hours":"Mo-Fr 08:00-18:00; Sa 08:00-13:00; PH off","addr:housenumber":"4","name":"26108 Панчево 8","amenity":"post_office","phone":"+381 13 2314-377","ref":"26108","name:sr-Latn":"26108 Pančevo 8","addr:pak":"302507","addr:street":"Илије Гарашанина"},"geometry":{"type":"Point","coordinates":[20.6635551427711,44.8723484723397]}},{"type":"Feature","properties":{"name:sr":"11182 Београд 81","opening_hours":"Mo-Fr 08:00-19:00; Sa 08:00-14:30; PH off","addr:housenumber":"8","name":"11182 Београд 81","amenity":"post_office","phone":"+381 11 3714-097;+381 11 2612-210","ref":"11182","name:sr-Latn":"11182 Beograd 81","addr:pak":"200526","addr:street":"Првомајска"},"geometry":{"type":"Point","coordinates":[20.3939236815185,44.8416161292119]}},{"type":"Feature","properties":{"amenity":"post_office","name":"26104 Панчево 4","name:sr":"26104 Панчево 4","name:sr-Latn":"26104 Pančevo 4","ref":"26104","opening_hours":"Mo-Fr 07:00-14:00; PH off","phone":"+381 13 353-432","addr:pak":"301805"},"geometry":{"type":"Point","coordinates":[20.6697729065471,44.8438014208771]}},{"type":"Feature","properties":{"name:sr":"26103 Панчево 3","opening_hours":"Mo-Fr 07:00-14:00; PH off","addr:housenumber":"2","name":"26103 Панчево 3","amenity":"post_office","phone":"+381 13 366-799","ref":"26103","name:sr-Latn":"26103 Pančevo 3","addr:pak":"301719","addr:street":"Првомајска"},"geometry":{"type":"Point","coordinates":[20.6552191184558,44.8580134256859]}},{"type":"Feature","properties":{"name:sr":"26109 Панчево 9","opening_hours":"Mo-Fr 07:00-14:00; PH off","addr:housenumber":"69","name":"26109 Панчево 9","amenity":"post_office","phone":"+381 13 371-833","ref":"26109","name:sr-Latn":"26109 Pančevo 9","addr:pak":"302404","addr:street":"Приморска"},"geometry":{"type":"Point","coordinates":[20.6678511085401,44.8770475256193]}},{"type":"Feature","properties":{"amenity":"post_office","name":"26110 Панчево 10","name:sr":"26110 Панчево 10","name:sr-Latn":"26110 Pančevo 10","ref":"26110","opening_hours":"Mo-Fr 08:00-14:00; Sa 08:00-12:00; PH off","phone":"+381 13 354-822","addr:pak":"302816"},"geometry":{"type":"Point","coordinates":[20.6368844227941,44.8873540613019]}},{"type":"Feature","properties":{"name:sr":"26112 Панчево 12","opening_hours":"Mo-Fr 08:00-15:00; PH off","addr:housenumber":"42","name":"26112 Панчево 12","amenity":"post_office","phone":"+381 13 310-551","ref":"26112","name:sr-Latn":"26112 Pančevo 12","addr:pak":"300626","addr:street":"Ваљевска"},"geometry":{"type":"Point","coordinates":[20.6449041572183,44.8824107901648]}},{"type":"Feature","properties":{"name:sr":"11214 Борча","opening_hours":"Mo-Fr 10:00-17:00; PH off","addr:housenumber":"81","name":"11214 Борча","amenity":"post_office","phone":"+381 11 2993-488;+381 11 3210-159","ref":"11214","name:sr-Latn":"11214 Borča","addr:pak":"132106","addr:street":"Ранка Миљића"},"geometry":{"type":"Point","coordinates":[20.4550602421052,44.8840052752725]}},{"type":"Feature","properties":{"name:sr":"26113 Панчево 13","opening_hours":"Mo-Fr 09:00-17:00; Sa 09:00-13:00; PH 08:00-12:00","addr:housenumber":"8К","name":"26113 Панчево 13","amenity":"post_office","phone":"+381 13 2300-005","ref":"26113","name:sr-Latn":"26113 Pančevo 13","addr:pak":"301023","addr:street":"Доситеја Обрадовића"},"geometry":{"type":"Point","coordinates":[20.6405479373468,44.8629721116705]}},{"type":"Feature","properties":{"name:sr":"11216 Борча","opening_hours":"Mo-Sa 08:00-19:00; Su 08:00-15:00; PH 08:00-19:00","addr:housenumber":"2Г","name":"11216 Борча","amenity":"post_office","phone":"+381 11 63-06-908","ref":"11216","name:sr-Latn":"11216 Borča","addr:pak":"-2","addr:street":"Братства и Јединства"},"geometry":{"type":"Point","coordinates":[20.4577227000703,44.8879731262802]}}]}