{"type":"FeatureCollection","features":[{"type":"Feature","properties":{"name:sr":"26206 Сакуле","opening_hours":"Mo-Fr 07:00-14:00; PH off","addr:housenumber":"5","name":"26206 Сакуле","amenity":"post_office","phone":"+381 13 685-400","ref":"26206","name:sr-Latn":"26206 Sakule","addr:pak":"309207","addr:street":"Партизанска"},"geometry":{"type":"Point","coordinates":[20.4843904143709,45.1447135814858]}},{"type":"Feature","properties":{"name:sr":"26207 Идвор","opening_hours":"Mo-Fr 07:00-11:00; PH off","addr:housenumber":"2А","name":"26207 Идвор","amenity":"post_office","phone":"+381 13 676-000","ref":"26207","name:sr-Latn":"26207 Idvor","addr:pak":"308311","addr:street":"Жарка Зрењанина"},"geometry":{"type":"Point","coordinates":[20.5119595297777,45.1901538990685]}},{"type":"Feature","properties":{"name:sr":"26210 Ковачица","opening_hours":"Mo-Fr 08:00-14:00; Sa 08:00-12:00; PH off","addr:housenumber":"64","name":"26210 Ковачица","amenity":"post_office","phone":"+381 13 309-102;+381 13 661-125","ref":"26210","name:sr-Latn":"26210 Kovačica","addr:pak":"308081","addr:street":"ЈНА"},"geometry":{"type":"Point","coordinates":[20.6180933030245,45.1117454562117]}},{"type":"Feature","properties":{"name:sr":"26215 Падина","opening_hours":"Mo-Fr 07:00-14:00; PH off","addr:housenumber":"2","name":"26215 Падина","amenity":"post_office","phone":"+381 13 309-115","ref":"26215","name:sr-Latn":"26215 Padina","addr:pak":"308470","addr:street":"Нова"},"geometry":{"type":"Point","coordinates":[20.7282823370898,45.1175641582036]}},{"type":"Feature","properties":{"name:sr":"26216 Уздин","opening_hours":"Mo-Fr 07:00-14:00; PH off","addr:housenumber":"5","name":"26216 Уздин","amenity":"post_office","phone":"+381 13 673-110","ref":"26216","name:sr-Latn":"26216 Uzdin","addr:pak":"308612","addr:street":"Трг ослобођења"},"geometry":{"type":"Point","coordinates":[20.6206169353911,45.2085885829301]}},{"type":"Feature","properties":{"name:sr":"23203 Ечка","opening_hours":"Mo-Fr 07:30-13:30; Sa 07:30-11:30; PH off","addr:housenumber":"ББ","name":"23203 Ечка","amenity":"post_office","phone":"+381 23 ;+381 23 881-001;+381 23 881-120","ref":"23203","name:sr-Latn":"23203 Ečka","addr:pak":"357649","addr:street":"Љубљанска"},"geometry":{"type":"Point","coordinates":[20.4396657568884,45.318178765891]}},{"type":"Feature","properties":{"name:sr":"23204 Стајићево","opening_hours":"Mo-Fr 07:30-14:00; PH off","addr:housenumber":"22","name":"23204 Стајићево","amenity":"post_office","phone":"+381 23 884-001","ref":"23204","name:sr-Latn":"23204 Stajićevo","addr:pak":"356301","addr:street":"Тозе Марковића"},"geometry":{"type":"Point","coordinates":[20.4551753229557,45.2941295268619]}},{"type":"Feature","properties":{"name:sr":"23224 Лукино Село","opening_hours":"Mo,We,Fr 07:30-11:30; PH off","addr:housenumber":"50","name":"23224 Лукино Село","amenity":"post_office","phone":"+381 23 3885-191","ref":"23224","name:sr-Latn":"23224 Lukino Selo","addr:pak":"357901","addr:street":"Маршала Тита"},"geometry":{"type":"Point","coordinates":[20.4297810163441,45.3047171737255]}},{"type":"Feature","properties":{"amenity":"post_office","name":"23243 Ботош","name:sr":"23243 Ботош","name:sr-Latn":"23243 Botoš","ref":"23243","opening_hours":"Mo-Fr 08:00-14:30; PH off","phone":"+381 23 877-102","addr:pak":"355808"},"geometry":{"type":"Point","coordinates":[20.6412725069316,45.3110740765403]}},{"type":"Feature","properties":{"name:sr":"23262 Томашевац","opening_hours":"Mo-Fr 07:30-14:00; PH off","addr:housenumber":"6","name":"23262 Томашевац","amenity":"post_office","phone":"+381 23 871-100","ref":"23262","name:sr-Latn":"23262 Tomaševac","addr:pak":"357101","addr:street":"Трг Слободе"},"geometry":{"type":"Point","coordinates":[20.61960231155,45.2677988274102]}},{"type":"Feature","properties":{"name:sr":"23263 Орловат","opening_hours":"Mo-Fr 07:30-14:00; PH off","addr:housenumber":"2","name":"23263 Орловат","amenity":"post_office","phone":"+381 23 873-111","ref":"23263","name:sr-Latn":"23263 Orlovat","addr:pak":"357001","addr:street":"Трг Уроша Предића"},"geometry":{"type":"Point","coordinates":[20.5832358526004,45.2397765904191]}},{"type":"Feature","properties":{"name:sr":"23264 Фаркаждин","opening_hours":"Mo-Fr 07:00-12:00; PH off","addr:housenumber":"1","name":"23264 Фаркаждин","amenity":"post_office","phone":"+381 23 3868-020","ref":"23264","name:sr-Latn":"23264 Farkaždin","addr:pak":"356808","addr:street":"Трг ослобођења"},"geometry":{"type":"Point","coordinates":[20.4733043170521,45.1886612712558]}}]}