{"type":"FeatureCollection","features":[{"type":"Feature","properties":{"name:sr":"23101 Зрењанин","opening_hours":"Mo-Fr 08:00-19:00; Sa 08:00-14:00; PH off","addr:housenumber":"1","name":"23101 Зрењанин","amenity":"post_office","phone":"+381 23 593-413;+381 23 593-415","ref":"23101","name:sr-Latn":"23101 Zrenjanin","addr:pak":"350201","addr:street":"Пупинова"},"geometry":{"type":"Point","coordinates":[20.3915054891495,45.380686870576]}},{"type":"Feature","properties":{"name:sr":"23202 Михајлово","opening_hours":"Mo-Fr 07:00-11:00; PH off","addr:housenumber":"3А","name":"23202 Михајлово","amenity":"post_office","phone":"+381 23 3894-009","ref":"23202","name:sr-Latn":"23202 Mihajlovo","addr:pak":"357223","addr:street":"Петефи Шандора"},"geometry":{"type":"Point","coordinates":[20.4151026300292,45.4732275415726]}},{"type":"Feature","properties":{"name:sr":"23206 Мужља","opening_hours":"Mo-Fr 08:00-14:00; Sa 08:00-12:00; PH off","addr:housenumber":"57","name":"23206 Мужља","amenity":"post_office","phone":"+381 23 593-452","ref":"23206","name:sr-Latn":"23206 Mužlja","addr:pak":"354001","addr:street":"Мађарске Комуне"},"geometry":{"type":"Point","coordinates":[20.4099658511765,45.3421029069997]}},{"type":"Feature","properties":{"name:sr":"23210 Житиште","opening_hours":"Mo-Fr 08:00-14:00; Sa 08:00-12:00; PH off","addr:housenumber":"7","name":"23210 Житиште","amenity":"post_office","phone":"+381 23 593-454","ref":"23210","name:sr-Latn":"23210 Žitište","addr:pak":"361101","addr:street":"Цара Душана"},"geometry":{"type":"Point","coordinates":[20.5515187385808,45.483418303395]}},{"type":"Feature","properties":{"name:sr":"23211 Клек","opening_hours":"Mo-Fr 07:30-13:30; Sa 08:00-12:00; PH off","addr:housenumber":"30","name":"23211 Клек","amenity":"post_office","phone":"+381 23 891-002","ref":"23211","name:sr-Latn":"23211 Klek","addr:pak":"354801","addr:street":"Саве Ковачевића"},"geometry":{"type":"Point","coordinates":[20.4801875680269,45.4212708238936]}},{"type":"Feature","properties":{"name:sr":"23212 Равни Тополовац","opening_hours":"Mo-Fr 07:30-11:30; PH off","addr:housenumber":"2","name":"23212 Равни Тополовац","amenity":"post_office","phone":"+381 23 829-230","ref":"23212","name:sr-Latn":"23212 Ravni Topolovac","addr:pak":"361401","addr:street":"Сутјеска"},"geometry":{"type":"Point","coordinates":[20.5688484237902,45.4595153822204]}},{"type":"Feature","properties":{"name:sr":"23213 Банатски Двор","opening_hours":"Tu,Th 07:30-14:00; PH off","addr:housenumber":"17","name":"23213 Банатски Двор","amenity":"post_office","phone":"+381 23 820-164","ref":"23213","name:sr-Latn":"23213 Banatski Dvor","addr:pak":"361501","addr:street":"Железничка"},"geometry":{"type":"Point","coordinates":[20.5120090870311,45.5221531329097]}},{"type":"Feature","properties":{"name:sr":"23215 Честерег","opening_hours":"Mo,We,Fr 07:30-14:00; PH off","addr:housenumber":"49","name":"23215 Честерег","amenity":"post_office","phone":"+381 23 833-494","ref":"23215","name:sr-Latn":"23215 Čestereg","addr:pak":"361710","addr:street":"Маршала Тита"},"geometry":{"type":"Point","coordinates":[20.5314234336518,45.5625201366198]}},{"type":"Feature","properties":{"name:sr":"23231 Крајишник","opening_hours":"Mo-Fr 07:30-13:30; Sa 07:30-11:30; PH off","addr:housenumber":"64","name":"23231 Крајишник","amenity":"post_office","phone":"+381 23 854-712","ref":"23231","name:sr-Latn":"23231 Krajišnik","addr:pak":"368303","addr:street":"Славка Родића"},"geometry":{"type":"Point","coordinates":[20.7295926211298,45.4528626287911]}},{"type":"Feature","properties":{"name:sr":"23232 Торак","opening_hours":"Mo-Fr 07:30-13:30; Sa 07:30-11:30; PH off","addr:housenumber":"2","name":"23232 Торак","amenity":"post_office","phone":"+381 23 3827-111","ref":"23232","name:sr-Latn":"23232 Torak","addr:pak":"362211","addr:street":"Маршала Тита"},"geometry":{"type":"Point","coordinates":[20.6033898820538,45.5069224303697]}},{"type":"Feature","properties":{"name:sr":"23233 Српски Итебеј","opening_hours":"Mo-Fr 08:00-14:00; Sa 08:00-12:00; PH off","addr:housenumber":"4","name":"23233 Српски Итебеј","amenity":"post_office","phone":"+381 23 3837-900","ref":"23233","name:sr-Latn":"23233 Srpski Itebej","addr:pak":"362001","addr:street":"Трг Слободе"},"geometry":{"type":"Point","coordinates":[20.71479950319,45.5669563595233]}},{"type":"Feature","properties":{"name:sr":"23236 Нови Итебеј","opening_hours":"Mo-Fr 07:30-14:00; PH off","addr:housenumber":"15","name":"23236 Нови Итебеј","amenity":"post_office","phone":"+381 23 3837-119","ref":"23236","name:sr-Latn":"23236 Novi Itebej","addr:pak":"362601","addr:street":"Кошут Лајоша"},"geometry":{"type":"Point","coordinates":[20.7024277909349,45.5573101429873]}},{"type":"Feature","properties":{"name:sr":"23241 Лазарево","opening_hours":"Mo-Fr 08:00-14:00; Sa 07:30-11:30; PH off","addr:housenumber":"17","name":"23241 Лазарево","amenity":"post_office","phone":"+381 23 896-527","ref":"23241","name:sr-Latn":"23241 Lazarevo","addr:pak":"355508","addr:street":"Жарка Зрењанина"},"geometry":{"type":"Point","coordinates":[20.5383736555094,45.3869946473324]}},{"type":"Feature","properties":{"amenity":"post_office","name":"23242 Банатски Деспотовац","name:sr":"23242 Банатски Деспотовац","name:sr-Latn":"23242 Banatski Despotovac","ref":"23242","opening_hours":"Mo-Fr 08:00-14:30; PH off","phone":"+381 23 3879-000","addr:pak":"355701"},"geometry":{"type":"Point","coordinates":[20.6619654627558,45.3639604172613]}},{"type":"Feature","properties":{"name:sr":"23244 Сутјеска","opening_hours":"Mo-Fr 07:30-14:00; PH off","addr:housenumber":"37","name":"23244 Сутјеска","amenity":"post_office","phone":"+381 23 851-000","ref":"23244","name:sr-Latn":"23244 Sutjeska","addr:pak":"367501","addr:street":"Бориса Кидрича"},"geometry":{"type":"Point","coordinates":[20.6986251432673,45.3812578310442]}},{"type":"Feature","properties":{"name:sr":"23245 Неузина","opening_hours":"Mo-Fr 07:30-14:00; PH off","addr:housenumber":"55","name":"23245 Неузина","amenity":"post_office","phone":"+381 23 852-200","ref":"23245","name:sr-Latn":"23245 Neuzina","addr:pak":"367608","addr:street":"Ђуре Рашкова"},"geometry":{"type":"Point","coordinates":[20.7119083664986,45.3442381177651]}},{"type":"Feature","properties":{"name:sr":"23261 Лукићево","opening_hours":"Mo-Fr 07:30-14:00; PH off","addr:housenumber":"5","name":"23261 Лукићево","amenity":"post_office","phone":"+381 23 875-011","ref":"23261","name:sr-Latn":"23261 Lukićevo","addr:pak":"356933","addr:street":"Жарка Пуцара"},"geometry":{"type":"Point","coordinates":[20.4972422233959,45.3377728246585]}},{"type":"Feature","properties":{"name:sr":"23255 Златица","opening_hours":"Mo-Fr 07:30-11:00; PH off","addr:housenumber":"12","name":"23255 Златица","amenity":"post_office","phone":"+381 23 898-110","ref":"23255","name:sr-Latn":"23255 Zlatica","addr:pak":"355601","addr:street":"Главна"},"geometry":{"type":"Point","coordinates":[20.5791448472394,45.3852403710908]}},{"type":"Feature","properties":{"name:sr":"23106 Зрењанин","opening_hours":"Mo-Fr 07:30-19:00; Sa 07:30-14:00; PH off","addr:housenumber":"52","name":"23106 Зрењанин","amenity":"post_office","phone":"+381 23 593-450","ref":"23106","name:sr-Latn":"23106 Zrenjanin","addr:pak":"352319","addr:street":"Коче Коларова"},"geometry":{"type":"Point","coordinates":[20.4035819152222,45.3724308180823]}},{"type":"Feature","properties":{"name:sr":"23109 Зрењанин","opening_hours":"Mo-Fr 08:00-14:00; Sa 08:00-12:00; PH off","addr:housenumber":"ББ","name":"23109 Зрењанин","amenity":"post_office","phone":"+381 23 562-055","ref":"23109","name:sr-Latn":"23109 Zrenjanin","addr:pak":"351703","addr:street":"Београдска"},"geometry":{"type":"Point","coordinates":[20.4153969613884,45.3732503890008]}},{"type":"Feature","properties":{"name:sr":"23112 Зрењанин","opening_hours":"Mo-Fr 08:00-14:00; Sa 08:00-12:00; PH off","addr:housenumber":"107","name":"23112 Зрењанин","amenity":"post_office","phone":"+381 23 561-485","ref":"23112","name:sr-Latn":"23112 Zrenjanin","addr:pak":"350513","addr:street":"Цара Душана"},"geometry":{"type":"Point","coordinates":[20.3917590153878,45.3911217678054]}},{"type":"Feature","properties":{"name:sr":"23115 Зрењанин","opening_hours":"Mo-Fr 07:30-14:30; PH off","addr:housenumber":"18","name":"23115 Зрењанин","amenity":"post_office","phone":"+381 23 548-717","ref":"23115","name:sr-Latn":"23115 Zrenjanin","addr:pak":"352119","addr:street":"Барањска"},"geometry":{"type":"Point","coordinates":[20.4167701594106,45.3758682154241]}},{"type":"Feature","properties":{"name:sr":"23105 Зрењанин","opening_hours":"Tu,Th 07:30-14:30; PH off","addr:housenumber":"27","name":"23105 Зрењанин","amenity":"post_office","phone":"+381 23 563-023","ref":"23105","name:sr-Latn":"23105 Zrenjanin","addr:pak":"350339","addr:street":"Топличина"},"geometry":{"type":"Point","coordinates":[20.4072395863657,45.390112521708]}},{"type":"Feature","properties":{"name:sr":"23103 Зрењанин","opening_hours":"Mo-Fr 07:00-14:00; PH off","addr:housenumber":"46","name":"23103 Зрењанин","amenity":"post_office","phone":"+381 23 544-550","ref":"23103","name:sr-Latn":"23103 Zrenjanin","addr:pak":"351916","addr:street":"Панчевачка"},"geometry":{"type":"Point","coordinates":[20.4054623153251,45.3640275224321]}},{"type":"Feature","properties":{"name:sr":"23104 Зрењанин","opening_hours":"Mo-Fr 08:00-19:00; Sa 07:30-14:00; PH off","addr:housenumber":"86","name":"23104 Зрењанин","amenity":"post_office","phone":"+381 23 511473","ref":"23104","name:sr-Latn":"23104 Zrenjanin","addr:pak":"352471","addr:street":"Милетићева"},"geometry":{"type":"Point","coordinates":[20.4068212240896,45.3829891724417]}},{"type":"Feature","properties":{"name:sr":"23116 Зрењанин","opening_hours":"Mo-Sa,PH 07:30-19:30","addr:housenumber":"ББ","name":"23116 Зрењанин","amenity":"post_office","phone":"+381 23 525-807","ref":"23116","name:sr-Latn":"23116 Zrenjanin","addr:pak":"350618","addr:street":"Барска"},"geometry":{"type":"Point","coordinates":[20.3906924818061,45.3636568050449]}}]}