{"type":"FeatureCollection","features":[{"type":"Feature","properties":{"name:sr":"23312 Банатско Велико Село","opening_hours":"Mo-Fr 07:00-14:00; PH off","addr:housenumber":"2","name":"23312 Банатско Велико Село","amenity":"post_office","phone":"+381 230 451-400","ref":"23312","name:sr-Latn":"23312 Banatsko Veliko Selo","addr:pak":"372301","addr:street":"Омладинска"},"geometry":{"type":"Point","coordinates":[20.6039346354929,45.8215243643642]}},{"type":"Feature","properties":{"name:sr":"23313 Нови Козарци","opening_hours":"Mo-Fr 07:00-14:00; PH off","addr:housenumber":"76","name":"23313 Нови Козарци","amenity":"post_office","phone":"+381 230 356-000","ref":"23313","name:sr-Latn":"23313 Novi Kozarci","addr:pak":"372401","addr:street":"Краља Петра првог"},"geometry":{"type":"Point","coordinates":[20.6188551194186,45.7808871502708]}},{"type":"Feature","properties":{"name:sr":"23314 Руско Село","opening_hours":"Mo-Fr 07:00-14:00; PH off","addr:housenumber":"121","name":"23314 Руско Село","amenity":"post_office","phone":"+381 230 458-600","ref":"23314","name:sr-Latn":"23314 Rusko Selo","addr:pak":"372542","addr:street":"Братства и Јединства"},"geometry":{"type":"Point","coordinates":[20.577605403598,45.7583283181931]}},{"type":"Feature","properties":{"name:sr":"23315 Банатска Топола","opening_hours":"Mo-Fr 07:00-11:00; PH off","addr:housenumber":"24","name":"23315 Банатска Топола","amenity":"post_office","phone":"+381 230 67-200","ref":"23315","name:sr-Latn":"23315 Banatska Topola","addr:pak":"372620","addr:street":"Вука Караџића"},"geometry":{"type":"Point","coordinates":[20.4637818381672,45.6722412072419]}},{"type":"Feature","properties":{"name:sr":"23316 Башаид","opening_hours":"Mo-Fr 07:00-14:00; PH off","addr:housenumber":"67","name":"23316 Башаид","amenity":"post_office","phone":"+381 230 468-000","ref":"23316","name:sr-Latn":"23316 Bašaid","addr:pak":"372701","addr:street":"Војвођанска"},"geometry":{"type":"Point","coordinates":[20.4150081978318,45.6411621838916]}},{"type":"Feature","properties":{"name:sr":"23214 Торда","opening_hours":"Mo-Fr 07:30-14:00; PH off","addr:housenumber":"9","name":"23214 Торда","amenity":"post_office","phone":"+381 23 831-000","ref":"23214","name:sr-Latn":"23214 Torda","addr:pak":"361611","addr:street":"Жарка Зрењанина"},"geometry":{"type":"Point","coordinates":[20.4573120076644,45.5853628767642]}},{"type":"Feature","properties":{"name:sr":"23216 Банатско Карађорђево","opening_hours":"Mo-Fr 07:30-13:30; Sa 08:00-12:00; PH off","addr:housenumber":"20","name":"23216 Банатско Карађорђево","amenity":"post_office","phone":"+381 23 835-003","ref":"23216","name:sr-Latn":"23216 Banatsko Karađorđevo","addr:pak":"361801","addr:street":"Солунских добровољаца"},"geometry":{"type":"Point","coordinates":[20.5599040010181,45.5885063804139]}},{"type":"Feature","properties":{"name:sr":"23217 Александрово","opening_hours":"Mo-Fr 08:00-14:00; Sa 08:00-12:00; PH off","addr:housenumber":"49","name":"23217 Александрово","amenity":"post_office","phone":"+381 23 817-001","ref":"23217","name:sr-Latn":"23217 Aleksandrovo","addr:pak":"364101","addr:street":"Михајла Пупина"},"geometry":{"type":"Point","coordinates":[20.5905980695628,45.6397311616575]}},{"type":"Feature","properties":{"name:sr":"23218 Нова Црња","opening_hours":"Mo-Fr 08:00-14:00; Sa 08:00-12:00; PH off","addr:housenumber":"110","name":"23218 Нова Црња","amenity":"post_office","phone":"+381 23 815-001","ref":"23218","name:sr-Latn":"23218 Nova Crnja","addr:pak":"363010","addr:street":"ЈНА"},"geometry":{"type":"Point","coordinates":[20.6046490585939,45.6675610932572]}},{"type":"Feature","properties":{"name:sr":"23219 Војвода Степа","opening_hours":"Mo-Fr 07:30-14:00; PH off","addr:housenumber":"ББ","name":"23219 Војвода Степа","amenity":"post_office","phone":"+381 23 818-000","ref":"23219","name:sr-Latn":"23219 Vojvoda Stepa","addr:pak":"364334","addr:street":"ЈНА"},"geometry":{"type":"Point","coordinates":[20.6565675415016,45.684605441105]}},{"type":"Feature","properties":{"name:sr":"23220 Српска Црња","opening_hours":"Mo-Fr 08:00-14:00; Sa 08:00-12:00; PH off","addr:housenumber":"66","name":"23220 Српска Црња","amenity":"post_office","phone":"+381 23 593-455","ref":"23220","name:sr-Latn":"23220 Srpska Crnja","addr:pak":"363601","addr:street":"Краља Александра"},"geometry":{"type":"Point","coordinates":[20.6936328409363,45.7239423050876]}},{"type":"Feature","properties":{"name:sr":"23222 Тоба","opening_hours":"Mo-Fr 07:30-11:30; PH off","addr:housenumber":"16","name":"23222 Тоба","amenity":"post_office","phone":"+381 23 810-001","ref":"23222","name:sr-Latn":"23222 Toba","addr:pak":"364520","addr:street":"Кошут Лајоша"},"geometry":{"type":"Point","coordinates":[20.5577941418575,45.6881946395836]}},{"type":"Feature","properties":{"name:sr":"23301 Кикинда","opening_hours":"Mo-Fr 07:00-14:00; PH off","addr:housenumber":"105","name":"23301 Кикинда","amenity":"post_office","phone":"+381 230 423-000","ref":"23301","name:sr-Latn":"23301 Kikinda","addr:pak":"370828","addr:street":"Светосавска"},"geometry":{"type":"Point","coordinates":[20.4545943356162,45.8220920565682]}},{"type":"Feature","properties":{"name:sr":"23304 Кикинда","opening_hours":"Mo-Fr 07:00-14:00; PH off","addr:housenumber":"83","name":"23304 Кикинда","amenity":"post_office","phone":"+381 230 23-743","ref":"23304","name:sr-Latn":"23304 Kikinda","addr:pak":"371331","addr:street":"Милоша Великог"},"geometry":{"type":"Point","coordinates":[20.4755865366221,45.8215477176097]}}]}