{"type":"FeatureCollection","features":[{"type":"Feature","properties":{"name:sr":"23300 Кикинда","opening_hours":"Mo-Fr 08:00-18:00; Sa 08:00-14:00; PH off","addr:housenumber":"26","name":"23300 Кикинда","amenity":"post_office","phone":"+381 230 413-013;+381 23 413-015","ref":"23300","name:sr-Latn":"23300 Kikinda","addr:pak":"371201","addr:street":"Генерала Драпшина"},"geometry":{"type":"Point","coordinates":[20.4680679141059,45.8297787032755]}},{"type":"Feature","properties":{"amenity":"post_office","name":"23305 Мокрин","name:sr":"23305 Мокрин","name:sr-Latn":"23305 Mokrin","ref":"23305","opening_hours":"Mo-Fr 07:00-14:00; PH off","phone":"+381 230 61-777","addr:pak":"378101"},"geometry":{"type":"Point","coordinates":[20.4104337896581,45.9339120902324]}},{"type":"Feature","properties":{"name:sr":"23311 Наково","opening_hours":"Mo-Fr 07:00-14:00; PH off","addr:housenumber":"999","name":"23311 Наково","amenity":"post_office","phone":"+381 230 454-300","ref":"23311","name:sr-Latn":"23311 Nakovo","addr:pak":"372255","addr:street":"Главна Улица"},"geometry":{"type":"Point","coordinates":[20.5668628305081,45.8743500887996]}},{"type":"Feature","properties":{"name:sr":"23307 Кикинда","opening_hours":"Mo-Fr 07:00-14:00; PH off","addr:housenumber":"12","name":"23307 Кикинда","amenity":"post_office","phone":"+381 230 27-393","ref":"23307","name:sr-Latn":"23307 Kikinda","addr:pak":"370701","addr:street":"Трг српских добровољаца"},"geometry":{"type":"Point","coordinates":[20.4649446423097,45.8288665914422]}},{"type":"Feature","properties":{"name:sr":"23302 Кикинда","opening_hours":"Mo-Fr 08:00-15:00; PH off","addr:housenumber":"47","name":"23302 Кикинда","amenity":"post_office","phone":"+381 230 322-000","ref":"23302","name:sr-Latn":"23302 Kikinda","addr:pak":"370561","addr:street":"Жарка Зрењанина"},"geometry":{"type":"Point","coordinates":[20.454181989509,45.8306295364839]}},{"type":"Feature","properties":{"name:sr":"23306 Кикинда","opening_hours":"Mo-Fr 07:00-14:00; PH off","addr:housenumber":"35","name":"23306 Кикинда","amenity":"post_office","phone":"+381 230 421-558","ref":"23306","name:sr-Latn":"23306 Kikinda","addr:pak":"370233","addr:street":"Браће Лаковић"},"geometry":{"type":"Point","coordinates":[20.4723032580479,45.8399242486771]}}]}