{"type":"FeatureCollection","features":[{"type":"Feature","properties":{"name:sr":"36354 Копаоник","opening_hours":"Mo-Fr 09:00-14:30; PH off","addr:housenumber":"ББ","name":"36354 Копаоник","amenity":"post_office","phone":"+381 36 303-129","ref":"36354","name:sr-Latn":"36354 Kopaonik","addr:pak":"568901","addr:street":"Копаоник"},"geometry":{"type":"Point","coordinates":[20.8089243593825,43.2861844697374]}},{"type":"Feature","properties":{"name:sr":"37225 Брзеће","opening_hours":"Mo-Fr 07:00-13:00; PH off","addr:housenumber":"ББ","name":"37225 Брзеће","amenity":"post_office","phone":"+381 37 3823-500","ref":"37225","name:sr-Latn":"37225 Brzeće","addr:pak":"664206","addr:street":"Бела Река"},"geometry":{"type":"Point","coordinates":[20.879686433788,43.2926435351881]}},{"type":"Feature","properties":{"amenity":"post_office","name":"37226 Блажево","name:sr":"37226 Блажево","name:sr-Latn":"37226 Blaževo","ref":"37226","opening_hours":"Mo,We,Fr 08:00-11:00; PH off","phone":"+381 37 475-300","addr:pak":"664301"},"geometry":{"type":"Point","coordinates":[20.9215387283422,43.2274628064757]}},{"type":"Feature","properties":{"amenity":"post_office","name":"18436 Мерћез","name:sr":"18436 Мерћез","name:sr-Latn":"18436 Merćez","ref":"18436","opening_hours":"Mo,We 08:00-11:30; PH off","phone":"+381 27 381-110","addr:pak":"657501"},"geometry":{"type":"Point","coordinates":[21.0631982830775,43.2414982201439]}},{"type":"Feature","properties":{"name:sr":"18437 Луковска Бања","opening_hours":"Mo-Fr 08:00-12:00; PH off","addr:housenumber":"ББ","name":"18437 Луковска Бања","amenity":"post_office","phone":"+381 27 385-963","ref":"18437","name:sr-Latn":"18437 Lukovska Banja","addr:pak":"657601","addr:street":"Косте Војиновића"},"geometry":{"type":"Point","coordinates":[21.0348691681095,43.1659960183737]}},{"type":"Feature","properties":{"amenity":"post_office","name":"38218 Лепосавић","name:sr":"38218 Лепосавић","name:sr-Latn":"38218 Leposavić","ref":"38218","opening_hours":"Mo-Fr 07:00-14:00; Sa 08:00-13:00; PH off","phone":"+381 28 83-211;+381 28 83-215","addr:pak":"900701"},"geometry":{"type":"Point","coordinates":[20.801554385427,43.1018908114622]}}]}