{"type":"FeatureCollection","features":[{"type":"Feature","properties":{"name:sr":"36345 Јошаничка Бања","opening_hours":"Mo-Fr 07:00-14:00; PH off","addr:housenumber":"28","name":"36345 Јошаничка Бања","amenity":"post_office","phone":"+381 36 303-127","ref":"36345","name:sr-Latn":"36345 Jošanička Banja","addr:pak":"568751","addr:street":"Милунке Савић"},"geometry":{"type":"Point","coordinates":[20.7504546127899,43.3887716003125]}},{"type":"Feature","properties":{"name:sr":"37220 Брус","opening_hours":"Mo-Fr 07:00-17:00; Sa 08:00-13:00; PH off","addr:housenumber":"ББ","name":"37220 Брус","amenity":"post_office","phone":"+381 37 413787;+381 37 413790","ref":"37220","name:sr-Latn":"37220 Brus","addr:pak":"663125","addr:street":"Лоле Рибара"},"geometry":{"type":"Point","coordinates":[21.0316581160208,43.3836719031932]}},{"type":"Feature","properties":{"amenity":"post_office","name":"37224 Лепенац","name:sr":"37224 Лепенац","name:sr-Latn":"37224 Lepenac","ref":"37224","opening_hours":"Mo,We,Fr 07:00-10:00; PH off","phone":"+381 37 834-110","addr:pak":"664001"},"geometry":{"type":"Point","coordinates":[21.0783960623138,43.3525665161966]}},{"type":"Feature","properties":{"amenity":"post_office","name":"37227 Милентија","name:sr":"37227 Милентија","name:sr-Latn":"37227 Milentija","ref":"37227","opening_hours":"Mo,We,Fr 08:00-11:00; PH off","phone":"+381 37 820-310","addr:pak":"664501"},"geometry":{"type":"Point","coordinates":[20.9901418234644,43.4329618689051]}},{"type":"Feature","properties":{"amenity":"post_office","name":"37230 Александровац","name:sr":"37230 Александровац","name:sr-Latn":"37230 Aleksandrovac","ref":"37230","opening_hours":"Mo-Fr 07:00-17:00; Sa 08:00-13:00; PH off","phone":"+381 37 413744;+381 37 413780","addr:pak":"660201"},"geometry":{"type":"Point","coordinates":[21.0428348934671,43.4592822939292]}},{"type":"Feature","properties":{"amenity":"post_office","name":"37238 Плеш","name:sr":"37238 Плеш","name:sr-Latn":"37238 Pleš","ref":"37238","opening_hours":"Mo-Fr 07:00-13:00; PH off","phone":"+381 37 836-111","addr:pak":"662100"},"geometry":{"type":"Point","coordinates":[20.9171166396068,43.4840571624238]}},{"type":"Feature","properties":{"amenity":"post_office","name":"37239 Шљивово","name:sr":"37239 Шљивово","name:sr-Latn":"37239 Šljivovo","ref":"37239","opening_hours":"Mo-Fr 07:00-13:00; PH off","phone":"+381 37 768-110","addr:pak":"662301"},"geometry":{"type":"Point","coordinates":[21.0749324677231,43.4123781525983]}},{"type":"Feature","properties":{"amenity":"post_office","name":"37247 Јасиковица","name:sr":"37247 Јасиковица","name:sr-Latn":"37247 Jasikovica","ref":"37247","opening_hours":"Mo,We,Fr 08:00-11:00; PH off","phone":"+381 37 3437-247","addr:pak":"666423"},"geometry":{"type":"Point","coordinates":[21.049938121495,43.5520136488228]}}]}