{"type":"FeatureCollection","features":[{"type":"Feature","properties":{"amenity":"post_office","name":"35264 Превешт","name:sr":"35264 Превешт","name:sr-Latn":"35264 Prevešt","ref":"35264","opening_hours":"Mo-Fr 08:00-11:00; PH off","phone":"+381 35 8414-002","addr:pak":"589201"},"geometry":{"type":"Point","coordinates":[21.0401337498596,43.7552507112989]}},{"type":"Feature","properties":{"amenity":"post_office","name":"35265 Драгово","name:sr":"35265 Драгово","name:sr-Latn":"35265 Dragovo","ref":"35265","opening_hours":"Mo-Fr 08:00-11:00; PH off","phone":"+381 35 415-400","addr:pak":"589301"},"geometry":{"type":"Point","coordinates":[21.081231206814,43.792152820794]}},{"type":"Feature","properties":{"amenity":"post_office","name":"36206 Витановац","name:sr":"36206 Витановац","name:sr-Latn":"36206 Vitanovac","ref":"36206","opening_hours":"Mo-Fr 09:00-15:00; PH off","phone":"+381 36 5871-112","addr:pak":"566101"},"geometry":{"type":"Point","coordinates":[20.8017011812741,43.7285700310925]}},{"type":"Feature","properties":{"amenity":"post_office","name":"36207 Витковац","name:sr":"36207 Витковац","name:sr-Latn":"36207 Vitkovac","ref":"36207","opening_hours":"Mo-Fr 09:00-15:00; PH off","phone":"+381 36 5873-112","addr:pak":"566001"},"geometry":{"type":"Point","coordinates":[20.7897768788118,43.7906643873061]}},{"type":"Feature","properties":{"name:sr":"36210 Врњачка Бања","opening_hours":"Mo-Fr 07:00-19:00; Sa 08:00-15:00; PH off","addr:housenumber":"8М","name":"36210 Врњачка Бања","amenity":"post_office","phone":"+381 36 303-122;+381 36 303-112;+381 36 303-113","ref":"36210","name:sr-Latn":"36210 Vrnjačka Banja","addr:pak":"567101","addr:street":"Немањина"},"geometry":{"type":"Point","coordinates":[20.892801636735,43.622397397979]}},{"type":"Feature","properties":{"amenity":"post_office","name":"36212 Ратина","name:sr":"36212 Ратина","name:sr-Latn":"36212 Ratina","ref":"36212","opening_hours":"Mo-Fr 08:00-14:00; PH off","phone":"+381 36 303-123","addr:pak":"566501"},"geometry":{"type":"Point","coordinates":[20.7491610185355,43.7029904715168]}},{"type":"Feature","properties":{"name:sr":"36214 Врба","opening_hours":"Mo-Fr 07:00-14:00; PH off","addr:housenumber":"35","name":"36214 Врба","amenity":"post_office","phone":"+381 36 5865-433","ref":"36214","name:sr-Latn":"36214 Vrba","addr:pak":"566601","addr:street":"Врба"},"geometry":{"type":"Point","coordinates":[20.7834237259565,43.6918592366724]}},{"type":"Feature","properties":{"amenity":"post_office","name":"36215 Подунавци","name:sr":"36215 Подунавци","name:sr-Latn":"36215 Podunavci","ref":"36215","opening_hours":"Mo-Fr 08:30-14:00; PH off","phone":"+381 36 303-131","addr:pak":"566701"},"geometry":{"type":"Point","coordinates":[20.8294536694778,43.6728683281379]}},{"type":"Feature","properties":{"amenity":"post_office","name":"36216 Ново Село","name:sr":"36216 Ново Село","name:sr-Latn":"36216 Novo Selo","ref":"36216","opening_hours":"Mo-Fr 08:00-14:00; PH off","phone":"+381 36 303-132","addr:pak":"568301"},"geometry":{"type":"Point","coordinates":[20.881675601588,43.6507907293498]}},{"type":"Feature","properties":{"name:sr":"36217 Врњци","opening_hours":"Mo-Fr 08:30-14:30; PH off","addr:housenumber":"28","name":"36217 Врњци","amenity":"post_office","phone":"+381 36 611-159","ref":"36217","name:sr-Latn":"36217 Vrnjci","addr:pak":"568101","addr:street":"Трстеничка"},"geometry":{"type":"Point","coordinates":[20.9248241063739,43.6387484395723]}},{"type":"Feature","properties":{"amenity":"post_office","name":"36220 Чукојевац","name:sr":"36220 Чукојевац","name:sr-Latn":"36220 Čukojevac","ref":"36220","opening_hours":"Mo-Fr 09:00-15:00; PH off","phone":"+381 36 303-092","addr:pak":"566201"},"geometry":{"type":"Point","coordinates":[20.8288931711868,43.7155739374061]}},{"type":"Feature","properties":{"name:sr":"37240 Трстеник 1","opening_hours":"Mo-Fr 07:00-19:00; Sa 08:00-15:00; PH off","addr:housenumber":"6","name":"37240 Трстеник 1","amenity":"post_office","phone":"+381 37 413783;+381 37 413793","ref":"37240","name:sr-Latn":"37240 Trstenik 1","addr:pak":"665101","addr:street":"Цара Душана"},"geometry":{"type":"Point","coordinates":[20.9965204870568,43.6200000924075]}},{"type":"Feature","properties":{"amenity":"post_office","name":"37243 Почековина","name:sr":"37243 Почековина","name:sr-Latn":"37243 Počekovina","ref":"37243","opening_hours":"Mo-Fr 07:00-14:00; PH off","phone":"+381 37 731-100","addr:pak":"666961"},"geometry":{"type":"Point","coordinates":[21.0514255557967,43.599707360705]}},{"type":"Feature","properties":{"amenity":"post_office","name":"37244 Медвеђа","name:sr":"37244 Медвеђа","name:sr-Latn":"37244 Medveđa","ref":"37244","opening_hours":"Mo-Fr 07:00-14:00; PH off","phone":"+381 37 723-100","addr:pak":"667001"},"geometry":{"type":"Point","coordinates":[21.0731590098438,43.6321854665003]}},{"type":"Feature","properties":{"amenity":"post_office","name":"37241 Трстеник 3","name:sr":"37241 Трстеник 3","name:sr-Latn":"37241 Trstenik 3","ref":"37241","opening_hours":"Mo-Fr 07:00-14:00; PH off","phone":"+381 37 713-890","addr:pak":"665213"},"geometry":{"type":"Point","coordinates":[20.996935746476,43.6176758595881]}}]}