{"type":"FeatureCollection","features":[{"type":"Feature","properties":{"name:sr":"11320 Велика Плана","opening_hours":"Mo-Fr 07:00-19:00; Sa 08:00-14:00; PH off","addr:housenumber":"111","name":"11320 Велика Плана","amenity":"post_office","phone":"+381 26 634-080;+381 26 634-079;+381 26 634-083","ref":"11320","name:sr-Latn":"11320 Velika Plana","addr:pak":"238301","addr:street":"Милоша Великог"},"geometry":{"type":"Point","coordinates":[21.0770485842054,44.3337459501761]}},{"type":"Feature","properties":{"amenity":"post_office","name":"11424 Баничина","name:sr":"11424 Баничина","name:sr-Latn":"11424 Baničina","ref":"11424","opening_hours":"Mo,Tu 07:30-10:30; We 07:30-09:30; Th,Fr 07:30-10:30; PH off","phone":"+381 26 382-101","addr:pak":"236019"},"geometry":{"type":"Point","coordinates":[20.9388936902942,44.2880980021886]}},{"type":"Feature","properties":{"name:sr":"34210 Рача","opening_hours":"Mo-Fr 08:00-19:00; Sa 07:00-14:00; PH off","addr:housenumber":"26","name":"34210 Рача","amenity":"post_office","phone":"+381 34 504156;+381 34 751905","ref":"34210","name:sr-Latn":"34210 Rača","addr:pak":"545003","addr:street":"Карађорђева"},"geometry":{"type":"Point","coordinates":[20.9817206832574,44.2250842664111]}},{"type":"Feature","properties":{"amenity":"post_office","name":"34212 Мало Крчмаре","name:sr":"34212 Мало Крчмаре","name:sr-Latn":"34212 Malo Krčmare","ref":"34212","opening_hours":"Mo-Fr 08:00-12:00; PH off","phone":"+381 34 571-311","addr:pak":"545301"},"geometry":{"type":"Point","coordinates":[20.9206994705801,44.1533009713774]}},{"type":"Feature","properties":{"amenity":"post_office","name":"34225 Ресник","name:sr":"34225 Ресник","name:sr-Latn":"34225 Resnik","ref":"34225","opening_hours":"Mo-Fr 07:00-11:00; PH off","phone":"+381 34 6572-200","addr:pak":"557201"},"geometry":{"type":"Point","coordinates":[20.941838104704,44.1101460613064]}},{"type":"Feature","properties":{"name:sr":"34227 Баточина","opening_hours":"Mo-Fr 08:00-16:00; Sa 07:00-14:00; PH off","addr:housenumber":"4","name":"34227 Баточина","amenity":"post_office","phone":"+381 34 504-084;+381 34 6842-338","ref":"34227","name:sr-Latn":"34227 Batočina","addr:pak":"546003","addr:street":"Карађорђев трг"},"geometry":{"type":"Point","coordinates":[21.0793845853967,44.1545801186181]}},{"type":"Feature","properties":{"amenity":"post_office","name":"34313 Наталинци","name:sr":"34313 Наталинци","name:sr-Latn":"34313 Natalinci","ref":"34313","opening_hours":"Mo-Fr 08:00-14:00; PH off","phone":"+381 34 821-611","addr:pak":"544201"},"geometry":{"type":"Point","coordinates":[20.8024839125091,44.2525281506734]}},{"type":"Feature","properties":{"amenity":"post_office","name":"34322 Чумић","name:sr":"34322 Чумић","name:sr-Latn":"34322 Čumić","ref":"34322","opening_hours":"Mo-Fr 08:00-14:00; PH off","phone":"+381 34 576-011","addr:pak":"557602"},"geometry":{"type":"Point","coordinates":[20.7817167513199,44.1483699765623]}},{"type":"Feature","properties":{"amenity":"post_office","name":"34324 Горња Трнава","name:sr":"34324 Горња Трнава","name:sr-Latn":"34324 Gornja Trnava","ref":"34324","opening_hours":"Mo-Fr 07:00-13:00; PH off","phone":"+381 34 576;+381 34 284","addr:pak":"544501"},"geometry":{"type":"Point","coordinates":[20.7698325088275,44.1674890602077]}},{"type":"Feature","properties":{"amenity":"post_office","name":"34325 Лужнице","name:sr":"34325 Лужнице","name:sr-Latn":"34325 Lužnice","ref":"34325","opening_hours":"Mo-Fr 07:00-10:00; PH off","phone":"+381 34 577-011","addr:pak":"557813"},"geometry":{"type":"Point","coordinates":[20.815722075137,44.1071936730395]}}]}