{"type":"FeatureCollection","features":[{"type":"Feature","properties":{"name:sr":"11300 Смедерево 1","opening_hours":"Mo-Fr 07:00-19:00; Sa 07:00-14:00; PH off","addr:housenumber":"10","name":"11300 Смедерево 1","amenity":"post_office","phone":"+381 26 634-013;+381 26 634-016;+381 26 634-018","ref":"11300","name:sr-Latn":"11300 Smederevo 1","addr:pak":"230129","addr:street":"Карађорђева"},"geometry":{"type":"Point","coordinates":[20.9258162020609,44.6644576973381]}},{"type":"Feature","properties":{"name:sr":"11310 Липе","opening_hours":"Mo-Fr 08:00-15:00; PH off","addr:housenumber":"ББ","name":"11310 Липе","amenity":"post_office","phone":"+381 26 771-514","ref":"11310","name:sr-Latn":"11310 Lipe","addr:pak":"233411","addr:street":"Маршала Тита"},"geometry":{"type":"Point","coordinates":[20.9953735649596,44.6410111585844]}},{"type":"Feature","properties":{"name:sr":"11311 Радинац","opening_hours":"Mo-Fr 07:30-14:30; PH off","addr:housenumber":"5","name":"11311 Радинац","amenity":"post_office","phone":"+381 26 701-014","ref":"11311","name:sr-Latn":"11311 Radinac","addr:pak":"233522","addr:street":"Смедеревска"},"geometry":{"type":"Point","coordinates":[20.9671227356012,44.6256439995158]}},{"type":"Feature","properties":{"name:sr":"11328 Водањ","opening_hours":"Mo,We 07:30-13:30; Th 07:30-10:30; PH off","addr:housenumber":"ББ","name":"11328 Водањ","amenity":"post_office","phone":"+381 26 4715-014","ref":"11328","name:sr-Latn":"11328 Vodanj","addr:pak":"234201","addr:street":"Двадесетседмог октобра"},"geometry":{"type":"Point","coordinates":[20.8550481277103,44.6090189847177]}},{"type":"Feature","properties":{"name:sr":"11329 Враново","opening_hours":"Mo-Fr 07:30-14:30; PH off","addr:housenumber":"ББ","name":"11329 Враново","amenity":"post_office","phone":"+381 26 732-014","ref":"11329","name:sr-Latn":"11329 Vranovo","addr:pak":"234301","addr:street":"Карађорђева"},"geometry":{"type":"Point","coordinates":[20.9910497774179,44.5991112251281]}},{"type":"Feature","properties":{"name:sr":"26220 Ковин","opening_hours":"Mo-Fr 07:00-19:00; Sa 07:00-13:00; PH off","addr:housenumber":"1","name":"26220 Ковин","amenity":"post_office","phone":"+381 13 309-104;+381 13 309-105","ref":"26220","name:sr-Latn":"26220 Kovin","addr:pak":"306201","addr:street":"Поштанска"},"geometry":{"type":"Point","coordinates":[20.9753189523237,44.7420727191591]}},{"type":"Feature","properties":{"name:sr":"26222 Баваниште","opening_hours":"Mo-Fr 07:00-14:00; PH off","addr:housenumber":"6","name":"26222 Баваниште","amenity":"post_office","phone":"+381 13 309-117","ref":"26222","name:sr-Latn":"26222 Bavanište","addr:pak":"306447","addr:street":"Трг Зорана Ђурђева"},"geometry":{"type":"Point","coordinates":[20.8751873383892,44.8180585269321]}},{"type":"Feature","properties":{"name:sr":"26223 Гај","opening_hours":"Mo-Fr 07:00-14:00; PH off","addr:housenumber":"29","name":"26223 Гај","amenity":"post_office","phone":"+381 13 755-333","ref":"26223","name:sr-Latn":"26223 Gaj","addr:pak":"306536","addr:street":"Трг ослобођења"},"geometry":{"type":"Point","coordinates":[21.0671094140231,44.7951188074692]}},{"type":"Feature","properties":{"name:sr":"26225 Делиблато","opening_hours":"Mo-Fr 07:00-14:00; PH off","addr:housenumber":"114","name":"26225 Делиблато","amenity":"post_office","phone":"+381 13 765-333","ref":"26225","name:sr-Latn":"26225 Deliblato","addr:pak":"306737","addr:street":"Маршала Тита"},"geometry":{"type":"Point","coordinates":[21.0369649153788,44.8398925436036]}},{"type":"Feature","properties":{"name:sr":"26228 Скореновац","opening_hours":"Mo-Fr 07:00-14:00; PH off","addr:housenumber":"38","name":"26228 Скореновац","amenity":"post_office","phone":"+381 13 764-333","ref":"26228","name:sr-Latn":"26228 Skorenovac","addr:pak":"307210","addr:street":"ЈНА"},"geometry":{"type":"Point","coordinates":[20.9062574235682,44.7652836476132]}},{"type":"Feature","properties":{"name:sr":"26229 Плочица","opening_hours":"Mo-Fr 07:00-13:30; PH off","addr:housenumber":"107","name":"26229 Плочица","amenity":"post_office","phone":"+381 13 757-157","ref":"26229","name:sr-Latn":"26229 Pločica","addr:pak":"307111","addr:street":"Краља Петра првог"},"geometry":{"type":"Point","coordinates":[20.8863085132651,44.7220983472901]}},{"type":"Feature","properties":{"name:sr":"26234 Банатски Брестовац","opening_hours":"Mo-Fr 07:00-14:00; PH off","addr:housenumber":"7","name":"26234 Банатски Брестовац","amenity":"post_office","phone":"+381 13 626-095","ref":"26234","name:sr-Latn":"26234 Banatski Brestovac","addr:pak":"307618","addr:street":"Маршала Тита"},"geometry":{"type":"Point","coordinates":[20.8096839304948,44.7280688652496]}},{"type":"Feature","properties":{"name:sr":"12207 Дубравица","opening_hours":"Mo-Fr 07:00-12:00; PH off","addr:housenumber":"ББ","name":"12207 Дубравица","amenity":"post_office","phone":"+381 12 574160","ref":"12207","name:sr-Latn":"12207 Dubravica","addr:pak":"293502","addr:street":"Карађорђева"},"geometry":{"type":"Point","coordinates":[21.0788397447076,44.6962823061731]}},{"type":"Feature","properties":{"name:sr":"11303 Смедерево 3","opening_hours":"Mo-Fr 07:00-18:00; Sa 08:00-14:00; PH off","addr:housenumber":"14","name":"11303 Смедерево 3","amenity":"post_office","phone":"+381 26 4627-706;+381 26 634-085","ref":"11303","name:sr-Latn":"11303 Smederevo 3","addr:pak":"230740","addr:street":"Пролетерска"},"geometry":{"type":"Point","coordinates":[20.9311468272615,44.6527448282689]}},{"type":"Feature","properties":{"name:sr":"11305 Смедерево 5","opening_hours":"Mo-Fr 08:00-15:00; Sa 08:00-13:00; PH off","addr:housenumber":"14","name":"11305 Смедерево 5","amenity":"post_office","phone":"+381 26 634-054","ref":"11305","name:sr-Latn":"11305 Smederevo 5","addr:pak":"230123","addr:street":"Краља Петра првог"},"geometry":{"type":"Point","coordinates":[20.9236692662787,44.6660564116166]}},{"type":"Feature","properties":{"name:sr":"11330 Смедерево 6","opening_hours":"Mo-Fr 08:00-16:00; Sa 08:00-13:00; PH off","addr:housenumber":"20","name":"11330 Смедерево 6","amenity":"post_office","phone":"+381 26 4610-008","ref":"11330","name:sr-Latn":"11330 Smederevo 6","addr:pak":"230355","addr:street":"Петријевска"},"geometry":{"type":"Point","coordinates":[20.9160729232798,44.6579050057306]}},{"type":"Feature","properties":{"name:sr":"11304 Смедерево 4","opening_hours":"Mo-Fr 07:30-16:00; Sa 07:00-14:00; PH off","addr:housenumber":"76","name":"11304 Смедерево 4","amenity":"post_office","phone":"+381 26 653-093","ref":"11304","name:sr-Latn":"11304 Smederevo 4","addr:pak":"230921","addr:street":"Доситеја Обрадовића"},"geometry":{"type":"Point","coordinates":[20.9426286531956,44.6445950154622]}},{"type":"Feature","properties":{"name:sr":"11332 Удовице","opening_hours":"Mo-Fr 07:30-14:30; PH off","addr:housenumber":"ББ","name":"11332 Удовице","amenity":"post_office","phone":"+381 26 4764-555","ref":"11332","name:sr-Latn":"11332 Udovice","addr:pak":"230147","addr:street":"Краља Петра првог"},"geometry":{"type":"Point","coordinates":[20.8566613449285,44.6396057413763]}}]}