{"type":"FeatureCollection","features":[{"type":"Feature","properties":{"name:sr":"26226 Мраморак","opening_hours":"Mo-Fr 07:00-14:00; PH off","addr:housenumber":"6","name":"26226 Мраморак","amenity":"post_office","phone":"+381 13 2753-111","ref":"26226","name:sr-Latn":"26226 Mramorak","addr:pak":"306919","addr:street":"Задружна"},"geometry":{"type":"Point","coordinates":[20.9730329055629,44.8803139683038]}},{"type":"Feature","properties":{"name:sr":"26227 Долово","opening_hours":"Mo-Fr 07:00-14:00; PH off","addr:housenumber":"5","name":"26227 Долово","amenity":"post_office","phone":"+381 13 2634-014;+381 13 309-110","ref":"26227","name:sr-Latn":"26227 Dolovo","addr:pak":"304010","addr:street":"Краља Петра првог"},"geometry":{"type":"Point","coordinates":[20.8769631533587,44.9002946934547]}},{"type":"Feature","properties":{"name:sr":"26310 Алибунар","opening_hours":"Mo-Fr 08:00-14:00; Sa 08:00-12:00; PH off","addr:housenumber":"1","name":"26310 Алибунар","amenity":"post_office","phone":"+381 13 309-107;+381 13 641-111","ref":"26310","name:sr-Latn":"26310 Alibunar","addr:pak":"305002","addr:street":"Трг Слободе"},"geometry":{"type":"Point","coordinates":[20.9650854473967,45.0803733077707]}},{"type":"Feature","properties":{"name:sr":"26314 Банатско Ново Село","opening_hours":"Mo-Fr 08:00-14:00; PH off","addr:housenumber":"34","name":"26314 Банатско Ново Село","amenity":"post_office","phone":"+381 13 309-108","ref":"26314","name:sr-Latn":"26314 Banatsko Novo Selo","addr:pak":"304439","addr:street":"Иве Лоле Рибара"},"geometry":{"type":"Point","coordinates":[20.7824532077549,44.9902802727107]}},{"type":"Feature","properties":{"name:sr":"26315 Владимировац","opening_hours":"Mo-Fr 07:00-14:00; PH off","addr:housenumber":"47","name":"26315 Владимировац","amenity":"post_office","phone":"+381 13 309112","ref":"26315","name:sr-Latn":"26315 Vladimirovac","addr:pak":"305240","addr:street":"Цара Лазара"},"geometry":{"type":"Point","coordinates":[20.8671019069653,45.0332910636715]}},{"type":"Feature","properties":{"name:sr":"26320 Банатски Карловац","opening_hours":"Mo-Fr 07:00-14:00; PH off","addr:housenumber":"63","name":"26320 Банатски Карловац","amenity":"post_office","phone":"+381 13 309-113","ref":"26320","name:sr-Latn":"26320 Banatski Karlovac","addr:pak":"305110","addr:street":"Немањина"},"geometry":{"type":"Point","coordinates":[21.0143784756404,45.0512840641561]}},{"type":"Feature","properties":{"name:sr":"26322 Николинци","opening_hours":"Mo-Fr 07:00-11:00; PH off","addr:housenumber":"53","name":"26322 Николинци","amenity":"post_office","phone":"+381 13 655-100","ref":"26322","name:sr-Latn":"26322 Nikolinci","addr:pak":"305606","addr:street":"Главна"},"geometry":{"type":"Point","coordinates":[21.0676617280629,45.0526473941389]}},{"type":"Feature","properties":{"name:sr":"26111 Панчево 11","opening_hours":"Mo,Tu,Th,Fr 08:00-12:00; PH off","addr:housenumber":"4","name":"26111 Панчево 11","amenity":"post_office","phone":"+381 13 2638-125","ref":"26111","name:sr-Latn":"26111 Pančevo 11","addr:pak":"303306","addr:street":"Кестенова"},"geometry":{"type":"Point","coordinates":[20.7606942838412,44.8662877525598]}}]}