{"type":"FeatureCollection","features":[{"type":"Feature","properties":{"name:sr":"26350 Самош","opening_hours":"Mo-Fr 07:00-11:00; PH off","addr:housenumber":"19","name":"26350 Самош","amenity":"post_office","phone":"+381 13 675-100","ref":"26350","name:sr-Latn":"26350 Samoš","addr:pak":"308901","addr:street":"Маршала Тита"},"geometry":{"type":"Point","coordinates":[20.7712423144261,45.2007938861769]}},{"type":"Feature","properties":{"name:sr":"26351 Селеуш","opening_hours":"Mo-Fr 07:00-11:00; PH off","addr:housenumber":"107","name":"26351 Селеуш","amenity":"post_office","phone":"+381 13 2649-208","ref":"26351","name:sr-Latn":"26351 Seleuš","addr:pak":"305812","addr:street":"Маршала Тита"},"geometry":{"type":"Point","coordinates":[20.9145687493918,45.1286248953283]}},{"type":"Feature","properties":{"name:sr":"26352 Иланџа","opening_hours":"Mo-Fr 07:00-14:00; PH off","addr:housenumber":"98","name":"26352 Иланџа","amenity":"post_office","phone":"+381 13 659-588","ref":"26352","name:sr-Latn":"26352 Ilandža","addr:pak":"305415","addr:street":"Милоша Црњанског"},"geometry":{"type":"Point","coordinates":[20.9205723518855,45.1695911887285]}},{"type":"Feature","properties":{"amenity":"post_office","name":"26353 Нови Козјак","name:sr":"26353 Нови Козјак","name:sr-Latn":"26353 Novi Kozjak","ref":"26353","opening_hours":"Mo-Fr 07:00-11:00; PH off","phone":"+381 13 648-000","addr:pak":"305702"},"geometry":{"type":"Point","coordinates":[20.8642590765286,45.182805454378]}},{"type":"Feature","properties":{"name:sr":"26354 Добрица","opening_hours":"Mo-Fr 07:00-11:00; PH off","addr:housenumber":"30","name":"26354 Добрица","amenity":"post_office","phone":"+381 13 658-000","ref":"26354","name:sr-Latn":"26354 Dobrica","addr:pak":"305302","addr:street":"Жарка Зрењанина"},"geometry":{"type":"Point","coordinates":[20.8484885214502,45.2130608664492]}},{"type":"Feature","properties":{"name:sr":"26361 Локве","opening_hours":"Mo-Fr 07:00-13:30; PH off","addr:housenumber":"12","name":"26361 Локве","amenity":"post_office","phone":"+381 13 646-100","ref":"26361","name:sr-Latn":"26361 Lokve","addr:pak":"305912","addr:street":"Трг ослобођења"},"geometry":{"type":"Point","coordinates":[21.0314126444023,45.1516208868197]}},{"type":"Feature","properties":{"name:sr":"26362 Јаношик","opening_hours":"Mo-Fr 07:00-11:00; PH off","addr:housenumber":"4","name":"26362 Јаношик","amenity":"post_office","phone":"+381 13 647-000","ref":"26362","name:sr-Latn":"26362 Janošik","addr:pak":"305501","addr:street":"Маршала Тита"},"geometry":{"type":"Point","coordinates":[21.0077157534724,45.1712408917031]}},{"type":"Feature","properties":{"name:sr":"26363 Јерменовци","opening_hours":"Mo-Fr 07:00-14:00; PH off","addr:housenumber":"69","name":"26363 Јерменовци","amenity":"post_office","phone":"+381 13 866-014","ref":"26363","name:sr-Latn":"26363 Jermenovci","addr:pak":"316705","addr:street":"Маршала Тита"},"geometry":{"type":"Point","coordinates":[21.0457192390958,45.186563624131]}},{"type":"Feature","properties":{"name:sr":"26366 Велика Греда","opening_hours":"Mo-Fr 07:00-14:00; PH off","addr:housenumber":"46","name":"26366 Велика Греда","amenity":"post_office","phone":"+381 13 865-000","ref":"26366","name:sr-Latn":"26366 Velika Greda","addr:pak":"316405","addr:street":"Маршала Тита"},"geometry":{"type":"Point","coordinates":[21.0415437943036,45.2429692552215]}},{"type":"Feature","properties":{"name:sr":"26367 Барице","opening_hours":"Mo,We,Fr 08:00-12:00; PH off","addr:housenumber":"46","name":"26367 Барице","amenity":"post_office","phone":"+381 13 867-097","ref":"26367","name:sr-Latn":"26367 Barice","addr:pak":"316801","addr:street":"Маршала Тита"},"geometry":{"type":"Point","coordinates":[21.0799246437626,45.1800582865786]}},{"type":"Feature","properties":{"name:sr":"26370 Хајдучица","opening_hours":"Mo-Fr 07:00-14:00; PH off","addr:housenumber":"24","name":"26370 Хајдучица","amenity":"post_office","phone":"+381 13 864-434","ref":"26370","name:sr-Latn":"26370 Hajdučica","addr:pak":"316904","addr:street":"Јанка Чмелика"},"geometry":{"type":"Point","coordinates":[20.9591713646068,45.2463306786141]}},{"type":"Feature","properties":{"name:sr":"26371 Стари Лец","opening_hours":"Mo-Fr 07:00-11:00; PH off","addr:housenumber":"21","name":"26371 Стари Лец","amenity":"post_office","phone":"+381 13 874-000","ref":"26371","name:sr-Latn":"26371 Stari Lec","addr:pak":"317104","addr:street":"Петефи Шандора"},"geometry":{"type":"Point","coordinates":[20.9622882860175,45.2834609076149]}},{"type":"Feature","properties":{"name:sr":"26373 Милетићево","opening_hours":"Mo-Fr 07:00-11:00; PH off","addr:housenumber":"44","name":"26373 Милетићево","amenity":"post_office","phone":"+381 13 876-170","ref":"26373","name:sr-Latn":"26373 Miletićevo","addr:pak":"317004","addr:street":"Главна"},"geometry":{"type":"Point","coordinates":[21.0638352112193,45.3073230564806]}},{"type":"Feature","properties":{"amenity":"post_office","name":"23250 Јарковац","name:sr":"23250 Јарковац","name:sr-Latn":"23250 Jarkovac","ref":"23250","opening_hours":"Mo-Fr 07:30-14:00; PH off","phone":"+381 23 857-000","addr:pak":"367721"},"geometry":{"type":"Point","coordinates":[20.7635867738899,45.2696849214182]}},{"type":"Feature","properties":{"name:sr":"23251 Банатска Дубица","opening_hours":"Mo,We,Fr 07:30-11:30; PH off","addr:housenumber":"1","name":"23251 Банатска Дубица","amenity":"post_office","phone":"+381 23 3859-016","ref":"23251","name:sr-Latn":"23251 Banatska Dubica","addr:pak":"367811","addr:street":"Божидара Којића"},"geometry":{"type":"Point","coordinates":[20.8214110603267,45.2747014585374]}},{"type":"Feature","properties":{"name:sr":"23253 Конак","opening_hours":"Mo-Fr 07:30-11:30; PH off","addr:housenumber":"32","name":"23253 Конак","amenity":"post_office","phone":"+381 23 3856-020","ref":"23253","name:sr-Latn":"23253 Konak","addr:pak":"368728","addr:street":"Маршала Тита"},"geometry":{"type":"Point","coordinates":[20.9090341809314,45.3140471557757]}}]}