{"type":"FeatureCollection","features":[{"type":"Feature","properties":{"name:sr":"23230 Јаша Томић","opening_hours":"Mo-Fr 07:30-13:30; Sa 07:30-11:30; PH off","addr:housenumber":"74","name":"23230 Јаша Томић","amenity":"post_office","phone":"+381 23 848-441","ref":"23230","name:sr-Latn":"23230 Jaša Tomić","addr:pak":"368001","addr:street":"Маршала Тита"},"geometry":{"type":"Point","coordinates":[20.8588017023466,45.4467580995887]}},{"type":"Feature","properties":{"amenity":"post_office","name":"23234 Међа","name:sr":"23234 Међа","name:sr-Latn":"23234 Međa","ref":"23234","opening_hours":"Mo,We,Fr 07:30-14:00; PH off","phone":"+381 23 830-099","addr:pak":"362401"},"geometry":{"type":"Point","coordinates":[20.8033848701444,45.5363782797783]}},{"type":"Feature","properties":{"name:sr":"23240 Сечањ","opening_hours":"Mo-Fr 08:00-14:00; Sa 08:00-12:00; PH off","addr:housenumber":"53","name":"23240 Сечањ","amenity":"post_office","phone":"+381 23 593-456","ref":"23240","name:sr-Latn":"23240 Sečanj","addr:pak":"367102","addr:street":"Вожда Карађорђа"},"geometry":{"type":"Point","coordinates":[20.7727740132392,45.3677944159438]}},{"type":"Feature","properties":{"name:sr":"23252 Бока","opening_hours":"Mo-Fr 07:30-14:00; PH off","addr:housenumber":"34","name":"23252 Бока","amenity":"post_office","phone":"+381 23 846-700","ref":"23252","name:sr-Latn":"23252 Boka","addr:pak":"368639","addr:street":"Иве Лоле Рибара"},"geometry":{"type":"Point","coordinates":[20.8284494865393,45.3558250259714]}},{"type":"Feature","properties":{"name:sr":"23254 Шурјан","opening_hours":"Mo-Fr 08:00-11:00; PH off","addr:housenumber":"7","name":"23254 Шурјан","amenity":"post_office","phone":"+381 23 855-001","ref":"23254","name:sr-Latn":"23254 Šurjan","addr:pak":"368802","addr:street":"Маршала Тита"},"geometry":{"type":"Point","coordinates":[20.8737095982209,45.3979090097011]}}]}