{"type":"FeatureCollection","features":[{"type":"Feature","properties":{"amenity":"post_office","name":"38205 Грачаница","name:sr":"38205 Грачаница","name:sr-Latn":"38205 Gračanica","ref":"38205","opening_hours":"Mo-Fr 07:00-17:00; Sa 07:00-13:00; PH off","phone":"+381 38 65-004;+381 49 785-010","addr:pak":"970106"},"geometry":{"type":"Point","coordinates":[21.1921692081042,42.6021513837222]}},{"type":"Feature","properties":{"name:sr":"38210 Косово Поље","opening_hours":"Mo-Fr 07:00-15:00; PH off","addr:housenumber":"ББ","name":"38210 Косово Поље","amenity":"post_office","phone":"+381 38 84-466;+381 49 785-013","ref":"38210","name:sr-Latn":"38210 Kosovo Polje","addr:pak":"980207","addr:street":"Фрушкогорска"},"geometry":{"type":"Point","coordinates":[21.1070582092482,42.6290170581651]}},{"type":"Feature","properties":{"amenity":"post_office","name":"38204 Лапље село","name:sr":"38204 Лапље село","name:sr-Latn":"38204 Laplje selo","ref":"38204","opening_hours":"Mo-Fr 07:00-15:00; PH off","phone":"+381 38 81-488;+381 49 785-011","addr:pak":"971142"},"geometry":{"type":"Point","coordinates":[21.1404225571014,42.5955664202798]}},{"type":"Feature","properties":{"amenity":"post_office","name":"38255 НОВО Брдо","name:sr":"38255 НОВО Брдо","name:sr-Latn":"38255 NOVO Brdo","ref":"38255","opening_hours":"Mo-Fr 07:00-15:00; PH off","phone":"+381 49 784-996","addr:pak":"971301"},"geometry":{"type":"Point","coordinates":[21.3884875793906,42.5885293144031]}}]}