{"type":"FeatureCollection","features":[{"type":"Feature","properties":{"amenity":"post_office","name":"18408 Добри До","name:sr":"18408 Добри До","name:sr-Latn":"18408 Dobri Do","ref":"18408","opening_hours":"Tu,Th 07:30-10:30; PH off","phone":"+381 27 387-068","addr:pak":"657101"},"geometry":{"type":"Point","coordinates":[21.4059712366056,42.9196116999253]}},{"type":"Feature","properties":{"amenity":"post_office","name":"18433 Пролом БАЊА","name:sr":"18433 Пролом БАЊА","name:sr-Latn":"18433 Prolom BANjA","ref":"18433","opening_hours":"Mo-Sa 08:00-13:30; PH off","phone":"+381 27 8388-399","addr:pak":"657301"},"geometry":{"type":"Point","coordinates":[21.4008376089746,43.0444931620983]}},{"type":"Feature","properties":{"amenity":"post_office","name":"18435 Куршумлијска Бања","name:sr":"18435 Куршумлијска Бања","name:sr-Latn":"18435 Kuršumlijska Banja","ref":"18435","opening_hours":"Tu,Th 08:00-11:30; PH off","phone":"+381 27 381-396","addr:pak":"657401"},"geometry":{"type":"Point","coordinates":[21.2505167146482,43.0563151280032]}},{"type":"Feature","properties":{"amenity":"post_office","name":"18440 Рача","name:sr":"18440 Рача","name:sr-Latn":"18440 Rača","ref":"18440","opening_hours":"Mo,We,Fr 08:00-12:00; PH off","phone":"+381 27 387-101","addr:pak":"657801"},"geometry":{"type":"Point","coordinates":[21.3127648869694,43.0106933605979]}},{"type":"Feature","properties":{"amenity":"post_office","name":"18445 Мердаре","name:sr":"18445 Мердаре","name:sr-Latn":"18445 Merdare","ref":"18445","opening_hours":"Mo,We,Fr 07:30-11:00; PH off","phone":"+381 27 387-070","addr:pak":"657901"},"geometry":{"type":"Point","coordinates":[21.2549202751269,42.9476414477306]}}]}