{"type":"FeatureCollection","features":[{"type":"Feature","properties":{"amenity":"post_office","name":"18403 Велика Плана","name:sr":"18403 Велика Плана","name:sr-Latn":"18403 Velika Plana","ref":"18403","opening_hours":"Mo-Fr 07:00-11:00; PH off","phone":"+381 27 358-293","addr:pak":"652601"},"geometry":{"type":"Point","coordinates":[21.4403745867499,43.3201365126397]}},{"type":"Feature","properties":{"amenity":"post_office","name":"18420 Блаце","name:sr":"18420 Блаце","name:sr-Latn":"18420 Blace","ref":"18420","opening_hours":"Mo-Fr 08:00-14:30; Sa 08:00-12:30; PH off","phone":"+381 27 371-200;+381 27 371-566","addr:pak":"654116"},"geometry":{"type":"Point","coordinates":[21.2892438382498,43.2956354885779]}},{"type":"Feature","properties":{"amenity":"post_office","name":"18424 Белољин","name:sr":"18424 Белољин","name:sr-Latn":"18424 Beloljin","ref":"18424","opening_hours":"Mo-Fr 07:00-14:30; PH off","phone":"+381 27 359-110","addr:pak":"653605"},"geometry":{"type":"Point","coordinates":[21.4017013590752,43.2318474934337]}},{"type":"Feature","properties":{"amenity":"post_office","name":"18425 Горња Драгуша","name:sr":"18425 Горња Драгуша","name:sr-Latn":"18425 Gornja Draguša","ref":"18425","opening_hours":"Mo-Fr 07:00-10:00; PH off","phone":"+381 27 76-008","addr:pak":"655601"},"geometry":{"type":"Point","coordinates":[21.3626870172505,43.2801642471866]}},{"type":"Feature","properties":{"amenity":"post_office","name":"18426 Барбатовац","name:sr":"18426 Барбатовац","name:sr-Latn":"18426 Barbatovac","ref":"18426","opening_hours":"Mo-Fr 07:00-14:00; PH off","phone":"+381 27 78-493","addr:pak":"655701"},"geometry":{"type":"Point","coordinates":[21.2588689856778,43.2298535415493]}},{"type":"Feature","properties":{"name:sr":"18430 Куршумлија","opening_hours":"Mo-Fr 07:00-19:00; Sa 08:00-15:00; PH off","addr:housenumber":"2","name":"18430 Куршумлија","amenity":"post_office","phone":"+381 27 381-177;+381 27 381-473","ref":"18430","name:sr-Latn":"18430 Kuršumlija","addr:pak":"656106","addr:street":"Косовска"},"geometry":{"type":"Point","coordinates":[21.2714723193071,43.1383601309142]}},{"type":"Feature","properties":{"amenity":"post_office","name":"18432 Барлово","name:sr":"18432 Барлово","name:sr-Latn":"18432 Barlovo","ref":"18432","opening_hours":"Mo-Fr 07:30-11:30; PH off","phone":"+381 27 381-356","addr:pak":"657201"},"geometry":{"type":"Point","coordinates":[21.3472521446673,43.1726079709658]}},{"type":"Feature","properties":{"amenity":"post_office","name":"18438 Жуч","name:sr":"18438 Жуч","name:sr-Latn":"18438 Žuč","ref":"18438","opening_hours":"Tu,Th,Fr 08:00-11:30; PH off","phone":"+381 27 381-608","addr:pak":"657701"},"geometry":{"type":"Point","coordinates":[21.1580288275328,43.1993756614122]}}]}