{"type":"FeatureCollection","features":[{"type":"Feature","properties":{"name:sr":"37201 Паруновац","opening_hours":"Mo-Fr 07:00-14:00; PH off","addr:housenumber":"95","name":"37201 Паруновац","amenity":"post_office","phone":"+381 37 886-110","ref":"37201","name:sr-Latn":"37201 Parunovac","addr:pak":"674000","addr:street":"Паруновачка"},"geometry":{"type":"Point","coordinates":[21.3633855385635,43.5762501173936]}},{"type":"Feature","properties":{"amenity":"post_office","name":"37206 Дворане","name:sr":"37206 Дворане","name:sr-Latn":"37206 Dvorane","ref":"37206","opening_hours":"Mo-Fr 07:00-10:00; PH off","phone":"+381 37 698-100","addr:pak":"676111"},"geometry":{"type":"Point","coordinates":[21.4107766128012,43.499331442512]}},{"type":"Feature","properties":{"amenity":"post_office","name":"37209 Велика Ломница","name:sr":"37209 Велика Ломница","name:sr-Latn":"37209 Velika Lomnica","ref":"37209","opening_hours":"Mo-Fr 07:00-10:00; PH off","phone":"+381 37 874-080","addr:pak":"676501"},"geometry":{"type":"Point","coordinates":[21.3469210330928,43.4890970720174]}},{"type":"Feature","properties":{"amenity":"post_office","name":"37221 Горњи Степош","name:sr":"37221 Горњи Степош","name:sr-Latn":"37221 Gornji Stepoš","ref":"37221","opening_hours":"Mo-Fr 07:00-10:00; PH off","phone":"+381 37 655-100","addr:pak":"676751"},"geometry":{"type":"Point","coordinates":[21.297410543031,43.5018510873811]}},{"type":"Feature","properties":{"name:sr":"37222 Купци","opening_hours":"Mo-Fr 07:00-14:00; PH off","addr:housenumber":"ББ","name":"37222 Купци","amenity":"post_office","phone":"+381 37 884-100","ref":"37222","name:sr-Latn":"37222 Kupci","addr:pak":"677011","addr:street":"Велики Купци"},"geometry":{"type":"Point","coordinates":[21.2360103646396,43.4510566979174]}},{"type":"Feature","properties":{"amenity":"post_office","name":"37223 Разбојна","name:sr":"37223 Разбојна","name:sr-Latn":"37223 Razbojna","ref":"37223","opening_hours":"Mo-Fr 07:00-10:00; PH off","phone":"+381 37 832-100","addr:pak":"663701"},"geometry":{"type":"Point","coordinates":[21.1688976410858,43.3493772481436]}},{"type":"Feature","properties":{"name:sr":"37228 Златари","opening_hours":"Mo-Fr 07:00-10:00; PH off","addr:housenumber":"ББ","name":"37228 Златари","amenity":"post_office","phone":"+381 37 839-100","ref":"37228","name:sr-Latn":"37228 Zlatari","addr:pak":"663801","addr:street":"Златари"},"geometry":{"type":"Point","coordinates":[21.1595940568026,43.3857615217631]}},{"type":"Feature","properties":{"amenity":"post_office","name":"37233 Велика Врбница","name:sr":"37233 Велика Врбница","name:sr-Latn":"37233 Velika Vrbnica","ref":"37233","opening_hours":"Mo-Fr 07:00-10:00; PH off","phone":"+381 37 882-110","addr:pak":"661301"},"geometry":{"type":"Point","coordinates":[21.1914976386344,43.5253978058217]}},{"type":"Feature","properties":{"amenity":"post_office","name":"37234 Горњи Ступањ","name:sr":"37234 Горњи Ступањ","name:sr-Latn":"37234 Gornji Stupanj","ref":"37234","opening_hours":"Mo-Fr 07:00-11:00; PH off","phone":"+381 37 761-100","addr:pak":"661501"},"geometry":{"type":"Point","coordinates":[21.1836814038039,43.4717353516715]}},{"type":"Feature","properties":{"amenity":"post_office","name":"37235 Трнавци","name:sr":"37235 Трнавци","name:sr-Latn":"37235 Trnavci","ref":"37235","opening_hours":"Tu,Th 12:00-14:00; PH off","phone":"+381 37 764-100","addr:pak":"661851"},"geometry":{"type":"Point","coordinates":[21.1207858798425,43.4314297045914]}},{"type":"Feature","properties":{"amenity":"post_office","name":"37236 Ратаје","name:sr":"37236 Ратаје","name:sr-Latn":"37236 Rataje","ref":"37236","opening_hours":"Mo-Fr 07:00-10:00; PH off","phone":"+381 37 763-100","addr:pak":"661901"},"geometry":{"type":"Point","coordinates":[21.1078529628301,43.4823023310433]}},{"type":"Feature","properties":{"amenity":"post_office","name":"37242 Стопања","name:sr":"37242 Стопања","name:sr-Latn":"37242 Stopanja","ref":"37242","opening_hours":"Mo-Fr 07:00-14:00; PH off","phone":"+381 37 727-620","addr:pak":"666501"},"geometry":{"type":"Point","coordinates":[21.1508144211324,43.5791516851523]}},{"type":"Feature","properties":{"amenity":"post_office","name":"37251 Глободер","name:sr":"37251 Глободер","name:sr-Latn":"37251 Globoder","ref":"37251","opening_hours":"Mo-Fr 07:00-14:00; PH off","phone":"+381 37 681-100","addr:pak":"677711"},"geometry":{"type":"Point","coordinates":[21.1839346817046,43.5608254302137]}},{"type":"Feature","properties":{"name:sr":"37103 Крушевац 3","opening_hours":"Mo-Fr 07:00-18:00; Sa 08:00-14:00; PH off","addr:housenumber":"54","name":"37103 Крушевац 3","amenity":"post_office","phone":"+381 37 3541-550","ref":"37103","name:sr-Latn":"37103 Kruševac 3","addr:pak":"671531","addr:street":"Веце Корчагина"},"geometry":{"type":"Point","coordinates":[21.3354710262987,43.5785899159972]}},{"type":"Feature","properties":{"name:sr":"37106 Крушевац 6","opening_hours":"Mo-Fr 07:00-17:00; PH off","addr:housenumber":"ББ","name":"37106 Крушевац 6","amenity":"post_office","phone":"+381 37 460-100","ref":"37106","name:sr-Latn":"37106 Kruševac 6","addr:pak":"671179","addr:street":"Кнеза Милоша"},"geometry":{"type":"Point","coordinates":[21.344399340696,43.56989980155]}},{"type":"Feature","properties":{"amenity":"post_office","name":"37107 Крушевац 7","name:sr":"37107 Крушевац 7","name:sr-Latn":"37107 Kruševac 7","ref":"37107","opening_hours":"Mo-Fr 07:00-14:00; PH off","phone":"+381 37 3440-912","addr:pak":"673504"},"geometry":{"type":"Point","coordinates":[21.3413069294438,43.5574819633629]}},{"type":"Feature","properties":{"amenity":"post_office","name":"37272 Суботица","name:sr":"37272 Суботица","name:sr-Latn":"37272 Subotica","ref":"37272","opening_hours":"Mo 07:00-14:00; Tu 07:00-11:00; We 07:00-14:00; Th 07:00-11:00; Fr 07:00-14:00; PH off","phone":"+381 37 765-100","addr:pak":"661805"},"geometry":{"type":"Point","coordinates":[21.1432980188995,43.445921360566]}},{"type":"Feature","properties":{"amenity":"post_office","name":"37231 Пепељевац","name:sr":"37231 Пепељевац","name:sr-Latn":"37231 Pepeljevac","ref":"37231","opening_hours":"Mo-Fr 07:30-13:30; PH off","phone":"+381 37 644-470","addr:pak":"679311"},"geometry":{"type":"Point","coordinates":[21.2535389785901,43.5632947016574]}},{"type":"Feature","properties":{"name:sr":"37104 Крушевац 4","opening_hours":"Mo-Fr 07:00-18:00; Sa 08:00-13:00; PH off","addr:housenumber":"3","name":"37104 Крушевац 4","amenity":"post_office","phone":"+381 37 490-110","ref":"37104","name:sr-Latn":"37104 Kruševac 4","addr:pak":"670972","addr:street":"Чеховљева"},"geometry":{"type":"Point","coordinates":[21.3327233209908,43.5718921071485]}}]}