{"type":"FeatureCollection","features":[{"type":"Feature","properties":{"amenity":"post_office","name":"35207 Поточац","name:sr":"35207 Поточац","name:sr-Latn":"35207 Potočac","ref":"35207","opening_hours":"Mo-Fr 08:00-11:00; PH off","phone":"+381 35 8522-640","addr:pak":"593001"},"geometry":{"type":"Point","coordinates":[21.3163628336731,43.8150523796959]}},{"type":"Feature","properties":{"name:sr":"35256 Сикирица","opening_hours":"Mo-Fr 08:00-11:00; PH off","addr:housenumber":"ББ","name":"35256 Сикирица","amenity":"post_office","phone":"+381 35 8548-500","ref":"35256","name:sr-Latn":"35256 Sikirica","addr:pak":"592602","addr:street":"Бранка Крсмановића"},"geometry":{"type":"Point","coordinates":[21.4142089456463,43.7803882303319]}},{"type":"Feature","properties":{"name:sr":"35257 Дреновац","opening_hours":"Mo-Fr 08:00-11:00; PH off","addr:housenumber":"3","name":"35257 Дреновац","amenity":"post_office","phone":"+381 35 545-102","ref":"35257","name:sr-Latn":"35257 Drenovac","addr:pak":"592406","addr:street":"Београдска"},"geometry":{"type":"Point","coordinates":[21.4287238963722,43.7644071521789]}},{"type":"Feature","properties":{"amenity":"post_office","name":"35258 Доње Видово","name:sr":"35258 Доње Видово","name:sr-Latn":"35258 Donje Vidovo","ref":"35258","opening_hours":"Mo-Fr 08:00-11:00; PH off","phone":"+381 35 8525-000","addr:pak":"592501"},"geometry":{"type":"Point","coordinates":[21.3683711490283,43.7986540479229]}},{"type":"Feature","properties":{"amenity":"post_office","name":"35259 Својново","name:sr":"35259 Својново","name:sr-Latn":"35259 Svojnovo","ref":"35259","opening_hours":"Mo-Fr 08:00-11:00; PH off","phone":"+381 35 8523-100","addr:pak":"592701"},"geometry":{"type":"Point","coordinates":[21.3049288005697,43.7976424814297]}},{"type":"Feature","properties":{"amenity":"post_office","name":"35263 Белушић","name:sr":"35263 Белушић","name:sr-Latn":"35263 Belušić","ref":"35263","opening_hours":"Mo-Fr 07:00-14:00; PH off","phone":"+381 35 8413-215","addr:pak":"589101"},"geometry":{"type":"Point","coordinates":[21.1459708474146,43.7859765067374]}},{"type":"Feature","properties":{"amenity":"post_office","name":"35267 Опарић","name:sr":"35267 Опарић","name:sr-Latn":"35267 Oparić","ref":"35267","opening_hours":"Mo-Fr 08:00-11:00; PH off","phone":"+381 35 8422-699","addr:pak":"589501"},"geometry":{"type":"Point","coordinates":[21.1164484671268,43.7488482261345]}},{"type":"Feature","properties":{"name:sr":"37000 Крушевац 1","opening_hours":"Mo-Fr 07:00-19:00; Sa 08:00-16:00; PH off","addr:housenumber":"2","name":"37000 Крушевац 1","amenity":"post_office","phone":"+381 37 413-713;+381 37 413-715","ref":"37000","name:sr-Latn":"37000 Kruševac 1","addr:pak":"670481","addr:street":"Немањина"},"geometry":{"type":"Point","coordinates":[21.3247890241735,43.5825835830808]}},{"type":"Feature","properties":{"name:sr":"37208 Читлук","opening_hours":"Mo-Fr 07:00-14:00; PH off","addr:housenumber":"5","name":"37208 Читлук","amenity":"post_office","phone":"+381 37 694-650","ref":"37208","name:sr-Latn":"37208 Čitluk","addr:pak":"679041","addr:street":"ЈНА"},"geometry":{"type":"Point","coordinates":[21.2698092374602,43.5900289501993]}},{"type":"Feature","properties":{"name:sr":"37210 Ћићевац","opening_hours":"Mo-Fr 07:00-15:30; Sa 08:00-13:00; PH off","addr:housenumber":"126","name":"37210 Ћићевац","amenity":"post_office","phone":"+381 37 413-786","ref":"37210","name:sr-Latn":"37210 Ćićevac","addr:pak":"669001","addr:street":"Карађорђева"},"geometry":{"type":"Point","coordinates":[21.4408568295198,43.7187303324242]}},{"type":"Feature","properties":{"amenity":"post_office","name":"37212 Сталаћ","name:sr":"37212 Сталаћ","name:sr-Latn":"37212 Stalać","ref":"37212","opening_hours":"Mo-Fr 07:00-14:00; PH off","phone":"+381 37 806-100","addr:pak":"669303"},"geometry":{"type":"Point","coordinates":[21.4155172791327,43.6827142926259]}},{"type":"Feature","properties":{"amenity":"post_office","name":"37245 Велика Дренова","name:sr":"37245 Велика Дренова","name:sr-Latn":"37245 Velika Drenova","ref":"37245","opening_hours":"Mo-Fr 07:00-14:00; PH off","phone":"+381 37 725-100","addr:pak":"667101"},"geometry":{"type":"Point","coordinates":[21.1292042452724,43.6267434502866]}},{"type":"Feature","properties":{"amenity":"post_office","name":"37246 Милутовац","name:sr":"37246 Милутовац","name:sr-Latn":"37246 Milutovac","ref":"37246","opening_hours":"Mo-Fr 07:00-14:00; PH off","phone":"+381 37 721-290","addr:pak":"667201"},"geometry":{"type":"Point","coordinates":[21.1195336855131,43.6830273528815]}},{"type":"Feature","properties":{"name:sr":"37252 Јасика","opening_hours":"Mo-Fr 07:00-14:00; PH off","addr:housenumber":"ББ","name":"37252 Јасика","amenity":"post_office","phone":"+381 37 670-138","ref":"37252","name:sr-Latn":"37252 Jasika","addr:pak":"678001","addr:street":"Милунке Савић"},"geometry":{"type":"Point","coordinates":[21.2992767362365,43.6128675620356]}},{"type":"Feature","properties":{"amenity":"post_office","name":"37253 Бела Вода","name:sr":"37253 Бела Вода","name:sr-Latn":"37253 Bela Voda","ref":"37253","opening_hours":"Mo-Fr 07:00-11:00; PH off","phone":"+381 37 678-802","addr:pak":"678202"},"geometry":{"type":"Point","coordinates":[21.1985109888563,43.6155951259568]}},{"type":"Feature","properties":{"amenity":"post_office","name":"37254 Коњух","name:sr":"37254 Коњух","name:sr-Latn":"37254 Konjuh","ref":"37254","opening_hours":"Mo-Fr 07:00-10:00; PH off","phone":"+381 37 3875-100","addr:pak":"678301"},"geometry":{"type":"Point","coordinates":[21.1809821650706,43.6446525213395]}},{"type":"Feature","properties":{"amenity":"post_office","name":"37255 Кукљин","name:sr":"37255 Кукљин","name:sr-Latn":"37255 Kukljin","ref":"37255","opening_hours":"Mo-Fr 12:00-14:00; PH off","phone":"+381 37 678-803","addr:pak":"678502"},"geometry":{"type":"Point","coordinates":[21.2332822839635,43.6027711219534]}},{"type":"Feature","properties":{"name:sr":"37257 Падеж","opening_hours":"Mo-Fr 07:00-10:00; PH off","addr:housenumber":"ББ","name":"37257 Падеж","amenity":"post_office","phone":"+381 37 696-100","ref":"37257","name:sr-Latn":"37257 Padež","addr:pak":"678701","addr:street":"Падеж"},"geometry":{"type":"Point","coordinates":[21.2834105350464,43.6624713361606]}},{"type":"Feature","properties":{"amenity":"post_office","name":"37258 Доњи Крчин","name:sr":"37258 Доњи Крчин","name:sr-Latn":"37258 Donji Krčin","ref":"37258","opening_hours":"Mo-Fr 07:00-11:00; PH off","phone":"+381 37 795-110","addr:pak":"668801"},"geometry":{"type":"Point","coordinates":[21.1866990863771,43.7336579500976]}},{"type":"Feature","properties":{"name:sr":"37260 Варварин","opening_hours":"Mo-Fr 07:00-17:00; Sa 08:00-13:00; PH off","addr:housenumber":"ББ","name":"37260 Варварин","amenity":"post_office","phone":"+381 37 413-784","ref":"37260","name:sr-Latn":"37260 Varvarin","addr:pak":"668124","addr:street":"Мите Милојевића"},"geometry":{"type":"Point","coordinates":[21.3701460661842,43.7242133365982]}},{"type":"Feature","properties":{"name:sr":"37262 Бошњане","opening_hours":"Mo-Fr 07:00-14:00; PH off","addr:housenumber":"2А","name":"37262 Бошњане","amenity":"post_office","phone":"+381 37 798-725","ref":"37262","name:sr-Latn":"37262 Bošnjane","addr:pak":"668309","addr:street":"Братства-јединства"},"geometry":{"type":"Point","coordinates":[21.3648930715154,43.6647561038633]}},{"type":"Feature","properties":{"amenity":"post_office","name":"37265 Бачина","name:sr":"37265 Бачина","name:sr-Latn":"37265 Bačina","ref":"37265","opening_hours":"Mo-Fr 07:00-14:00; PH off","phone":"+381 37 794-288","addr:pak":"668401"},"geometry":{"type":"Point","coordinates":[21.2984240578381,43.7273784955903]}},{"type":"Feature","properties":{"name:sr":"37266 Обреж","opening_hours":"Mo-Fr 07:00-14:00; PH off","addr:housenumber":"ББ","name":"37266 Обреж","amenity":"post_office","phone":"+381 37 791-934","ref":"37266","name:sr-Latn":"37266 Obrež","addr:pak":"668716","addr:street":"кнеза Лазара"},"geometry":{"type":"Point","coordinates":[21.349728723554,43.7690983538543]}},{"type":"Feature","properties":{"name:sr":"37102 Крушевац 2","opening_hours":"Mo-Fr 07:00-18:00; Sa 08:00-13:00; PH off","addr:housenumber":"1","name":"37102 Крушевац 2","amenity":"post_office","phone":"+381 37 443-450","ref":"37102","name:sr-Latn":"37102 Kruševac 2","addr:pak":"670119","addr:street":"Цара Лазара"},"geometry":{"type":"Point","coordinates":[21.321386834425,43.5848962484278]}},{"type":"Feature","properties":{"name:sr":"37108 Крушевац 8","opening_hours":"Mo-Fr 08:00-19:00; Sa 08:00-13:00; PH off","addr:housenumber":"26Б","name":"37108 Крушевац 8","amenity":"post_office","phone":"+381 37 3501600","ref":"37108","name:sr-Latn":"37108 Kruševac 8","addr:pak":"672202","addr:street":"Краља Милутина"},"geometry":{"type":"Point","coordinates":[21.3124159814943,43.5854605005599]}}]}