{"type":"FeatureCollection","features":[{"type":"Feature","properties":{"name:sr":"35000 Јагодина","opening_hours":"Mo-Fr 07:00-19:00; Sa 07:00-15:00; PH off","addr:housenumber":"2","name":"35000 Јагодина","amenity":"post_office","phone":"+381 35 200-813;+381 35 200-815","ref":"35000","name:sr-Latn":"35000 Jagodina","addr:pak":"580202","addr:street":"Народног фронта"},"geometry":{"type":"Point","coordinates":[21.2621926251208,43.9788661461099]}},{"type":"Feature","properties":{"amenity":"post_office","name":"35204 Багрдан","name:sr":"35204 Багрдан","name:sr-Latn":"35204 Bagrdan","ref":"35204","opening_hours":"Mo-Fr 07:00-10:00; PH off","phone":"+381 35 8275-100","addr:pak":"583901"},"geometry":{"type":"Point","coordinates":[21.1780736634992,44.0685766080604]}},{"type":"Feature","properties":{"amenity":"post_office","name":"35205 Јовац","name:sr":"35205 Јовац","name:sr-Latn":"35205 Jovac","ref":"35205","opening_hours":"Mo-Fr 08:00-11:00; PH off","phone":"+381 35 432-400","addr:pak":"596101"},"geometry":{"type":"Point","coordinates":[21.3160193305812,43.9041865405443]}},{"type":"Feature","properties":{"amenity":"post_office","name":"35206 Рашевица","name:sr":"35206 Рашевица","name:sr-Latn":"35206 Raševica","ref":"35206","opening_hours":"Mo-Fr 07:00-13:00; PH off","phone":"+381 35 8521-200","addr:pak":"592901"},"geometry":{"type":"Point","coordinates":[21.3218468718199,43.8367714862591]}},{"type":"Feature","properties":{"name:sr":"35219 Кончарево","opening_hours":"Mo-Fr 08:00-11:00; PH off","addr:housenumber":"111","name":"35219 Кончарево","amenity":"post_office","phone":"+381 35 263-200","ref":"35219","name:sr-Latn":"35219 Končarevo","addr:pak":"584130","addr:street":"Цара Душана"},"geometry":{"type":"Point","coordinates":[21.3138948723223,43.9754519297511]}},{"type":"Feature","properties":{"name:sr":"35220 Рибаре","opening_hours":"Mo-Fr 07:00-14:00; PH off","addr:housenumber":"141","name":"35220 Рибаре","amenity":"post_office","phone":"+381 35 274-100","ref":"35220","name:sr-Latn":"35220 Ribare","addr:pak":"582607","addr:street":"Цара Душана"},"geometry":{"type":"Point","coordinates":[21.2873097324694,44.0123302930026]}},{"type":"Feature","properties":{"amenity":"post_office","name":"35222 Глоговац","name:sr":"35222 Глоговац","name:sr-Latn":"35222 Glogovac","ref":"35222","opening_hours":"Mo-Fr 07:00-14:00; PH off","phone":"+381 35 8276-000","addr:pak":"584272"},"geometry":{"type":"Point","coordinates":[21.3103245848732,44.0417195563462]}},{"type":"Feature","properties":{"amenity":"post_office","name":"35227 Крушар","name:sr":"35227 Крушар","name:sr-Latn":"35227 Krušar","ref":"35227","opening_hours":"Mo-Fr 07:00-14:00; PH off","phone":"+381 35 8430-300","addr:pak":"596201"},"geometry":{"type":"Point","coordinates":[21.3386467522175,44.0146923780894]}},{"type":"Feature","properties":{"name:sr":"35230 Ћуприја","opening_hours":"Mo-Fr 07:00-18:00; Sa 07:00-14:00; PH off","addr:housenumber":"2","name":"35230 Ћуприја","amenity":"post_office","phone":"+381 35 200-891;+381 35 200-892","ref":"35230","name:sr-Latn":"35230 Ćuprija","addr:pak":"594803","addr:street":"Кнеза Милоша"},"geometry":{"type":"Point","coordinates":[21.3716374182044,43.9291578534938]}},{"type":"Feature","properties":{"name:sr":"35236 Мијатовац","opening_hours":"Mo-Fr 08:00-11:00; PH off","addr:housenumber":"ББ","name":"35236 Мијатовац","amenity":"post_office","phone":"+381 35 433-800","ref":"35236","name:sr-Latn":"35236 Mijatovac","addr:pak":"596503","addr:street":"Кнеза Милоша"},"geometry":{"type":"Point","coordinates":[21.331127276962,43.9554307824006]}},{"type":"Feature","properties":{"amenity":"post_office","name":"35248 Трешњевица","name:sr":"35248 Трешњевица","name:sr-Latn":"35248 Trešnjevica","ref":"35248","opening_hours":"Mo-Fr 08:00-11:00; PH off","phone":"+381 35 8524-114","addr:pak":"592810"},"geometry":{"type":"Point","coordinates":[21.3216889089217,43.8689168765956]}},{"type":"Feature","properties":{"name:sr":"35250 Параћин","opening_hours":"Mo-Fr 07:00-19:00; Sa 07:00-14:00; PH off","addr:housenumber":"9","name":"35250 Параћин","amenity":"post_office","phone":"+381 35 200-881;+381 35 200-882","ref":"35250","name:sr-Latn":"35250 Paraćin","addr:pak":"590419","addr:street":"Његошева"},"geometry":{"type":"Point","coordinates":[21.4083742914008,43.8631868073325]}},{"type":"Feature","properties":{"name:sr":"35270 Мајур","opening_hours":"Mo-Fr 07:00-14:00; PH off","addr:housenumber":"ББ","name":"35270 Мајур","amenity":"post_office","phone":"+381 35 261-016","ref":"35270","name:sr-Latn":"35270 Majur","addr:pak":"583427","addr:street":"Мајур"},"geometry":{"type":"Point","coordinates":[21.2968272442343,43.9453607035256]}},{"type":"Feature","properties":{"amenity":"post_office","name":"35272 Драгоцвет","name:sr":"35272 Драгоцвет","name:sr-Latn":"35272 Dragocvet","ref":"35272","opening_hours":"Mo-Fr 07:00-14:00; PH off","phone":"+381 35 8272-200","addr:pak":"583601"},"geometry":{"type":"Point","coordinates":[21.217530635778,43.9380785122237]}},{"type":"Feature","properties":{"amenity":"post_office","name":"35273 Бунар","name:sr":"35273 Бунар","name:sr-Latn":"35273 Bunar","ref":"35273","opening_hours":"Mo-Fr 08:00-11:00; PH off","phone":"+381 35 271-200","addr:pak":"583701"},"geometry":{"type":"Point","coordinates":[21.144309093371,43.9252715138717]}},{"type":"Feature","properties":{"amenity":"post_office","name":"35274 Лоћика","name:sr":"35274 Лоћика","name:sr-Latn":"35274 Loćika","ref":"35274","opening_hours":"Mo-Fr 07:00-12:00; PH off","phone":"+381 35 8425-160","addr:pak":"589012"},"geometry":{"type":"Point","coordinates":[21.1886905391897,43.8540179890028]}},{"type":"Feature","properties":{"name:sr":"35102 Јагодина","opening_hours":"Mo-Fr 08:00-15:00; PH off","addr:housenumber":"6","name":"35102 Јагодина","amenity":"post_office","phone":"+381 35 224-504","ref":"35102","name:sr-Latn":"35102 Jagodina","addr:pak":"580510","addr:street":"Краља Петра првог"},"geometry":{"type":"Point","coordinates":[21.2627011205265,43.9756730621227]}},{"type":"Feature","properties":{"name:sr":"35103 Јагодина","opening_hours":"Mo-Fr 07:00-19:00; Sa 07:00-14:00; PH off","addr:housenumber":"135","name":"35103 Јагодина","amenity":"post_office","phone":"+381 35 247-317","ref":"35103","name:sr-Latn":"35103 Jagodina","addr:pak":"580104","addr:street":"Кнегиње Милице"},"geometry":{"type":"Point","coordinates":[21.2699562024624,43.971019119635]}},{"type":"Feature","properties":{"name:sr":"35253 Параћин","opening_hours":"Mo-Fr 07:00-19:00; Sa 07:00-14:00; PH off","addr:housenumber":"4","name":"35253 Параћин","amenity":"post_office","phone":"+381 35 564-199","ref":"35253","name:sr-Latn":"35253 Paraćin","addr:pak":"590113","addr:street":"Француска"},"geometry":{"type":"Point","coordinates":[21.4135621480509,43.8525950758578]}},{"type":"Feature","properties":{"name:sr":"35104 Јагодина","opening_hours":"Mo-Fr 10:00-17:00; Sa 10:00-13:00; PH off","addr:housenumber":"999","name":"35104 Јагодина","amenity":"post_office","phone":"+381 35 254-337","ref":"35104","name:sr-Latn":"35104 Jagodina","addr:pak":"581327","addr:street":"Крагујевачког октобра"},"geometry":{"type":"Point","coordinates":[21.2424297877908,43.9853728353292]}},{"type":"Feature","properties":{"amenity":"post_office","name":"35218 Дубока","name:sr":"35218 Дубока","name:sr-Latn":"35218 Duboka","ref":"35218","opening_hours":"Mo-Fr 08:00-11:00; PH off","phone":"+381 35 8267-049","addr:pak":"584320"},"geometry":{"type":"Point","coordinates":[21.2749372939186,44.071598827951]}},{"type":"Feature","properties":{"name:sr":"35221 Ракитово","opening_hours":"Mo-Fr 07:00-10:00; PH off","addr:housenumber":"1","name":"35221 Ракитово","amenity":"post_office","phone":"+381 35 8200-035","ref":"35221","name:sr-Latn":"35221 Rakitovo","addr:pak":"584153","addr:street":"Драгана Симијоновића Сикија"},"geometry":{"type":"Point","coordinates":[21.2945560667936,43.9910749227589]}}]}