{"type":"FeatureCollection","features":[{"type":"Feature","properties":{"name:sr":"35208 Војска","opening_hours":"Mo-Fr 08:00-11:00; PH off","addr:housenumber":"ББ","name":"35208 Војска","amenity":"post_office","phone":"+381 35 8339-269","ref":"35208","name:sr-Latn":"35208 Vojska","addr:pak":"587321","addr:street":"Стевана Синђелића"},"geometry":{"type":"Point","coordinates":[21.2151640500112,44.0904828360823]}},{"type":"Feature","properties":{"amenity":"post_office","name":"35209 Суботица","name:sr":"35209 Суботица","name:sr-Latn":"35209 Subotica","ref":"35209","opening_hours":"Mo-Fr 08:00-11:00; PH off","phone":"+381 35 8802-120","addr:pak":"587401"},"geometry":{"type":"Point","coordinates":[21.3386055406175,44.1703189281253]}},{"type":"Feature","properties":{"name:sr":"35210 Свилајнац","opening_hours":"Mo-Fr 07:00-17:00; Sa 07:00-12:00; PH off","addr:housenumber":"56","name":"35210 Свилајнац","amenity":"post_office","phone":"+381 35 200-888;+381 35 200-887","ref":"35210","name:sr-Latn":"35210 Svilajnac","addr:pak":"586402","addr:street":"Светог Саве"},"geometry":{"type":"Point","coordinates":[21.1956462967231,44.2319804086763]}},{"type":"Feature","properties":{"amenity":"post_office","name":"35211 Седларе","name:sr":"35211 Седларе","name:sr-Latn":"35211 Sedlare","ref":"35211","opening_hours":"Mo-Fr 07:30-13:00; PH off","phone":"+381 35 8818-100","addr:pak":"587001"},"geometry":{"type":"Point","coordinates":[21.29283734843,44.1988832607251]}},{"type":"Feature","properties":{"name:sr":"35212 Плажане","opening_hours":"Mo-Fr 07:00-11:00; PH off","addr:housenumber":"ББ","name":"35212 Плажане","amenity":"post_office","phone":"+381 35 8631-002","ref":"35212","name:sr-Latn":"35212 Plažane","addr:pak":"599002","addr:street":"Главна"},"geometry":{"type":"Point","coordinates":[21.4103574673736,44.1431381020127]}},{"type":"Feature","properties":{"name:sr":"35213 Деспотовац","opening_hours":"Mo-Fr 07:30-14:30; Sa 07:30-11:30; PH off","addr:housenumber":"12","name":"35213 Деспотовац","amenity":"post_office","phone":"+381 35 200-899;+381 35 200-897","ref":"35213","name:sr-Latn":"35213 Despotovac","addr:pak":"597104","addr:street":"Деспота Стефана Лазаревића"},"geometry":{"type":"Point","coordinates":[21.438245988251,44.0947542165223]}},{"type":"Feature","properties":{"amenity":"post_office","name":"35217 Бобово","name:sr":"35217 Бобово","name:sr-Latn":"35217 Bobovo","ref":"35217","opening_hours":"Mo-Fr 08:00-12:00; PH off","phone":"+381 35 8312-249","addr:pak":"587101"},"geometry":{"type":"Point","coordinates":[21.2702731451528,44.2429945051109]}},{"type":"Feature","properties":{"amenity":"post_office","name":"35223 Велики Поповић","name:sr":"35223 Велики Поповић","name:sr-Latn":"35223 Veliki Popović","ref":"35223","opening_hours":"Mo-Fr 07:00-14:00; PH off","phone":"+381 35 200-860","addr:pak":"599401"},"geometry":{"type":"Point","coordinates":[21.3572007964605,44.1165124252509]}},{"type":"Feature","properties":{"amenity":"post_office","name":"35224 Медвеђа","name:sr":"35224 Медвеђа","name:sr-Latn":"35224 Medveđa","ref":"35224","opening_hours":"Mo-Fr 08:00-11:00; PH off","phone":"+381 35 625-200","addr:pak":"599501"},"geometry":{"type":"Point","coordinates":[21.3448341192281,44.1506217772348]}},{"type":"Feature","properties":{"name:sr":"35226 Кушиљево","opening_hours":"Mo-Fr 07:00-14:00; PH off","addr:housenumber":"2","name":"35226 Кушиљево","amenity":"post_office","phone":"+381 35 8331-100","ref":"35226","name:sr-Latn":"35226 Kušiljevo","addr:pak":"587229","addr:street":"Војводе Мишића"},"geometry":{"type":"Point","coordinates":[21.2106842310037,44.2898454251528]}},{"type":"Feature","properties":{"amenity":"post_office","name":"35241 Јасеново","name:sr":"35241 Јасеново","name:sr-Latn":"35241 Jasenovo","ref":"35241","opening_hours":"Mo-Fr 08:00-11:00; PH off","phone":"+381 35 626-736","addr:pak":"599801"},"geometry":{"type":"Point","coordinates":[21.3067002621795,44.1524898738351]}},{"type":"Feature","properties":{"amenity":"post_office","name":"35268 Милошево","name:sr":"35268 Милошево","name:sr-Latn":"35268 Miloševo","ref":"35268","opening_hours":"Mo-Fr 07:00-10:00; PH off","phone":"+381 35 8268-000","addr:pak":"583201"},"geometry":{"type":"Point","coordinates":[21.1588920761891,44.1067127189304]}},{"type":"Feature","properties":{"name:sr":"11324 Старо Село","opening_hours":"Mo-Fr 07:30-14:30; PH off","addr:housenumber":"ББ","name":"11324 Старо Село","amenity":"post_office","phone":"+381 26 841-704","ref":"11324","name:sr-Latn":"11324 Staro Selo","addr:pak":"239501","addr:street":"Булевар ослобођења"},"geometry":{"type":"Point","coordinates":[21.103169983576,44.2922619439828]}},{"type":"Feature","properties":{"name:sr":"11325 Марковац","opening_hours":"Mo-Fr 07:30-14:30; PH off","addr:housenumber":"1","name":"11325 Марковац","amenity":"post_office","phone":"+381 26 4861-000","ref":"11325","name:sr-Latn":"11325 Markovac","addr:pak":"239643","addr:street":"Четвртог јула"},"geometry":{"type":"Point","coordinates":[21.1140004536663,44.2378302765583]}},{"type":"Feature","properties":{"name:sr":"34220 Лапово","opening_hours":"Mo-Fr 08:00-19:00; Sa 07:00-14:00; PH off","addr:housenumber":"16","name":"34220 Лапово","amenity":"post_office","phone":"+381 34 504-157;+381 34 853-670","ref":"34220","name:sr-Latn":"34220 Lapovo","addr:pak":"547103","addr:street":"Његошева"},"geometry":{"type":"Point","coordinates":[21.1051586715617,44.1852781357662]}},{"type":"Feature","properties":{"amenity":"post_office","name":"34228 Брзан","name:sr":"34228 Брзан","name:sr-Latn":"34228 Brzan","ref":"34228","opening_hours":"Mo-Fr 08:00-10:30; PH off","phone":"+381 34 861-414","addr:pak":"546708"},"geometry":{"type":"Point","coordinates":[21.1235379905518,44.1215288045869]}},{"type":"Feature","properties":{"name:sr":"12306 Велико Лаоле","opening_hours":"Mo-Fr 08:00-14:00; PH off","addr:housenumber":"ББ","name":"12306 Велико Лаоле","amenity":"post_office","phone":"+381 12 346245","ref":"12306","name:sr-Latn":"12306 Veliko Laole","addr:pak":"282219","addr:street":"Цара Душана"},"geometry":{"type":"Point","coordinates":[21.4314348178606,44.3202307685301]}},{"type":"Feature","properties":{"amenity":"post_office","name":"12308 Орешковица","name:sr":"12308 Орешковица","name:sr-Latn":"12308 Oreškovica","ref":"12308","opening_hours":"Mo,We,Fr 08:00-11:00; PH off","phone":"+381 12 345750","addr:pak":"282701"},"geometry":{"type":"Point","coordinates":[21.3262622878689,44.3170843224056]}},{"type":"Feature","properties":{"amenity":"post_office","name":"12375 Породин","name:sr":"12375 Породин","name:sr-Latn":"12375 Porodin","ref":"12375","opening_hours":"Mo-Fr 08:00-14:00; PH off","phone":"+381 12 256443","addr:pak":"289801"},"geometry":{"type":"Point","coordinates":[21.2222092280406,44.3186659671107]}}]}