{"type":"FeatureCollection",
 "features":
 [{"type":"Feature",
   "properties":
   {"name:sr":"24425 Адорјан",
    "opening_hours":"Mo-Fr 07:00-10:00; PH off",
    "addr:housenumber":"10",
    "name":"24425 Адорјан",
    "amenity":"post_office",
    "phone":"+381 24 4884-158",
    "ref":"24425",
    "name:sr-Latn":"24425 Adorjan",
    "addr:pak":"445605",
    "addr:street":"Маршала Тита"},
   "geometry":
   {"type":"Point",
    "coordinates":[20.0404226075913, 46.0050496961673]}},
  {"type":"Feature",
   "properties":
   {"name:sr":"21464 Врбас",
    "opening_hours":"Mo-Fr 08:00-14:00; PH off",
    "addr:housenumber":"8",
    "name":"21464 Врбас",
    "amenity":"post_office",
    "phone":"+381 21 705-002",
    "ref":"21464",
    "name:sr-Latn":"21464 Vrbas",
    "addr:pak":"397709",
    "addr:street":"Маршала Тита"},
   "geometry":
   {"type":"Point",
    "coordinates":[19.6301302987392, 45.5773550563754]}},
  {"type":"Feature",
   "properties":
   {"name:sr":"21106 Нови Сад",
    "opening_hours":"Mo-Fr 08:00-14:00; PH off",
    "addr:housenumber":"5",
    "name":"21106 Нови Сад",
    "amenity":"post_office",
    "phone":"+381 21 6395-744",
    "ref":"21106",
    "name:sr-Latn":"21106 Novi Sad",
    "addr:pak":"403932",
    "addr:street":"Гери Кароља"},
   "geometry":
   {"type":"Point",
    "coordinates":[19.8171630137046, 45.2451499871902]}},
  {"type":"Feature",
   "properties":
   {"name:sr":"11133 Београд 91",
    "opening_hours":"Mo-Fr 08:00-15:00; PH off",
    "addr:housenumber":"1",
    "name":"11133 Београд 91",
    "amenity":"post_office",
    "phone":"+381 11 2505-694",
    "ref":"11133",
    "name:sr-Latn":"11133 Beograd 91",
    "addr:pak":"170425",
    "addr:street":"Ратка Ресановића"},
   "geometry":
   {"type":"Point",
    "coordinates":[20.4070791584029, 44.7443717481765]}},
  {"type":"Feature",
   "properties":
   {"name:sr":"11146 Београд 46",
    "opening_hours":"Mo-Fr 08:00-15:00; PH off",
    "addr:housenumber":"14",
    "name":"11146 Београд 46",
    "amenity":"post_office",
    "phone":"+381 11 3611-839",
    "ref":"11146",
    "name:sr-Latn":"11146 Beograd 46",
    "addr:pak":"116104",
    "addr:street":"Булевар војводе Мишића"},
   "geometry":
   {"type":"Point",
    "coordinates":[20.4370559094265, 44.7958505936057]}},
  {"type":"Feature",
   "properties":
   {"name:sr":"21402 Бачка Паланка",
    "opening_hours":"Mo-Fr 08:00-14:00; PH off",
    "addr:housenumber":"10",
    "name":"21402 Бачка Паланка",
    "amenity":"post_office",
    "phone":"+381 21 6049-123",
    "ref":"21402",
    "name:sr-Latn":"21402 Bačka Palanka",
    "addr:pak":"392801",
    "addr:street":"Трг ослобођења"},
   "geometry":
   {"type":"Point",
    "coordinates":[19.3771846548476, 45.245438218085]}},
  {"type":"Feature",
   "properties":
   {"name:sr":"24401 Сента",
    "opening_hours":"Mo-Fr 07:30-14:30; PH off",
    "addr:housenumber":"41",
    "name":"24401 Сента",
    "amenity":"post_office",
    "phone":"+381 24 821-151",
    "ref":"24401",
    "name:sr-Latn":"24401 Senta",
    "addr:pak":"446296",
    "addr:street":"Торњошки пут"},
   "geometry":
   {"type":"Point",
    "coordinates":[20.0701112266402, 45.9237824344893]}},
  {"type":"Feature",
   "properties":
   {"amenity":"post_office",
    "name":"11117 Београд 29",
    "name:sr":"11117 Београд 29",
    "name:sr-Latn":"11117 Beograd 29",
    "ref":"11117",
    "opening_hours":"Mo-Fr 08:00-15:00; PH off",
    "phone":"+381 11 2625-631",
    "addr:pak":"105403"},
   "geometry":
   {"type":"Point",
    "coordinates":[20.4594837059526, 44.820895046689]}},
  {"type":"Feature",
   "properties":
   {"name:sr":"11134 Београд 54",
    "opening_hours":"Mo-Fr 08:00-15:00; PH off",
    "addr:housenumber":"88",
    "name":"11134 Београд 54",
    "amenity":"post_office",
    "phone":"+381 11 3559-722",
    "ref":"11134",
    "name:sr-Latn":"11134 Beograd 54",
    "addr:pak":"170124",
    "addr:street":"Поручника Спасића и Машере"},
   "geometry":
   {"type":"Point",
    "coordinates":[20.4099220721408, 44.7670713039913]}},
  {"type":"Feature",
   "properties":
   {"name:sr":"21115 Нови Сад",
    "opening_hours":"Mo-Fr 08:00-14:00; Sa 09:00-13:00; PH off",
    "addr:housenumber":"1",
    "name":"21115 Нови Сад",
    "amenity":"post_office",
    "phone":"+381 21 403-154",
    "ref":"21115",
    "name:sr-Latn":"21115 Novi Sad",
    "addr:pak":"402362",
    "addr:street":"Стевана Хладног"},
   "geometry":
   {"type":"Point",
    "coordinates":[19.7995579167124, 45.2464910121151]}},
  {"type":"Feature",
   "properties":
   {"name:sr":"19221 Слатина",
    "opening_hours":"Mo-Fr 07:00-13:00; PH off",
    "addr:housenumber":"ББ",
    "name":"19221 Слатина",
    "amenity":"post_office",
    "phone":"+381 30 433-404",
    "ref":"19221",
    "name:sr-Latn":"19221 Slatina",
    "addr:pak":"603003",
    "addr:street":"Слатина"},
   "geometry":
   {"type":"Point",
    "coordinates":[22.1627585612043, 44.0403571959218]}},
  {"type":"Feature",
   "properties":
   {"name:sr":"11079 Београд 142",
    "opening_hours":"Mo-Fr 08:00-19:00; Sa 08:00-15:00; PH off",
    "addr:housenumber":"35",
    "name":"11079 Београд 142",
    "amenity":"post_office",
    "phone":"+381 11 3718-041",
    "ref":"11079",
    "name:sr-Latn":"11079 Beograd 142",
    "addr:pak":"191624",
    "addr:street":"Ђорђа Станојевића"},
   "geometry":
   {"type":"Point",
    "coordinates":[20.3971197028755, 44.8096620965739]}},
  {"type":"Feature",
   "properties":
   {"amenity":"post_office",
    "name":"17515 Златокоп",
    "name:sr":"17515 Златокоп",
    "name:sr-Latn":"17515 Zlatokop",
    "ref":"17515",
    "opening_hours":"Mo-Fr 07:00-12:00; Sa 08:00-14:00; PH off",
    "phone":"+381 17 442-621",
    "addr:pak":"632202"},
   "geometry":
   {"type":"Point",
    "coordinates":[21.9205845117162, 42.5111354960148]}}]}
