{"type":"FeatureCollection",
 "features":
 [{"type":"Feature",
   "properties":
   {"name:sr":"11000 Београд 6",
    "opening_hours":"Mo-Su 08:00-19:00; PH 08:00-15:00",
    "addr:housenumber":"2",
    "name":"11000 Београд 6",
    "amenity":"post_office",
    "phone":"+381 11 3643-071;+381 11 3643-117;+381 11 3643-118",
    "ref":"11000",
    "name:sr-Latn":"11000 Beograd 6",
    "addr:pak":"111101",
    "addr:street":"Савска"},
   "geometry":
   {"type":"Point",
    "coordinates":[20.4551225799788, 44.8072671560023]}},
  {"type":"Feature",
   "properties":
   {"name:sr":"11010 Београд 48",
    "opening_hours":"Mo-Fr 08:00-19:00; Sa 08:00-15:00; PH off",
    "addr:housenumber":"153",
    "name":"11010 Београд 48",
    "amenity":"post_office",
    "phone":"+381 11 3210-112;+381 11 3210-111;+381 11 3976-448",
    "ref":"11010",
    "name:sr-Latn":"11010 Beograd 48",
    "addr:pak":"160903",
    "addr:street":"Кумодрашка"},
   "geometry":
   {"type":"Point",
    "coordinates":[20.4826856819184, 44.7722790295851]}},
  {"type":"Feature",
   "properties":
   {"name:sr":"11050 Београд 22",
    "opening_hours":"Mo-Fr 08:00-19:00; Sa 08:00-15:00; PH off",
    "addr:housenumber":"182",
    "name":"11050 Београд 22",
    "amenity":"post_office",
    "phone":"+381 11 3210-086;+381 11 3210-077;+381 11 3210-079",
    "ref":"11050",
    "name:sr-Latn":"11050 Beograd 22",
    "addr:pak":"147002",
    "addr:street":"Устаничка"},
   "geometry":
   {"type":"Point",
    "coordinates":[20.5063809180286, 44.7824083673852]}},
  {"type":"Feature",
   "properties":
   {"name:sr":"11060 Београд 38",
    "opening_hours":"Mo-Fr 08:00-19:00; Sa 08:00-15:00; PH off",
    "addr:housenumber":"50",
    "name":"11060 Београд 38",
    "amenity":"post_office",
    "phone":"+381 11 2771-095;+381 11 2776-416;+381 11 3210-113",
    "ref":"11060",
    "name:sr-Latn":"11060 Beograd 38",
    "addr:pak":"137413",
    "addr:street":"Патриса Лумумбе"},
   "geometry":
   {"type":"Point",
    "coordinates":[20.5121245896625, 44.814768257763]}},
  {"type":"Feature",
   "properties":
   {"name:sr":"11108 Београд 12",
    "opening_hours":"Mo-Fr 08:00-19:00; Sa 08:00-15:00; PH off",
    "addr:housenumber":"68А",
    "name":"11108 Београд 12",
    "amenity":"post_office",
    "phone":"+381 11 3210-098;+381 11 2764-899;+381 11 3210-126",
    "ref":"11108",
    "name:sr-Latn":"11108 Beograd 12",
    "addr:pak":"137102",
    "addr:street":"Булевар Деспота Стефана"},
   "geometry":
   {"type":"Point",
    "coordinates":[20.4757470102858, 44.8166590235298]}},
  {"type":"Feature",
   "properties":
   {"name:sr":"11118 Београд 32",
    "opening_hours":"Mo-Fr 08:00-19:00; Sa 08:00-15:00; PH off",
    "addr:housenumber":"89",
    "name":"11118 Београд 32",
    "amenity":"post_office",
    "phone":"+381 11 3210-150;+381 11 6450-194",
    "ref":"11118",
    "name:sr-Latn":"11118 Beograd 32",
    "addr:pak":"121512",
    "addr:street":"Максима Горког"},
   "geometry":
   {"type":"Point",
    "coordinates":[20.478856927326, 44.7922545475434]}},
  {"type":"Feature",
   "properties":
   {"name:sr":"11120 Београд 35",
    "opening_hours":"Mo-Fr 08:00-19:00; Sa 08:00-15:00; PH off",
    "addr:housenumber":"3",
    "name":"11120 Београд 35",
    "amenity":"post_office",
    "phone":"+381 11 3210-108;+381 11 3210-107;+381 11 3210-110",
    "ref":"11120",
    "name:sr-Latn":"11120 Beograd 35",
    "addr:pak":"135311",
    "addr:street":"Краљице Марије"},
   "geometry":
   {"type":"Point",
    "coordinates":[20.476154843843, 44.8090454974015]}},
  {"type":"Feature",
   "properties":
   {"name:sr":"11126 Београд 56",
    "opening_hours":"Mo-Fr 08:00-14:00; Sa 08:00-12:00; PH off",
    "addr:housenumber":"14",
    "name":"11126 Београд 56",
    "amenity":"post_office",
    "phone":"+381 11 3460-279;+381 11 3210-153",
    "ref":"11126",
    "name:sr-Latn":"11126 Beograd 56",
    "addr:pak":"142116",
    "addr:street":"Николе Груловића"},
   "geometry":
   {"type":"Point",
    "coordinates":[20.5255453572378, 44.7600647865548]}},
  {"type":"Feature",
   "properties":
   {"name:sr":"11130 Калуђерица",
    "opening_hours":"Mo-Fr 08:00-19:00; Sa 08:00-14:00; PH off",
    "addr:housenumber":"9",
    "name":"11130 Калуђерица",
    "amenity":"post_office",
    "phone":"+381 11 3210-121;+381 11 3415-655",
    "ref":"11130",
    "name:sr-Latn":"11130 Kaluđerica",
    "addr:pak":"151302",
    "addr:street":"Краља Петра првог"},
   "geometry":
   {"type":"Point",
    "coordinates":[20.5580848373105, 44.7648721161083]}},
  {"type":"Feature",
   "properties":
   {"name:sr":"11160 Београд 74",
    "opening_hours":"Mo-Fr 08:00-19:00; Sa 08:00-15:00; PH off",
    "addr:housenumber":"22А",
    "name":"11160 Београд 74",
    "amenity":"post_office",
    "phone":"+381 11 3643-143;+381 11 3643-142;+381 11 3643-144",
    "ref":"11160",
    "name:sr-Latn":"11160 Beograd 74",
    "addr:pak":"142706",
    "addr:street":"Миријевски венац"},
   "geometry":
   {"type":"Point",
    "coordinates":[20.5279031578749, 44.789800458315]}},
  {"type":"Feature",
   "properties":
   {"name:sr":"11210 Београд 26",
    "opening_hours":"Mo-Fr 08:00-19:00; Sa 08:00-13:00; PH off",
    "addr:housenumber":"ББ",
    "name":"11210 Београд 26",
    "amenity":"post_office",
    "phone":"+381 11 3210-100;+381 11 3210-129",
    "ref":"11210",
    "name:sr-Latn":"11210 Beograd 26",
    "addr:pak":"134611",
    "addr:street":"Зрењанински пут"},
   "geometry":
   {"type":"Point",
    "coordinates":[20.4862748513547, 44.8476127981472]}},
  {"type":"Feature",
   "properties":
   {"name:sr":"11211 Борча",
    "opening_hours":"Mo-Fr 08:00-19:00; Sa 08:00-13:00; PH off",
    "addr:housenumber":"15А",
    "name":"11211 Борча",
    "amenity":"post_office",
    "phone":"+381 11 3325-871;+381 11 3210-130;+381 11 3320-304",
    "ref":"11211",
    "name:sr-Latn":"11211 Borča",
    "addr:pak":"133244",
    "addr:street":"Ваљевског одреда"},
   "geometry":
   {"type":"Point",
    "coordinates":[20.4579676707444, 44.8777403415997]}},
  {"type":"Feature",
   "properties":
   {"name:sr":"11212 Овча",
    "opening_hours":"Mo-Fr 08:00-14:00; PH off",
    "addr:housenumber":"78А",
    "name":"11212 Овча",
    "amenity":"post_office",
    "phone":"+381 11 3319-988",
    "ref":"11212",
    "name:sr-Latn":"11212 Ovča",
    "addr:pak":"131810",
    "addr:street":"Михаја Еминескуа"},
   "geometry":
   {"type":"Point",
    "coordinates":[20.5366498550798, 44.8880397823303]}},
  {"type":"Feature",
   "properties":
   {"name:sr":"11213 Падинска Скела",
    "opening_hours":"Mo-Fr 08:00-14:00; Sa 08:00-12:00; PH off",
    "addr:housenumber":"12",
    "name":"11213 Падинска Скела",
    "amenity":"post_office",
    "phone":"+381 11 3210-133;+381 11 8871-425",
    "ref":"11213",
    "name:sr-Latn":"11213 Padinska Skela",
    "addr:pak":"131201",
    "addr:street":"Дејана Смиљковића"},
   "geometry":
   {"type":"Point",
    "coordinates":[20.4258273373819, 44.9459714975222]}},
  {"type":"Feature",
   "properties":
   {"name:sr":"11215 Сланци",
    "opening_hours":"Mo-Fr 08:00-14:00; PH off",
    "addr:housenumber":"50",
    "name":"11215 Сланци",
    "amenity":"post_office",
    "phone":"+381 11 2970-881",
    "ref":"11215",
    "name:sr-Latn":"11215 Slanci",
    "addr:pak":"131929",
    "addr:street":"Маршала Тита"},
   "geometry":
   {"type":"Point",
    "coordinates":[20.5706412780845, 44.8080088477815]}},
  {"type":"Feature",
   "properties":
   {"name:sr":"11224 Врчин",
    "opening_hours":"Mo-Fr 08:00-18:00; Sa 08:00-14:00; PH off",
    "addr:housenumber":"2",
    "name":"11224 Врчин",
    "amenity":"post_office",
    "phone":"+381 11 8054-363",
    "ref":"11224",
    "name:sr-Latn":"11224 Vrčin",
    "addr:pak":"158311",
    "addr:street":"Саве Ковачевића"},
   "geometry":
   {"type":"Point",
    "coordinates":[20.5920662535468, 44.6628833194222]}},
  {"type":"Feature",
   "properties":
   {"name:sr":"11306 Гроцка",
    "opening_hours":"Mo-Fr 08:00-19:00; Sa 08:00-14:00; PH off",
    "addr:housenumber":"24",
    "name":"11306 Гроцка",
    "amenity":"post_office",
    "phone":"+381 11 3210-137;+381 11 8501-905",
    "ref":"11306",
    "name:sr-Latn":"11306 Grocka",
    "addr:pak":"155217",
    "addr:street":"Булевар ослобођења"},
   "geometry":
   {"type":"Point",
    "coordinates":[20.7164452066003, 44.671165169527]}},
  {"type":"Feature",
   "properties":
   {"name:sr":"11307 Болеч",
    "opening_hours":"Mo-Fr 08:00-19:00; Sa 08:00-14:00; PH off",
    "addr:housenumber":"78",
    "name":"11307 Болеч",
    "amenity":"post_office",
    "phone":"+381 11 3210-138;+381 11 8063-850",
    "ref":"11307",
    "name:sr-Latn":"11307 Boleč",
    "addr:pak":"154417",
    "addr:street":"Смедеревски пут"},
   "geometry":
   {"type":"Point",
    "coordinates":[20.6111687466792, 44.7355063261967]}},
  {"type":"Feature",
   "properties":
   {"name:sr":"11308 Бегаљица",
    "opening_hours":"Mo-Fr 08:00-15:00; PH off",
    "addr:housenumber":"211",
    "name":"11308 Бегаљица",
    "amenity":"post_office",
    "phone":"+381 11 8530-645",
    "ref":"11308",
    "name:sr-Latn":"11308 Begaljica",
    "addr:pak":"156112",
    "addr:street":"Бориса Кидрича"},
   "geometry":
   {"type":"Point",
    "coordinates":[20.6951657239607, 44.6317958657954]}},
  {"type":"Feature",
   "properties":
   {"name:sr":"11309 Лештане",
    "opening_hours":"Mo-Fr 08:00-14:00; Sa 08:00-12:00; PH off",
    "addr:housenumber":"60",
    "name":"11309 Лештане",
    "amenity":"post_office",
    "phone":"+381 11 8030-790;+381 11 3210-156",
    "ref":"11309",
    "name:sr-Latn":"11309 Leštane",
    "addr:pak":"153111",
    "addr:street":"Маршала Тита"},
   "geometry":
   {"type":"Point",
    "coordinates":[20.5755970520125, 44.7309050684909]}},
  {"type":"Feature",
   "properties":
   {"name:sr":"11351 Винча",
    "opening_hours":"Mo-Fr 08:00-14:00; Sa 08:00-12:00; PH off",
    "addr:housenumber":"172",
    "name":"11351 Винча",
    "amenity":"post_office",
    "phone":"+381 11 3210-157",
    "ref":"11351",
    "name:sr-Latn":"11351 Vinča",
    "addr:pak":"152208",
    "addr:street":"Професора Васића"},
   "geometry":
   {"type":"Point",
    "coordinates":[20.6152586693071, 44.7572542592401]}},
  {"type":"Feature",
   "properties":
   {"name:sr":"11430 Умчари",
    "opening_hours":"Mo-Fr 08:00-14:00; Sa 08:00-12:00; PH off",
    "addr:housenumber":"18",
    "name":"11430 Умчари",
    "amenity":"post_office",
    "phone":"+381 11 3210-158",
    "ref":"11430",
    "name:sr-Latn":"11430 Umčari",
    "addr:pak":"157101",
    "addr:street":"Трг републике"},
   "geometry":
   {"type":"Point",
    "coordinates":[20.7355594609162, 44.5835591403534]}},
  {"type":"Feature",
   "properties":
   {"name:sr":"11030 Београд 8",
    "opening_hours":"Mo-Fr 07:30-19:30; Sa 07:30-15:30; PH off",
    "addr:housenumber":"2А",
    "name":"11030 Београд 8",
    "amenity":"post_office",
    "phone":"+381 11 3535-013;+381 11 3535-015",
    "ref":"11030",
    "name:sr-Latn":"11030 Beograd 8",
    "addr:pak":"173130",
    "addr:street":"Шумадијски трг"},
   "geometry":
   {"type":"Point",
    "coordinates":[20.4151433683945, 44.7827265265307]}},
  {"type":"Feature",
   "properties":
   {"name:sr":"11040 Београд 33",
    "opening_hours":"Mo-Fr 08:00-19:00; Sa 08:00-15:00; PH off",
    "addr:housenumber":"2А",
    "name":"11040 Београд 33",
    "amenity":"post_office",
    "phone":"+381 11 2661-400;+381 11 3535-132",
    "ref":"11040",
    "name:sr-Latn":"11040 Beograd 33",
    "addr:pak":"116363",
    "addr:street":"Незнаног јунака"},
   "geometry":
   {"type":"Point",
    "coordinates":[20.4583060510046, 44.7762500835221]}},
  {"type":"Feature",
   "properties":
   {"name:sr":"11090 Београд 75",
    "opening_hours":"Mo-Fr 08:00-19:00; Sa 08:00-15:00; PH off",
    "addr:housenumber":"8",
    "name":"11090 Београд 75",
    "amenity":"post_office",
    "phone":"+381 11 3535-186;+381 11 3535-193",
    "ref":"11090",
    "name:sr-Latn":"11090 Beograd 75",
    "addr:pak":"180657",
    "addr:street":"Пилота Михаила Петровића"},
   "geometry":
   {"type":"Point",
    "coordinates":[20.4360288478224, 44.7457460151103]}},
  {"type":"Feature",
   "properties":
   {"name:sr":"11147 Београд 104",
    "opening_hours":"Mo-Fr 08:00-18:30; Sa 08:00-13:30; PH off",
    "addr:housenumber":"1Г",
    "name":"11147 Београд 104",
    "amenity":"post_office",
    "phone":"+381 11 3535-135;+381 11 6392-290",
    "ref":"11147",
    "name:sr-Latn":"11147 Beograd 104",
    "addr:pak":"170344",
    "addr:street":"Момчила Чедића"},
   "geometry":
   {"type":"Point",
    "coordinates":[20.4064231462671, 44.7519351406078]}},
  {"type":"Feature",
   "properties":
   {"name:sr":"11152 Београд 63",
    "opening_hours":"Mo-Fr 10:00-16:30; Sa 10:00-14:00; PH off",
    "addr:housenumber":"378",
    "name":"11152 Београд 63",
    "amenity":"post_office",
    "phone":"+381 11 3975-104;+381 11 3973-356",
    "ref":"11152",
    "name:sr-Latn":"11152 Beograd 63",
    "addr:pak":"165804",
    "addr:street":"Кумодрашка"},
   "geometry":
   {"type":"Point",
    "coordinates":[20.4994307532471, 44.7495879999734]}},
  {"type":"Feature",
   "properties":
   {"name:sr":"11194 Рушањ",
    "opening_hours":"Mo-Fr 08:00-18:30; Sa 08:00-15:00; PH off",
    "addr:housenumber":"27А",
    "name":"11194 Рушањ",
    "amenity":"post_office",
    "phone":"+381 11 8000-021",
    "ref":"11194",
    "name:sr-Latn":"11194 Rušanj",
    "addr:pak":"176715",
    "addr:street":"Ослобођења"},
   "geometry":
   {"type":"Point",
    "coordinates":[20.4363657042064, 44.6830309661465]}},
  {"type":"Feature",
   "properties":
   {"name:sr":"11222 Београд 89",
    "opening_hours":"Mo-Fr 08:00-19:00; Sa 08:00-13:00; PH off",
    "addr:housenumber":"56",
    "name":"11222 Београд 89",
    "amenity":"post_office",
    "phone":"+381 11 3535-140",
    "ref":"11222",
    "name:sr-Latn":"11222 Beograd 89",
    "addr:pak":"169120",
    "addr:street":"Булевар ЈНА"},
   "geometry":
   {"type":"Point", "coordinates":
                    [20.4837022251048, 44.74216270726]}},
  {"type":"Feature",
   "properties":
   {"name:sr":"11223 Бели Поток",
    "opening_hours":"Mo-Fr 07:30-15:00; Sa 08:00-13:00; PH off",
    "addr:housenumber":"53",
    "name":"11223 Бели Поток",
    "amenity":"post_office",
    "phone":"+381 11 3907-987",
    "ref":"11223",
    "name:sr-Latn":"11223 Beli Potok",
    "addr:pak":"167607",
    "addr:street":"Васе Чарапића"},
   "geometry":
   {"type":"Point",
    "coordinates":[20.5195493703161, 44.7059578660613]}},
  {"type":"Feature",
   "properties":
   {"name:sr":"11225 Зуце",
    "opening_hours":"Mo-Fr 08:00-14:00; Sa 08:00-12:00; PH off",
    "addr:housenumber":"1",
    "name":"11225 Зуце",
    "amenity":"post_office",
    "phone":"+381 11 8052-499",
    "ref":"11225",
    "name:sr-Latn":"11225 Zuce",
    "addr:pak":"167414",
    "addr:street":"Драгомира Мише Ђорђевића"},
   "geometry":
   {"type":"Point",
    "coordinates":[20.5572772417426, 44.6990511168721]}},
  {"type":"Feature",
   "properties":
   {"name:sr":"11226 Пиносава",
    "opening_hours":"Mo-Fr 07:30-14:30; Sa 08:00-13:00; PH off",
    "addr:housenumber":"57",
    "name":"11226 Пиносава",
    "amenity":"post_office",
    "phone":"+381 11 3908-244",
    "ref":"11226",
    "name:sr-Latn":"11226 Pinosava",
    "addr:pak":"167718",
    "addr:street":"Булевар патријарха Германа"},
   "geometry":
   {"type":"Point",
    "coordinates":[20.5060829435522, 44.7019696969954]}},
  {"type":"Feature",
   "properties":
   {"name:sr":"11231 Београд 79",
    "opening_hours":"Mo-Fr 08:00-19:00; Sa 08:00-14:00; PH off",
    "addr:housenumber":"98А",
    "name":"11231 Београд 79",
    "amenity":"post_office",
    "phone":"+381 11 8041-131;+381 11 3535-141",
    "ref":"11231",
    "name:sr-Latn":"11231 Beograd 79",
    "addr:pak":"185302",
    "addr:street":"Славка Миљковића"},
   "geometry":
   {"type":"Point",
    "coordinates":[20.4575761142401, 44.7128433615087]}},
  {"type":"Feature",
   "properties":
   {"name:sr":"11232 Рипањ 1",
    "opening_hours":"Mo-Fr 08:00-19:00; Sa 08:00-13:30; PH off",
    "addr:housenumber":"1",
    "name":"11232 Рипањ 1",
    "amenity":"post_office",
    "phone":"+381 11 3535-142;+381 11 8650-807",
    "ref":"11232",
    "name:sr-Latn":"11232 Ripanj 1",
    "addr:pak":"168202",
    "addr:street":"Ерчанска"},
   "geometry":
   {"type":"Point",
    "coordinates":[20.5198419598012, 44.6393126821248]}},
  {"type":"Feature",
   "properties":
   {"amenity":"post_office",
    "name":"11233 Раља",
    "name:sr":"11233 Раља",
    "name:sr-Latn":"11233 Ralja",
    "ref":"11233",
    "opening_hours":"Mo-Fr 08:00-14:00; Sa 08:00-12:00; PH off",
    "phone":"+381 11 8257-506",
    "addr:pak":"227255"},
   "geometry":
   {"type":"Point",
    "coordinates":[20.561075316537, 44.5720822572234]}},
  {"type":"Feature",
   "properties":
   {"name:sr":"11235 Мали Пожаревац",
    "opening_hours":"Mo-Fr 08:00-14:00; PH off",
    "addr:housenumber":"1",
    "name":"11235 Мали Пожаревац",
    "amenity":"post_office",
    "phone":"+381 11 8256-010",
    "ref":"11235",
    "name:sr-Latn":"11235 Mali Požarevac",
    "addr:pak":"227835",
    "addr:street":"Космајски трг"},
   "geometry":
   {"type":"Point",
    "coordinates":[20.6538996454641, 44.5635550431348]}},
  {"type":"Feature",
   "properties":
   {"name:sr":"11250 Београд 92",
    "opening_hours":"Mo-Fr 08:00-19:00; Sa 08:00-15:00; PH off",
    "addr:housenumber":"23",
    "name":"11250 Београд 92",
    "amenity":"post_office",
    "phone":"+381 11 2572-212;+381 11 3535-143",
    "ref":"11250",
    "name:sr-Latn":"11250 Beograd 92",
    "addr:pak":"172141",
    "addr:street":"Авалска"},
   "geometry":
   {"type":"Point",
    "coordinates":[20.383324398862, 44.7290642221488]}},
  {"type":"Feature",
   "properties":
   {"name:sr":"11251 Остружница",
    "opening_hours":"Mo-Fr 07:30-14:00; PH off",
    "addr:housenumber":"14",
    "name":"11251 Остружница",
    "amenity":"post_office",
    "phone":"+381 11 8070-468",
    "ref":"11251",
    "name:sr-Latn":"11251 Ostružnica",
    "addr:pak":"179603",
    "addr:street":"Карађорђева"},
   "geometry":
   {"type":"Point",
    "coordinates":[20.316427155922, 44.7304324070604]}},
  {"type":"Feature",
   "properties":
   {"name:sr":"11253 Сремчица",
    "opening_hours":"Mo-Fr 08:00-19:00; Sa 08:00-14:30; PH off",
    "addr:housenumber":"157А",
    "name":"11253 Сремчица",
    "amenity":"post_office",
    "phone":"+381 11 3535-144;+381 11 2526-088",
    "ref":"11253",
    "name:sr-Latn":"11253 Sremčica",
    "addr:pak":"175264",
    "addr:street":"Београдска"},
   "geometry":
   {"type":"Point", "coordinates":
                    [20.391557816641, 44.676815624947]}},
  {"type":"Feature",
   "properties":
   {"name:sr":"11260 Умка",
    "opening_hours":"Mo-Fr 08:00-18:30; Sa 08:00-14:00; PH off",
    "addr:housenumber":"7",
    "name":"11260 Умка",
    "amenity":"post_office",
    "phone":"+381 11 3535-145;+381 11 8025-025",
    "ref":"11260",
    "name:sr-Latn":"11260 Umka",
    "addr:pak":"176208",
    "addr:street":"Железничка"},
   "geometry":
   {"type":"Point",
    "coordinates":[20.306797340703, 44.6824221261027]}},
  {"type":"Feature",
   "properties":
   {"name:sr":"11261 Мала Моштаница",
    "opening_hours":"Mo-Fr 08:00-14:00; PH off",
    "addr:housenumber":"56",
    "name":"11261 Мала Моштаница",
    "amenity":"post_office",
    "phone":"+381 11 8750-600",
    "ref":"11261",
    "name:sr-Latn":"11261 Mala Moštanica",
    "addr:pak":"213535",
    "addr:street":"Палих бораца Мале Моштанице"},
   "geometry":
   {"type":"Point",
    "coordinates":[20.3023427399003, 44.647144634686]}},
  {"type":"Feature",
   "properties":
   {"name:sr":"11262 Велика Моштаница",
    "opening_hours":"Mo-Fr 08:00-14:00; Sa 08:00-13:00; PH off",
    "addr:housenumber":"4",
    "name":"11262 Велика Моштаница",
    "amenity":"post_office",
    "phone":"+381 11 8075-167",
    "ref":"11262",
    "name:sr-Latn":"11262 Velika Moštanica",
    "addr:pak":"171501",
    "addr:street":"Десетог октобра"},
   "geometry":
   {"type":"Point",
    "coordinates":[20.3536519265181, 44.6660419399117]}},
  {"type":"Feature",
   "properties":
   {"name:sr":"11400 Младеновац",
    "opening_hours":"Mo-Fr 08:00-19:00; Sa 08:00-15:00; PH off",
    "addr:housenumber":"10",
    "name":"11400 Младеновац",
    "amenity":"post_office",
    "phone":"+381 11 3535-081;+381 11 3535-083",
    "ref":"11400",
    "name:sr-Latn":"11400 Mladenovac",
    "addr:pak":"220510",
    "addr:street":"Јанка Катића"},
   "geometry":
   {"type":"Point",
    "coordinates":[20.6950184836541, 44.4400448434188]}},
  {"type":"Feature",
   "properties":
   {"amenity":"post_office",
    "name":"11408 Велика Крсна",
    "name:sr":"11408 Велика Крсна",
    "name:sr-Latn":"11408 Velika Krsna",
    "ref":"11408",
    "opening_hours":"Mo-Fr 07:00-14:00; PH off",
    "phone":"+381 11 8215-090",
    "addr:pak":"222605"},
   "geometry":
   {"type":"Point",
    "coordinates":[20.8014521011177, 44.4782159529166]}},
  {"type":"Feature",
   "properties":
   {"amenity":"post_office",
    "name":"11409 Ковачевац",
    "name:sr":"11409 Ковачевац",
    "name:sr-Latn":"11409 Kovačevac",
    "ref":"11409",
    "opening_hours":"Mo-Fr 07:00-14:00; PH off",
    "phone":"+381 11 8213-302",
    "addr:pak":"223215"},
   "geometry":
   {"type":"Point",
    "coordinates":[20.7406526840365, 44.437146994277]}},
  {"type":"Feature",
   "properties":
   {"name:sr":"11415 Кораћица",
    "opening_hours":"Mo-Fr 07:30-14:00; PH off",
    "addr:housenumber":"220",
    "name":"11415 Кораћица",
    "amenity":"post_office",
    "phone":"+381 11 8219-703",
    "ref":"11415",
    "name:sr-Latn":"11415 Koraćica",
    "addr:pak":"225220",
    "addr:street":"Космајски пут"},
   "geometry":
   {"type":"Point",
    "coordinates":[20.6075539921739, 44.4441503862167]}},
  {"type":"Feature",
   "properties":
   {"name:sr":"11426 Мељак",
    "opening_hours":"Mo-Fr 09:00-15:00; Sa 09:00-14:30; PH off",
    "addr:housenumber":"32А",
    "name":"11426 Мељак",
    "amenity":"post_office",
    "phone":"+381 11 8340-033;+381 11 8340-609",
    "ref":"11426",
    "name:sr-Latn":"11426 Meljak",
    "addr:pak":"217921",
    "addr:street":"Маршала Тита"},
   "geometry":
   {"type":"Point",
    "coordinates":[20.3672455167855, 44.6222861572964]}},
  {"type":"Feature",
   "properties":
   {"amenity":"post_office",
    "name":"11427 Вранић",
    "name:sr":"11427 Вранић",
    "name:sr-Latn":"11427 Vranić",
    "ref":"11427",
    "opening_hours":"Mo-Fr 08:00-15:00; Sa 08:00-14:00; PH off",
    "phone":"+381 11 8333-000",
    "addr:pak":"219801"},
   "geometry":
   {"type":"Point",
    "coordinates":[20.3089091484634, 44.5945172492662]}},
  {"type":"Feature",
   "properties":
   {"amenity":"post_office",
    "name":"11433 Шепшин",
    "name:sr":"11433 Шепшин",
    "name:sr-Latn":"11433 Šepšin",
    "ref":"11433",
    "opening_hours":"Mo-Fr 06:30-13:00; PH off",
    "phone":"+381 11 8203-010;+381 11 8233-115",
    "addr:pak":"224615"},
   "geometry":
   {"type":"Point",
    "coordinates":[20.7063226008454, 44.5393462500669]}},
  {"type":"Feature",
   "properties":
   {"name:sr":"11450 Сопот",
    "opening_hours":"Mo-Fr 08:00-19:00; Sa 08:00-14:00; PH off",
    "addr:housenumber":"2",
    "name":"11450 Сопот",
    "amenity":"post_office",
    "phone":"+381 11 3535-146;+381 11 8251-121",
    "ref":"11450",
    "name:sr-Latn":"11450 Sopot",
    "addr:pak":"226129",
    "addr:street":"Милосава Влајића"},
   "geometry":
   {"type":"Point",
    "coordinates":[20.5747580725884, 44.5218414699314]}},
  {"type":"Feature",
   "properties":
   {"name:sr":"11453 Рогача",
    "opening_hours":"Mo-Fr 07:00-14:00; PH off",
    "addr:housenumber":"153",
    "name":"11453 Рогача",
    "amenity":"post_office",
    "phone":"+381 11 8255-306",
    "ref":"11453",
    "name:sr-Latn":"11453 Rogača",
    "addr:pak":"226932",
    "addr:street":"Космајска"},
   "geometry":
   {"type":"Point",
    "coordinates":[20.5208204121694, 44.4611315430983]}},
  {"type":"Feature",
   "properties":
   {"amenity":"post_office",
    "name":"11454 Сибница",
    "name:sr":"11454 Сибница",
    "name:sr-Latn":"11454 Sibnica",
    "ref":"11454",
    "opening_hours":"Mo-Fr 08:00-13:30; PH off",
    "phone":"+381 11 8259-081",
    "addr:pak":"225817"},
   "geometry":
   {"type":"Point",
    "coordinates":[20.4527482236935, 44.4627236428248]}},
  {"type":"Feature",
   "properties":
   {"name:sr":"11460 Барајево",
    "opening_hours":"Mo-Fr 08:00-19:00; Sa 08:00-14:00; PH off",
    "addr:housenumber":"4",
    "name":"11460 Барајево",
    "amenity":"post_office",
    "phone":"+381 11 3535-147;+381 11 3535-150",
    "ref":"11460",
    "name:sr-Latn":"11460 Barajevo",
    "addr:pak":"218103",
    "addr:street":"Светосавска"},
   "geometry":
   {"type":"Point",
    "coordinates":[20.4160673164358, 44.5782459748793]}},
  {"type":"Feature",
   "properties":
   {"amenity":"post_office",
    "name":"11461 Бељина",
    "name:sr":"11461 Бељина",
    "name:sr-Latn":"11461 Beljina",
    "ref":"11461",
    "opening_hours":"Mo-Fr 08:00-11:00; PH off",
    "phone":"+381 11 8321-464",
    "addr:pak":"219002"},
   "geometry":
   {"type":"Point",
    "coordinates":[20.3951712965101, 44.5200247105391]}},
  {"type":"Feature",
   "properties":
   {"amenity":"post_office",
    "name":"11462 Велики Борак",
    "name:sr":"11462 Велики Борак",
    "name:sr-Latn":"11462 Veliki Borak",
    "ref":"11462",
    "opening_hours":"Mo-Fr 08:00-14:30; PH off",
    "phone":"+381 11 8354-001",
    "addr:pak":"219415"},
   "geometry":
   {"type":"Point",
    "coordinates":[20.3511311483629, 44.5389879689668]}},
  {"type":"Feature",
   "properties":
   {"name:sr":"11500 Обреновац",
    "opening_hours":"Mo-Fr 08:00-19:00; Sa 08:00-15:00; PH off",
    "addr:housenumber":"128",
    "name":"11500 Обреновац",
    "amenity":"post_office",
    "phone":"+381 11 3535-092;+381 11 3535-100",
    "ref":"11500",
    "name:sr-Latn":"11500 Obrenovac",
    "addr:pak":"210118",
    "addr:street":"Милоша Обреновића"},
   "geometry":
   {"type":"Point",
    "coordinates":[20.2025566588112, 44.6536138426145]}},
  {"type":"Feature",
   "properties":
   {"name:sr":"11504 Барич",
    "opening_hours":"Mo-Fr 08:00-14:00; Sa 08:00-13:00; PH off",
    "addr:housenumber":"140",
    "name":"11504 Барич",
    "amenity":"post_office",
    "phone":"+381 11 8702-193",
    "ref":"11504",
    "name:sr-Latn":"11504 Barič",
    "addr:pak":"213224",
    "addr:street":"Обреновачки пут"},
   "geometry":
   {"type":"Point",
    "coordinates":[20.2611307607133, 44.6523952759001]}},
  {"type":"Feature",
   "properties":
   {"name:sr":"11505 Забрежје",
    "opening_hours":"Mo-Fr 08:00-14:00; Sa 08:00-12:00; PH off",
    "addr:housenumber":"1",
    "name":"11505 Забрежје",
    "amenity":"post_office",
    "phone":"+381 11 8755-919",
    "ref":"11505",
    "name:sr-Latn":"11505 Zabrežje",
    "addr:pak":"213620",
    "addr:street":"Савска"},
   "geometry":
   {"type":"Point",
    "coordinates":[20.2023060189878, 44.6832427795698]}},
  {"type":"Feature",
   "properties":
   {"name:sr":"11507 Стублине",
    "opening_hours":"Mo-Fr 08:00-14:00; PH off",
    "addr:housenumber":"507А",
    "name":"11507 Стублине",
    "amenity":"post_office",
    "phone":"+381 11 8791-188",
    "ref":"11507",
    "name:sr-Latn":"11507 Stubline",
    "addr:pak":"211607",
    "addr:street":"Црноборска"},
   "geometry":
   {"type":"Point", "coordinates":
                    [20.15073394958, 44.5706251998614]}},
  {"type":"Feature",
   "properties":
   {"name:sr":"11508 Грабовац",
    "opening_hours":"Mo-Fr 08:00-14:00; PH off",
    "addr:housenumber":"ББ",
    "name":"11508 Грабовац",
    "amenity":"post_office",
    "phone":"+381 11 8760-641",
    "ref":"11508",
    "name:sr-Latn":"11508 Grabovac",
    "addr:pak":"212131",
    "addr:street":"Школска"},
   "geometry":
   {"type":"Point",
    "coordinates":[20.1053172126048, 44.602405364023]}},
  {"type":"Feature",
   "properties":
   {"amenity":"post_office",
    "name":"11509 Скела",
    "name:sr":"11509 Скела",
    "name:sr-Latn":"11509 Skela",
    "ref":"11509",
    "opening_hours":"Mo-Fr 08:00-14:00; PH off",
    "phone":"+381 11 8770-218",
    "addr:pak":"212925"},
   "geometry":
   {"type":"Point",
    "coordinates":[20.0533392015722, 44.6806062780686]}},
  {"type":"Feature",
   "properties":
   {"name:sr":"11550 Лазаревац",
    "opening_hours":"Mo-Fr 08:00-19:00; Sa 08:00-15:00; PH off",
    "addr:housenumber":"30",
    "name":"11550 Лазаревац",
    "amenity":"post_office",
    "phone":"+381 11 3535-104;+381 11 3535-106",
    "ref":"11550",
    "name:sr-Latn":"11550 Lazarevac",
    "addr:pak":"214217",
    "addr:street":"Карађорђева"},
   "geometry":
   {"type":"Point",
    "coordinates":[20.2607292109451, 44.3815706664942]}},
  {"type":"Feature",
   "properties":
   {"amenity":"post_office",
    "name":"11560 Вреоци",
    "name:sr":"11560 Вреоци",
    "name:sr-Latn":"11560 Vreoci",
    "ref":"11560",
    "opening_hours":"Mo-Fr 08:00-14:30; PH off",
    "phone":"+381 11 8144-306",
    "addr:pak":"217606"},
   "geometry":
   {"type":"Point",
    "coordinates":[20.2827540682351, 44.454503551506]}},
  {"type":"Feature",
   "properties":
   {"name:sr":"11561 Дудовица",
    "opening_hours":"Mo-Fr 07:00-13:00; PH off",
    "addr:housenumber":"1",
    "name":"11561 Дудовица",
    "amenity":"post_office",
    "phone":"+381 11 8186-005",
    "ref":"11561",
    "name:sr-Latn":"11561 Dudovica",
    "addr:pak":"213704",
    "addr:street":"Дванаестог септембра"},
   "geometry":
   {"type":"Point",
    "coordinates":[20.2639111540626, 44.2963722034247]}},
  {"type":"Feature",
   "properties":
   {"name:sr":"11563 Велики Црљени",
    "opening_hours":"Mo-Fr 08:30-14:30; PH off",
    "addr:housenumber":"4",
    "name":"11563 Велики Црљени",
    "amenity":"post_office",
    "phone":"+381 11 3535-148",
    "ref":"11563",
    "name:sr-Latn":"11563 Veliki Crljeni",
    "addr:pak":"215701",
    "addr:street":"Насеље Термоелектране"},
   "geometry":
   {"type":"Point",
    "coordinates":[20.2909307156777, 44.4770301702784]}},
  {"type":"Feature",
   "properties":
   {"amenity":"post_office",
    "name":"11564 Степојевац",
    "name:sr":"11564 Степојевац",
    "name:sr-Latn":"11564 Stepojevac",
    "ref":"11564",
    "opening_hours":"Mo-Fr 08:00-14:00; PH off",
    "phone":"+381 11 8140-098",
    "addr:pak":"217001"},
   "geometry":
   {"type":"Point",
    "coordinates":[20.2937448151179, 44.5134834422161]}},
  {"type":"Feature",
   "properties":
   {"name:sr":"11565 Барошевац",
    "opening_hours":"Mo-Fr 08:00-14:00; PH off",
    "addr:housenumber":"51",
    "name":"11565 Барошевац",
    "amenity":"post_office",
    "phone":"+381 11 8158-047",
    "ref":"11565",
    "name:sr-Latn":"11565 Baroševac",
    "addr:pak":"216109",
    "addr:street":"Ивањданска"},
   "geometry":
   {"type":"Point",
    "coordinates":[20.367181966577, 44.3960698223264]}},
  {"type":"Feature",
   "properties":
   {"name:sr":"11566 Рудовци",
    "opening_hours":"Mo-Fr 08:00-14:00; PH off",
    "addr:housenumber":"1",
    "name":"11566 Рудовци",
    "amenity":"post_office",
    "phone":"+381 11 8192-231",
    "ref":"11566",
    "name:sr-Latn":"11566 Rudovci",
    "addr:pak":"216609",
    "addr:street":"Рударска"},
   "geometry":
   {"type":"Point",
    "coordinates":[20.4040912280467, 44.3807552039299]}},
  {"type":"Feature",
   "properties":
   {"name:sr":"11070 Београд 27",
    "opening_hours":"Mo-Fr 08:00-19:00; Sa 08:00-15:00; PH off",
    "addr:housenumber":"2",
    "name":"11070 Београд 27",
    "amenity":"post_office",
    "phone":"+381 11 3714-058;+381 11 3714-060",
    "ref":"11070",
    "name:sr-Latn":"11070 Beograd 27",
    "addr:pak":"190146",
    "addr:street":"Генерала Жданова"},
   "geometry":
   {"type":"Point",
    "coordinates":[20.4049380056179, 44.8301974524782]}},
  {"type":"Feature",
   "properties":
   {"name:sr":"11077 Београд 99",
    "opening_hours":"Mo-Fr 08:00-19:00; Sa 08:00-15:00; PH off",
    "addr:housenumber":"25",
    "name":"11077 Београд 99",
    "amenity":"post_office",
    "phone":"+381 11 3714-072;+381 11 3714-073",
    "ref":"11077",
    "name:sr-Latn":"11077 Beograd 99",
    "addr:pak":"192045",
    "addr:street":"Партизанске авијације"},
   "geometry":
   {"type":"Point",
    "coordinates":[20.3870763783306, 44.8199724210405]}},
  {"type":"Feature",
   "properties":
   {"name:sr":"11080 Београд 80",
    "opening_hours":"Mo-Fr 08:00-19:00; Sa 08:00-15:00; PH off",
    "addr:housenumber":"8",
    "name":"11080 Београд 80",
    "amenity":"post_office",
    "phone":"+381 11 3714-013;+381 11 3714-018",
    "ref":"11080",
    "name:sr-Latn":"11080 Beograd 80",
    "addr:pak":"200108",
    "addr:street":"Главна"},
   "geometry":
   {"type":"Point",
    "coordinates":[20.4131592984257, 44.8427178585341]}},
  {"type":"Feature",
   "properties":
   {"name:sr":"11271 Сурчин",
    "opening_hours":"Mo-Fr 08:00-19:00; Sa 08:00-14:00; PH off",
    "addr:housenumber":"73",
    "name":"11271 Сурчин",
    "amenity":"post_office",
    "phone":"+381 11 3718-005;+381 11 8440-389",
    "ref":"11271",
    "name:sr-Latn":"11271 Surčin",
    "addr:pak":"201802",
    "addr:street":"Војвођанска"},
   "geometry":
   {"type":"Point",
    "coordinates":[20.2690576314932, 44.7910656149513]}},
  {"type":"Feature",
   "properties":
   {"name:sr":"11272 Добановци",
    "opening_hours":"Mo-Fr 08:00-18:30; Sa 08:00-14:00; PH off",
    "addr:housenumber":"12",
    "name":"11272 Добановци",
    "amenity":"post_office",
    "phone":"+381 11 3718-006;+381 11 8467-269",
    "ref":"11272",
    "name:sr-Latn":"11272 Dobanovci",
    "addr:pak":"201619",
    "addr:street":"Угриновачка"},
   "geometry":
   {"type":"Point",
    "coordinates":[20.2223284862502, 44.8286578256356]}},
  {"type":"Feature",
   "properties":
   {"name:sr":"11273 Београд 87",
    "opening_hours":"Mo-Fr 08:00-19:00; Sa 08:00-14:00; PH off",
    "addr:housenumber":"1",
    "name":"11273 Београд 87",
    "amenity":"post_office",
    "phone":"+381 11 3718-007;+381 11 7870-300",
    "ref":"11273",
    "name:sr-Latn":"11273 Beograd 87",
    "addr:pak":"201375",
    "addr:street":"Бихаћка"},
   "geometry":
   {"type":"Point",
    "coordinates":[20.2918609833127, 44.8937417775852]}},
  {"type":"Feature",
   "properties":
   {"name:sr":"11275 Бољевци",
    "opening_hours":"Mo-Fr 08:00-14:00; PH off",
    "addr:housenumber":"2",
    "name":"11275 Бољевци",
    "amenity":"post_office",
    "phone":"+381 11 3718-012;+381 11 8403-460",
    "ref":"11275",
    "name:sr-Latn":"11275 Boljevci",
    "addr:pak":"202123",
    "addr:street":"Браће Кокар"},
   "geometry":
   {"type":"Point",
    "coordinates":[20.2170810464924, 44.722774603558]}},
  {"type":"Feature",
   "properties":
   {"name:sr":"11276 Јаково",
    "opening_hours":"Mo-Fr 08:00-14:00; PH off",
    "addr:housenumber":"12",
    "name":"11276 Јаково",
    "amenity":"post_office",
    "phone":"+381 11 3718-013;+381 11 8416-610",
    "ref":"11276",
    "name:sr-Latn":"11276 Jakovo",
    "addr:pak":"202042",
    "addr:street":"Проте Стаматовића"},
   "geometry":
   {"type":"Point",
    "coordinates":[20.2605372231527, 44.753339402779]}},
  {"type":"Feature",
   "properties":
   {"name:sr":"11277 Угриновци",
    "opening_hours":"Mo-Fr 08:00-18:00; Sa 08:00-13:30; PH off",
    "addr:housenumber":"1",
    "name":"11277 Угриновци",
    "amenity":"post_office",
    "phone":"+381 11 3718-014;+381 11 8409-602",
    "ref":"11277",
    "name:sr-Latn":"11277 Ugrinovci",
    "addr:pak":"201539",
    "addr:street":"Косанчић Ивана"},
   "geometry":
   {"type":"Point",
    "coordinates":[20.1868699316184, 44.8762992755728]}},
  {"type":"Feature",
   "properties":
   {"name:sr":"11279 Бечмен",
    "opening_hours":"Mo-Fr 07:30-13:30; PH off",
    "addr:housenumber":"2",
    "name":"11279 Бечмен",
    "amenity":"post_office",
    "phone":"+381 11 3718-015;+381 11 8438-597",
    "ref":"11279",
    "name:sr-Latn":"11279 Bečmen",
    "addr:pak":"202333",
    "addr:street":"Николе Тесле"},
   "geometry":
   {"type":"Point",
    "coordinates":[20.2022207229919, 44.7800577130329]}},
  {"type":"Feature",
   "properties":
   {"name:sr":"11280 Прогар",
    "opening_hours":"Mo-Fr 07:30-14:30; PH off",
    "addr:housenumber":"2",
    "name":"11280 Прогар",
    "amenity":"post_office",
    "phone":"+381 11 8427-152",
    "ref":"11280",
    "name:sr-Latn":"11280 Progar",
    "addr:pak":"202201",
    "addr:street":"Жртава Фашизма"},
   "geometry":
   {"type":"Point",
    "coordinates":[20.1611025566008, 44.7143311585245]}},
  {"type":"Feature",
   "properties":
   {"name:sr":"11282 Петровчић",
    "opening_hours":"Mo-Fr 08:00-11:00; PH off",
    "addr:housenumber":"1",
    "name":"11282 Петровчић",
    "amenity":"post_office",
    "phone":"+381 11 8438-811",
    "ref":"11282",
    "name:sr-Latn":"11282 Petrovčić",
    "addr:pak":"202405",
    "addr:street":"Душана Вукасовића"},
   "geometry":
   {"type":"Point",
    "coordinates":[20.1448154846725, 44.7942558577331]}},
  {"type":"Feature",
   "properties":
   {"name:sr":"35000 Јагодина",
    "opening_hours":"Mo-Fr 07:00-19:00; Sa 07:00-15:00; PH off",
    "addr:housenumber":"2",
    "name":"35000 Јагодина",
    "amenity":"post_office",
    "phone":"+381 35 200-813;+381 35 200-815",
    "ref":"35000",
    "name:sr-Latn":"35000 Jagodina",
    "addr:pak":"580202",
    "addr:street":"Народног фронта"},
   "geometry":
   {"type":"Point",
    "coordinates":[21.2621926251208, 43.9788661461099]}},
  {"type":"Feature",
   "properties":
   {"amenity":"post_office",
    "name":"35204 Багрдан",
    "name:sr":"35204 Багрдан",
    "name:sr-Latn":"35204 Bagrdan",
    "ref":"35204",
    "opening_hours":"Mo-Fr 07:00-10:00; PH off",
    "phone":"+381 35 8275-100",
    "addr:pak":"583901"},
   "geometry":
   {"type":"Point",
    "coordinates":[21.1780736634992, 44.0685766080604]}},
  {"type":"Feature",
   "properties":
   {"amenity":"post_office",
    "name":"35205 Јовац",
    "name:sr":"35205 Јовац",
    "name:sr-Latn":"35205 Jovac",
    "ref":"35205",
    "opening_hours":"Mo-Fr 08:00-11:00; PH off",
    "phone":"+381 35 432-400",
    "addr:pak":"596101"},
   "geometry":
   {"type":"Point",
    "coordinates":[21.3160193305812, 43.9041865405443]}},
  {"type":"Feature",
   "properties":
   {"amenity":"post_office",
    "name":"35206 Рашевица",
    "name:sr":"35206 Рашевица",
    "name:sr-Latn":"35206 Raševica",
    "ref":"35206",
    "opening_hours":"Mo-Fr 07:00-13:00; PH off",
    "phone":"+381 35 8521-200",
    "addr:pak":"592901"},
   "geometry":
   {"type":"Point",
    "coordinates":[21.3218468718199, 43.8367714862591]}},
  {"type":"Feature",
   "properties":
   {"amenity":"post_office",
    "name":"35207 Поточац",
    "name:sr":"35207 Поточац",
    "name:sr-Latn":"35207 Potočac",
    "ref":"35207",
    "opening_hours":"Mo-Fr 08:00-11:00; PH off",
    "phone":"+381 35 8522-640",
    "addr:pak":"593001"},
   "geometry":
   {"type":"Point",
    "coordinates":[21.3163628336731, 43.8150523796959]}},
  {"type":"Feature",
   "properties":
   {"name:sr":"35208 Војска",
    "opening_hours":"Mo-Fr 08:00-11:00; PH off",
    "addr:housenumber":"ББ",
    "name":"35208 Војска",
    "amenity":"post_office",
    "phone":"+381 35 8339-269",
    "ref":"35208",
    "name:sr-Latn":"35208 Vojska",
    "addr:pak":"587321",
    "addr:street":"Стевана Синђелића"},
   "geometry":
   {"type":"Point",
    "coordinates":[21.2151640500112, 44.0904828360823]}},
  {"type":"Feature",
   "properties":
   {"amenity":"post_office",
    "name":"35209 Суботица",
    "name:sr":"35209 Суботица",
    "name:sr-Latn":"35209 Subotica",
    "ref":"35209",
    "opening_hours":"Mo-Fr 08:00-11:00; PH off",
    "phone":"+381 35 8802-120",
    "addr:pak":"587401"},
   "geometry":
   {"type":"Point",
    "coordinates":[21.3386055406175, 44.1703189281253]}},
  {"type":"Feature",
   "properties":
   {"name:sr":"35210 Свилајнац",
    "opening_hours":"Mo-Fr 07:00-17:00; Sa 07:00-12:00; PH off",
    "addr:housenumber":"56",
    "name":"35210 Свилајнац",
    "amenity":"post_office",
    "phone":"+381 35 200-888;+381 35 200-887",
    "ref":"35210",
    "name:sr-Latn":"35210 Svilajnac",
    "addr:pak":"586402",
    "addr:street":"Светог Саве"},
   "geometry":
   {"type":"Point",
    "coordinates":[21.1956462967231, 44.2319804086763]}},
  {"type":"Feature",
   "properties":
   {"amenity":"post_office",
    "name":"35211 Седларе",
    "name:sr":"35211 Седларе",
    "name:sr-Latn":"35211 Sedlare",
    "ref":"35211",
    "opening_hours":"Mo-Fr 07:30-13:00; PH off",
    "phone":"+381 35 8818-100",
    "addr:pak":"587001"},
   "geometry":
   {"type":"Point", "coordinates":
                    [21.29283734843, 44.1988832607251]}},
  {"type":"Feature",
   "properties":
   {"name:sr":"35212 Плажане",
    "opening_hours":"Mo-Fr 07:00-11:00; PH off",
    "addr:housenumber":"ББ",
    "name":"35212 Плажане",
    "amenity":"post_office",
    "phone":"+381 35 8631-002",
    "ref":"35212",
    "name:sr-Latn":"35212 Plažane",
    "addr:pak":"599002",
    "addr:street":"Главна"},
   "geometry":
   {"type":"Point",
    "coordinates":[21.4103574673736, 44.1431381020127]}},
  {"type":"Feature",
   "properties":
   {"name:sr":"35213 Деспотовац",
    "opening_hours":"Mo-Fr 07:30-14:30; Sa 07:30-11:30; PH off",
    "addr:housenumber":"12",
    "name":"35213 Деспотовац",
    "amenity":"post_office",
    "phone":"+381 35 200-899;+381 35 200-897",
    "ref":"35213",
    "name:sr-Latn":"35213 Despotovac",
    "addr:pak":"597104",
    "addr:street":"Деспота Стефана Лазаревића"},
   "geometry":
   {"type":"Point",
    "coordinates":[21.438245988251, 44.0947542165223]}},
  {"type":"Feature",
   "properties":
   {"amenity":"post_office",
    "name":"35215 Стењевац",
    "name:sr":"35215 Стењевац",
    "name:sr-Latn":"35215 Stenjevac",
    "ref":"35215",
    "opening_hours":"Mo-Fr 08:00-11:00; PH off",
    "phone":"+381 35 8633-000",
    "addr:pak":"599201"},
   "geometry":
   {"type":"Point",
    "coordinates":[21.5334634519914, 44.0861820536614]}},
  {"type":"Feature",
   "properties":
   {"amenity":"post_office",
    "name":"35217 Бобово",
    "name:sr":"35217 Бобово",
    "name:sr-Latn":"35217 Bobovo",
    "ref":"35217",
    "opening_hours":"Mo-Fr 08:00-12:00; PH off",
    "phone":"+381 35 8312-249",
    "addr:pak":"587101"},
   "geometry":
   {"type":"Point",
    "coordinates":[21.2702731451528, 44.2429945051109]}},
  {"type":"Feature",
   "properties":
   {"name:sr":"35219 Кончарево",
    "opening_hours":"Mo-Fr 08:00-11:00; PH off",
    "addr:housenumber":"111",
    "name":"35219 Кончарево",
    "amenity":"post_office",
    "phone":"+381 35 263-200",
    "ref":"35219",
    "name:sr-Latn":"35219 Končarevo",
    "addr:pak":"584130",
    "addr:street":"Цара Душана"},
   "geometry":
   {"type":"Point",
    "coordinates":[21.3138948723223, 43.9754519297511]}},
  {"type":"Feature",
   "properties":
   {"name:sr":"35220 Рибаре",
    "opening_hours":"Mo-Fr 07:00-14:00; PH off",
    "addr:housenumber":"141",
    "name":"35220 Рибаре",
    "amenity":"post_office",
    "phone":"+381 35 274-100",
    "ref":"35220",
    "name:sr-Latn":"35220 Ribare",
    "addr:pak":"582607",
    "addr:street":"Цара Душана"},
   "geometry":
   {"type":"Point",
    "coordinates":[21.2873097324694, 44.0123302930026]}},
  {"type":"Feature",
   "properties":
   {"amenity":"post_office",
    "name":"35222 Глоговац",
    "name:sr":"35222 Глоговац",
    "name:sr-Latn":"35222 Glogovac",
    "ref":"35222",
    "opening_hours":"Mo-Fr 07:00-14:00; PH off",
    "phone":"+381 35 8276-000",
    "addr:pak":"584272"},
   "geometry":
   {"type":"Point",
    "coordinates":[21.3103245848732, 44.0417195563462]}},
  {"type":"Feature",
   "properties":
   {"amenity":"post_office",
    "name":"35223 Велики Поповић",
    "name:sr":"35223 Велики Поповић",
    "name:sr-Latn":"35223 Veliki Popović",
    "ref":"35223",
    "opening_hours":"Mo-Fr 07:00-14:00; PH off",
    "phone":"+381 35 200-860",
    "addr:pak":"599401"},
   "geometry":
   {"type":"Point",
    "coordinates":[21.3572007964605, 44.1165124252509]}},
  {"type":"Feature",
   "properties":
   {"amenity":"post_office",
    "name":"35224 Медвеђа",
    "name:sr":"35224 Медвеђа",
    "name:sr-Latn":"35224 Medveđa",
    "ref":"35224",
    "opening_hours":"Mo-Fr 08:00-11:00; PH off",
    "phone":"+381 35 625-200",
    "addr:pak":"599501"},
   "geometry":
   {"type":"Point",
    "coordinates":[21.3448341192281, 44.1506217772348]}},
  {"type":"Feature",
   "properties":
   {"name:sr":"35226 Кушиљево",
    "opening_hours":"Mo-Fr 07:00-14:00; PH off",
    "addr:housenumber":"2",
    "name":"35226 Кушиљево",
    "amenity":"post_office",
    "phone":"+381 35 8331-100",
    "ref":"35226",
    "name:sr-Latn":"35226 Kušiljevo",
    "addr:pak":"587229",
    "addr:street":"Војводе Мишића"},
   "geometry":
   {"type":"Point",
    "coordinates":[21.2106842310037, 44.2898454251528]}},
  {"type":"Feature",
   "properties":
   {"amenity":"post_office",
    "name":"35227 Крушар",
    "name:sr":"35227 Крушар",
    "name:sr-Latn":"35227 Krušar",
    "ref":"35227",
    "opening_hours":"Mo-Fr 07:00-14:00; PH off",
    "phone":"+381 35 8430-300",
    "addr:pak":"596201"},
   "geometry":
   {"type":"Point",
    "coordinates":[21.3386467522175, 44.0146923780894]}}, ...]}
