{"type":"FeatureCollection",
 "features":
 [{"type":"Feature",
   "properties":
   {"name:sr":"23105 Зрењанин",
    "opening_hours":"Tu,Th 07:30-14:30; PH off",
    "addr:housenumber":"27",
    "name":"23105 Зрењанин",
    "desciption":
    "<b>Локација: <\/b>ЗРЕЊАНИН<br\/><b>Назив:  <\/b>23105 ЗРЕЊАНИН<br\/><b>Адреса: <\/b>ТОПЛИЧИНА 27<br\/><b>ПАК: <\/b>350339<br\/><b>Радно време: <\/b> уто. 07.30-14.30 чет.  07.30-14.30<br\/><b>Телефон:  <\/b>023\/563-023<br\/> <div id='accUsluge' class='panel-group akordion-posta' role='tablist' aria-multiselectable='true'>  <div class='panel' > <div id='spisakUsluga' class='panel-heading' role='tab'>  <p class='panel-title'>  <a href='#usluge' class='collapse-symbol collapsed' data-toggle='collapse'  role='button' aria-expanded='false' aria-controls='usluge'> <b>Услуге<\/b>  <\/a>  <\/p>  <\/div>  <div id='usluge' class='panel-collapse collapse' role='tabpanel' aria-labelledby='spisakUsluga'> ПРИЈЕМ ПОШИЉАКА<\/br>НОВЧАНО ПОСЛОВАЊЕ<\/br>ИНТЕРНЕТ УСЛУГЕ<\/br>ПРОДАЈА АКЦИЈА<\/br>WESTERN UNION<\/br> <\/div>  <\/div> <\/div>",
    "amenity":"post_office",
    "phone":"+381 23 563-023",
    "ref":"23105",
    "name:sr-Latn":"23105 Zrenjanin",
    "addr:pak":"350339",
    "addr:street":"Топличина"},
   "geometry":
   {"type":"Point",
    "coordinates":[20.4072395863657, 45.390112521708]}},
  {"type":"Feature",
   "properties":
   {"name:sr":"19353 Кална",
    "opening_hours":"Mo-Fr 08:00-12:00; PH off",
    "addr:housenumber":"ББ",
    "name":"19353 Кална",
    "desciption":
    "<b>Локација: <\/b>КАЛНА<br\/><b>Назив:  <\/b>19353 КАЛНА<br\/><b>Адреса: <\/b>ВИДОВДАНСКА ББ<br\/><b>ПАК: <\/b>618109<br\/><b>Радно време: <\/b>08.00-12.00<br\/><b>Телефон:  <\/b>019\/760-611<br\/> <div id='accUsluge' class='panel-group akordion-posta' role='tablist' aria-multiselectable='true'>  <div class='panel' > <div id='spisakUsluga' class='panel-heading' role='tab'>  <p class='panel-title'>  <a href='#usluge' class='collapse-symbol collapsed' data-toggle='collapse'  role='button' aria-expanded='false' aria-controls='usluge'> <b>Услуге<\/b>  <\/a>  <\/p>  <\/div>  <div id='usluge' class='panel-collapse collapse' role='tabpanel' aria-labelledby='spisakUsluga'> ПРИЈЕМ ПОШИЉАКА<\/br>НОВЧАНО ПОСЛОВАЊЕ<\/br>ИСПОРУКА<\/br>ДОСТАВА<\/br>ПРОДАЈА АКЦИЈА<\/br>WESTERN UNION<\/br> <\/div>  <\/div> <\/div>",
    "amenity":"post_office",
    "phone":"+381 19 760-611",
    "ref":"19353",
    "name:sr-Latn":"19353 Kalna",
    "addr:pak":"618109",
    "addr:street":"Видовданска"},
   "geometry":
   {"type":"Point",
    "coordinates":[22.4251304764592, 43.4087730805338]}},
  {"type":"Feature",
   "properties":
   {"name:sr":"21225 Радичевић",
    "opening_hours":"Mo-Fr 08:00-11:00; PH off",
    "addr:housenumber":"2",
    "name":"21225 Радичевић",
    "desciption":
    "<b>Локација: <\/b>РАДИЧЕВИЋ<br\/><b>Назив:  <\/b>21225 РАДИЧЕВИЋ<br\/><b>Адреса: <\/b>ВЕЉКА ВЛАХОВИЋА 2<br\/><b>ПАК: <\/b>381820<br\/><b>Радно време: <\/b>08.00-11.00<br\/><b>Телефон:  <\/b>021\/809-002<br\/> <div id='accUsluge' class='panel-group akordion-posta' role='tablist' aria-multiselectable='true'>  <div class='panel' > <div id='spisakUsluga' class='panel-heading' role='tab'>  <p class='panel-title'>  <a href='#usluge' class='collapse-symbol collapsed' data-toggle='collapse'  role='button' aria-expanded='false' aria-controls='usluge'> <b>Услуге<\/b>  <\/a>  <\/p>  <\/div>  <div id='usluge' class='panel-collapse collapse' role='tabpanel' aria-labelledby='spisakUsluga'> ПРИЈЕМ ПОШИЉАКА<\/br>НОВЧАНО ПОСЛОВАЊЕ<\/br>ИСПОРУКА<\/br>ДОСТАВА<\/br>МЕЊАЧКИ ПОСЛОВИ<\/br>ПРОДАЈА АКЦИЈА<\/br>WESTERN UNION<\/br> <\/div>  <\/div> <\/div>",
    "amenity":"post_office",
    "phone":"+381 21 809-002",
    "ref":"21225",
    "name:sr-Latn":"21225 Radičević",
    "addr:pak":"381820",
    "addr:street":"Вељка Влаховића"},
   "geometry":
   {"type":"Point",
    "coordinates":[19.9216456439129, 45.5860455619802]}},
  {"type":"Feature",
   "properties":
   {"name:sr":"12227 Баре",
    "opening_hours":"Mo-Fr 07:00-10:00; PH off",
    "addr:housenumber":"ББ",
    "name":"12227 Баре",
    "desciption":
    "<b>Локација: <\/b>БАРЕ<br\/><b>Назив:  <\/b>12227 БАРЕ<br\/><b>Адреса: <\/b>МАРШАЛА ТИТА ББ<br\/><b>ПАК: <\/b>294902<br\/><b>Радно време: <\/b>07.00-10.00<br\/><b>Телефон:  <\/b>012\/587526<br\/> <div id='accUsluge' class='panel-group akordion-posta' role='tablist' aria-multiselectable='true'>  <div class='panel' > <div id='spisakUsluga' class='panel-heading' role='tab'>  <p class='panel-title'>  <a href='#usluge' class='collapse-symbol collapsed' data-toggle='collapse'  role='button' aria-expanded='false' aria-controls='usluge'> <b>Услуге<\/b>  <\/a>  <\/p>  <\/div>  <div id='usluge' class='panel-collapse collapse' role='tabpanel' aria-labelledby='spisakUsluga'> ПРИЈЕМ ПОШИЉАКА<\/br>НОВЧАНО ПОСЛОВАЊЕ<\/br>ИСПОРУКА<\/br>ДОСТАВА<\/br>ИНТЕРНЕТ УСЛУГЕ<\/br>ПРОДАЈА АКЦИЈА<\/br>WESTERN UNION<\/br> <\/div>  <\/div> <\/div>",
    "amenity":"post_office",
    "phone":"+381 12 587526",
    "ref":"12227",
    "name:sr-Latn":"12227 Bare",
    "addr:pak":"294902",
    "addr:street":"Маршала Тита"},
   "geometry":
   {"type":"Point",
    "coordinates":[21.3299855672829, 44.6473848919417]}},
  {"type":"Feature",
   "properties":
   {"name:sr":"21311 Черевић",
    "opening_hours":"Mo-Fr 08:00-14:00; PH off",
    "addr:housenumber":"19",
    "name":"21311 Черевић",
    "desciption":
    "<b>Локација: <\/b>ЧЕРЕВИЋ<br\/><b>Назив:  <\/b>21311 ЧЕРЕВИЋ<br\/><b>Адреса: <\/b>КРАЉА ПЕТРА ПРВОГ 19<br\/><b>ПАК: <\/b>396930<br\/><b>Радно време: <\/b>08.00-14.00<br\/><b>Телефон:  <\/b>021\/2977-034<br\/> <div id='accUsluge' class='panel-group akordion-posta' role='tablist' aria-multiselectable='true'>  <div class='panel' > <div id='spisakUsluga' class='panel-heading' role='tab'>  <p class='panel-title'>  <a href='#usluge' class='collapse-symbol collapsed' data-toggle='collapse'  role='button' aria-expanded='false' aria-controls='usluge'> <b>Услуге<\/b>  <\/a>  <\/p>  <\/div>  <div id='usluge' class='panel-collapse collapse' role='tabpanel' aria-labelledby='spisakUsluga'> ПРИЈЕМ ПОШИЉАКА<\/br>НОВЧАНО ПОСЛОВАЊЕ<\/br>ИСПОРУКА<\/br>ДОСТАВА<\/br>PAKET ZA ISPORUKU<\/br>ПРОДАЈА АКЦИЈА<\/br>WESTERN UNION<\/br> <\/div>  <\/div> <\/div>",
    "amenity":"post_office",
    "phone":"+381 21 2977-034",
    "ref":"21311",
    "name:sr-Latn":"21311 Čerević",
    "addr:pak":"396930",
    "addr:street":"Краља Петра првог"},
   "geometry":
   {"type":"Point",
    "coordinates":[19.6668969804951, 45.2187380109911]}},
  {"type":"Feature",
   "properties":
   {"name:sr":"17520 Бујановац",
    "opening_hours":"Mo-Fr 08:00-17:00; Sa 08:00-13:00; PH off",
    "addr:housenumber":"244",
    "name":"17520 Бујановац",
    "desciption":
    "<b>Локација: <\/b>БУЈАНОВАЦ<br\/><b>Назив:  <\/b>17520 БУЈАНОВАЦ<br\/><b>Адреса: <\/b>КАРАЂОРЂА ПЕТРОВИЋА 244<br\/><b>ПАК: <\/b>634126<br\/><b>Радно време: <\/b>08.00-17.00<br\/>субота:08.00-13.00<br\/><b>Телефон:  <\/b>017\/407-052<br\/> <div id='accUsluge' class='panel-group akordion-posta' role='tablist' aria-multiselectable='true'>  <div class='panel' > <div id='spisakUsluga' class='panel-heading' role='tab'>  <p class='panel-title'>  <a href='#usluge' class='collapse-symbol collapsed' data-toggle='collapse'  role='button' aria-expanded='false' aria-controls='usluge'> <b>Услуге<\/b>  <\/a>  <\/p>  <\/div>  <div id='usluge' class='panel-collapse collapse' role='tabpanel' aria-labelledby='spisakUsluga'> ПРИЈЕМ ПОШИЉАКА<\/br>НОВЧАНО ПОСЛОВАЊЕ<\/br>ИСПОРУКА<\/br>ДОСТАВА<\/br>ДОСТАВА ПОСТНЕТ УПУТНИЦА<\/br>ФИЛАТЕЛИЈА<\/br>ИНТЕРНЕТ УСЛУГЕ<\/br>КЕШ ЕКСПРЕС<\/br>МЕЊАЧКИ ПОСЛОВИ<\/br>PAKET ZA ISPORUKU<\/br>ПРОДАЈА АКЦИЈА<\/br>WESTERN UNION<\/br> <\/div>  <\/div> <\/div>",
    "amenity":"post_office",
    "phone":"+381 17 407-052",
    "ref":"17520",
    "name:sr-Latn":"17520 Bujanovac",
    "addr:pak":"634126",
    "addr:street":"Карађорђа Петровића"},
   "geometry":
   {"type":"Point",
    "coordinates":[21.7669277849139, 42.4612063294935]}},
  {"type":"Feature",
   "properties":
   {"name:sr":"11125 Београд 51",
    "opening_hours":"Mo-Fr 09:00-16:00; PH off",
    "addr:housenumber":"10",
    "name":"11125 Београд 51",
    "desciption":
    "<b>Локација: <\/b>БЕОГРАД-СТАРИ ГРАД<br\/><b>Назив:  <\/b>11125 БЕОГРАД 51<br\/><b>Адреса: <\/b>БУЛЕВАР ДЕСПОТА СТЕФАНА 10<br\/><b>ПАК: <\/b>106102<br\/><b>Радно време: <\/b>09.00-16.00<br\/><b>Телефон:  <\/b>011\/3223-451<br\/> <div id='accUsluge' class='panel-group akordion-posta' role='tablist' aria-multiselectable='true'>  <div class='panel' > <div id='spisakUsluga' class='panel-heading' role='tab'>  <p class='panel-title'>  <a href='#usluge' class='collapse-symbol collapsed' data-toggle='collapse'  role='button' aria-expanded='false' aria-controls='usluge'> <b>Услуге<\/b>  <\/a>  <\/p>  <\/div>  <div id='usluge' class='panel-collapse collapse' role='tabpanel' aria-labelledby='spisakUsluga'> ПРИЈЕМ ПОШИЉАКА<\/br>НОВЧАНО ПОСЛОВАЊЕ<\/br>МЕЊАЧКИ ПОСЛОВИ<\/br>ПРОДАЈА АКЦИЈА<\/br>WESTERN UNION<\/br> <\/div>  <\/div> <\/div>",
    "amenity":"post_office",
    "phone":"+381 11 3223-451",
    "ref":"11125",
    "name:sr-Latn":"11125 Beograd 51",
    "addr:pak":"106102",
    "addr:street":"Булевар Деспота Стефана"},
   "geometry":
   {"type":"Point",
    "coordinates":[20.4627491512207, 44.8164556289441]}},
  {"type":"Feature",
   "properties":
   {"name:sr":"22248 Јамена",
    "opening_hours":"Mo-Fr 07:00-10:30; PH off",
    "addr:housenumber":"24",
    "name":"22248 Јамена",
    "desciption":
    "<b>Локација: <\/b>ЈАМЕНА<br\/><b>Назив:  <\/b>22248 ЈАМЕНА<br\/><b>Адреса: <\/b>КНЕЗА ЛАЗАРА 24<br\/><b>ПАК: <\/b>328904<br\/><b>Радно време: <\/b>07.00-10.30<br\/><b>Телефон:  <\/b>022\/734-110<br\/> <div id='accUsluge' class='panel-group akordion-posta' role='tablist' aria-multiselectable='true'>  <div class='panel' > <div id='spisakUsluga' class='panel-heading' role='tab'>  <p class='panel-title'>  <a href='#usluge' class='collapse-symbol collapsed' data-toggle='collapse'  role='button' aria-expanded='false' aria-controls='usluge'> <b>Услуге<\/b>  <\/a>  <\/p>  <\/div>  <div id='usluge' class='panel-collapse collapse' role='tabpanel' aria-labelledby='spisakUsluga'> ПРИЈЕМ ПОШИЉАКА<\/br>НОВЧАНО ПОСЛОВАЊЕ<\/br>ИСПОРУКА<\/br>ДОСТАВА<\/br>ПРОДАЈА АКЦИЈА<\/br>WESTERN UNION<\/br> <\/div>  <\/div> <\/div>",
    "amenity":"post_office",
    "phone":"+381 22 734-110",
    "ref":"22248",
    "name:sr-Latn":"22248 Jamena",
    "addr:pak":"328904",
    "addr:street":"кнеза Лазара"},
   "geometry":
   {"type":"Point",
    "coordinates":[19.063394079672, 44.8843379170665]}},
  {"type":"Feature",
   "properties":
   {"name:sr":"11412 Јагњило",
    "opening_hours":"Mo-Fr 07:00-14:00; PH off",
    "name":"11412 Јагњило",
    "desciption":
    "<b>Локација: <\/b>ЈАГЊИЛО<br\/><b>Назив:  <\/b>11412 ЈАГЊИЛО<br\/><b>Адреса: <\/b>ЈАНКА БАЏАКА 82<br\/><b>ПАК: <\/b>223609<br\/><b>Радно време: <\/b>07.00-14.00<br\/><b>Телефон:  <\/b>011\/8217-490<br\/> <div id='accUsluge' class='panel-group akordion-posta' role='tablist' aria-multiselectable='true'>  <div class='panel' > <div id='spisakUsluga' class='panel-heading' role='tab'>  <p class='panel-title'>  <a href='#usluge' class='collapse-symbol collapsed' data-toggle='collapse'  role='button' aria-expanded='false' aria-controls='usluge'> <b>Услуге<\/b>  <\/a>  <\/p>  <\/div>  <div id='usluge' class='panel-collapse collapse' role='tabpanel' aria-labelledby='spisakUsluga'> ПРИЈЕМ ПОШИЉАКА<\/br>НОВЧАНО ПОСЛОВАЊЕ<\/br>ИСПОРУКА<\/br>ДОСТАВА<\/br>ПРОДАЈА АКЦИЈА<\/br>WESTERN UNION<\/br> <\/div>  <\/div> <\/div>",
    "amenity":"post_office",
    "phone":"+381 11 8217-490",
    "ref":"11412",
    "name:sr-Latn":"11412 Jagnjilo",
    "addr:pak":"223609"},
   "geometry":
   {"type":"Point",
    "coordinates":[20.7299923283047, 44.3750704010853]}},
  {"type":"Feature",
   "properties":
   {"name:sr":"11140 Београд 117",
    "opening_hours":"Mo-Fr 10:00-16:00; Sa 10:00-14:00; PH off",
    "addr:housenumber":"63",
    "name":"11140 Београд 117",
    "desciption":
    "<b>Локација: <\/b>БЕОГРАД-РАКОВИЦА<br\/><b>Назив:  <\/b>11140 БЕОГРАД 117<br\/><b>Адреса: <\/b>КНЕЗА ВИШЕСЛАВА 63<br\/><b>ПАК: <\/b>180512<br\/><b>Радно време: <\/b>10.00-16.00<br\/>субота:10.00-14.00<br\/><b>Телефон:  <\/b>011\/3565-439<br\/> <div id='accUsluge' class='panel-group akordion-posta' role='tablist' aria-multiselectable='true'>  <div class='panel' > <div id='spisakUsluga' class='panel-heading' role='tab'>  <p class='panel-title'>  <a href='#usluge' class='collapse-symbol collapsed' data-toggle='collapse'  role='button' aria-expanded='false' aria-controls='usluge'> <b>Услуге<\/b>  <\/a>  <\/p>  <\/div>  <div id='usluge' class='panel-collapse collapse' role='tabpanel' aria-labelledby='spisakUsluga'> ПРИЈЕМ ПОШИЉАКА<\/br>НОВЧАНО ПОСЛОВАЊЕ<\/br>ИНТЕРНЕТ УСЛУГЕ<\/br>МЕЊАЧКИ ПОСЛОВИ<\/br>ПРОДАЈА АКЦИЈА<\/br>WESTERN UNION<\/br> <\/div>  <\/div> <\/div>",
    "amenity":"post_office",
    "phone":"+381 11 3565-439",
    "ref":"11140",
    "name:sr-Latn":"11140 Beograd 117",
    "addr:pak":"180512",
    "addr:street":"Кнеза Вишеслава"},
   "geometry":
   {"type":"Point",
    "coordinates":[20.4272925684309, 44.7443448219479]}},
  {"type":"Feature",
   "properties":
   {"name:sr":"11174 Београд 43",
    "opening_hours":"Mo-Fr 09:00-16:00; PH off",
    "addr:housenumber":"221",
    "name":"11174 Београд 43",
    "desciption":
    "<b>Локација: <\/b>БЕОГРАД-НОВИ БЕОГРАД<br\/><b>Назив:  <\/b>11174 БЕОГРАД 43<br\/><b>Адреса: <\/b>ЈУРИЈА ГАГАРИНА 221<br\/><b>ПАК: <\/b>191254<br\/><b>Радно време: <\/b>09.00-16.00<br\/><b>Телефон:  <\/b>011\/3714-095 011\/6159-040<br\/> <div id='accUsluge' class='panel-group akordion-posta' role='tablist' aria-multiselectable='true'>  <div class='panel' > <div id='spisakUsluga' class='panel-heading' role='tab'>  <p class='panel-title'>  <a href='#usluge' class='collapse-symbol collapsed' data-toggle='collapse'  role='button' aria-expanded='false' aria-controls='usluge'> <b>Услуге<\/b>  <\/a>  <\/p>  <\/div>  <div id='usluge' class='panel-collapse collapse' role='tabpanel' aria-labelledby='spisakUsluga'> ПРИЈЕМ ПОШИЉАКА<\/br>НОВЧАНО ПОСЛОВАЊЕ<\/br>ИСПОРУКА<\/br>ИНТЕРНЕТ УСЛУГЕ<\/br>МЕЊАЧКИ ПОСЛОВИ<\/br>PAKET ZA ISPORUKU<\/br>ПРОДАЈА АКЦИЈА<\/br>WESTERN UNION<\/br> <\/div>  <\/div> <\/div>",
    "amenity":"post_office",
    "phone":"+381 11 3714-095;+381 11 6159-040",
    "ref":"11174",
    "name:sr-Latn":"11174 Beograd 43",
    "addr:pak":"191254",
    "addr:street":"Јурија Гагарина"},
   "geometry":
   {"type":"Point",
    "coordinates":[20.3771183196923, 44.7975043314933]}},
  {"type":"Feature",
   "properties":
   {"name:sr":"25282 Гаково",
    "opening_hours":"Mo-Fr 07:00-14:00; PH off",
    "addr:housenumber":"1Б",
    "name":"25282 Гаково",
    "desciption":
    "<b>Локација: <\/b>ГАКОВО<br\/><b>Назив:  <\/b>25282 ГАКОВО<br\/><b>Адреса: <\/b>ЖАРКА ЗРЕЊАНИНА 1Б<br\/><b>ПАК: <\/b>429301<br\/><b>Радно време: <\/b>07.00-14.00<br\/><b>Телефон:  <\/b>025\/866-611<br\/> <div id='accUsluge' class='panel-group akordion-posta' role='tablist' aria-multiselectable='true'>  <div class='panel' > <div id='spisakUsluga' class='panel-heading' role='tab'>  <p class='panel-title'>  <a href='#usluge' class='collapse-symbol collapsed' data-toggle='collapse'  role='button' aria-expanded='false' aria-controls='usluge'> <b>Услуге<\/b>  <\/a>  <\/p>  <\/div>  <div id='usluge' class='panel-collapse collapse' role='tabpanel' aria-labelledby='spisakUsluga'> ПРИЈЕМ ПОШИЉАКА<\/br>НОВЧАНО ПОСЛОВАЊЕ<\/br>ИСПОРУКА<\/br>ДОСТАВА<\/br>ПРОДАЈА АКЦИЈА<\/br>WESTERN UNION<\/br> <\/div>  <\/div> <\/div>",
    "amenity":"post_office",
    "phone":"+381 25 866-611",
    "ref":"25282",
    "name:sr-Latn":"25282 Gakovo",
    "addr:pak":"429301",
    "addr:street":"Жарка Зрењанина"},
   "geometry":
   {"type":"Point",
    "coordinates":[19.0598326974972, 45.9010887098524]}},
  {"type":"Feature",
   "properties":
   {"name:sr":"36310 Сјеница",
    "opening_hours":"Mo-Fr 07:30-19:30; Sa 08:00-15:00; PH off",
    "addr:housenumber":"1",
    "name":"36310 Сјеница",
    "desciption":
    "<b>Локација: <\/b>СЈЕНИЦА<br\/><b>Назив:  <\/b>36310 СЈЕНИЦА<br\/><b>Адреса: <\/b>МИЛОРАДА ЈОВАНОВИЋА 1<br\/><b>ПАК: <\/b>574441<br\/><b>Радно време: <\/b>07.30-19.30<br\/>субота:08.00-15.00<br\/><b>Телефон:  <\/b>020\/741-210 020\/741-240 020\/741-900<br\/> <div id='accUsluge' class='panel-group akordion-posta' role='tablist' aria-multiselectable='true'>  <div class='panel' > <div id='spisakUsluga' class='panel-heading' role='tab'>  <p class='panel-title'>  <a href='#usluge' class='collapse-symbol collapsed' data-toggle='collapse'  role='button' aria-expanded='false' aria-controls='usluge'> <b>Услуге<\/b>  <\/a>  <\/p>  <\/div>  <div id='usluge' class='panel-collapse collapse' role='tabpanel' aria-labelledby='spisakUsluga'> ПРИЈЕМ ПОШИЉАКА<\/br>НОВЧАНО ПОСЛОВАЊЕ<\/br>ИСПОРУКА<\/br>ДОСТАВА<\/br>ДОСТАВА ПОСТНЕТ УПУТНИЦА<\/br>ИНТЕРНЕТ УСЛУГЕ<\/br>МЕЊАЧКИ ПОСЛОВИ<\/br>PAKET ZA ISPORUKU<\/br>ПРОДАЈА АКЦИЈА<\/br>РЕСТИТУЦИЈА<\/br>WESTERN UNION<\/br> <\/div>  <\/div> <\/div>",
    "amenity":"post_office",
    "phone":"+381 20 741-210;+381 20 741-240;+381 20 741-900",
    "ref":"36310",
    "name:sr-Latn":"36310 Sjenica",
    "addr:pak":"574441",
    "addr:street":"Милорада Јовановића"},
   "geometry":
   {"type":"Point",
    "coordinates":[20.0008041160321, 43.2730306181401]}},
  {"type":"Feature",
   "properties":
   {"name:sr":"37206 Дворане",
    "opening_hours":"Mo-Fr 07:00-10:00; PH off",
    "name":"37206 Дворане",
    "desciption":
    "<b>Локација: <\/b>ДВОРАНЕ<br\/><b>Назив:  <\/b>37206 ДВОРАНЕ<br\/><b>Адреса: <\/b>ДВОРАНЕ ББ<br\/><b>ПАК: <\/b>676111<br\/><b>Радно време: <\/b>07.00-10.00<br\/><b>Телефон:  <\/b>037\/698-100<br\/> <div id='accUsluge' class='panel-group akordion-posta' role='tablist' aria-multiselectable='true'>  <div class='panel' > <div id='spisakUsluga' class='panel-heading' role='tab'>  <p class='panel-title'>  <a href='#usluge' class='collapse-symbol collapsed' data-toggle='collapse'  role='button' aria-expanded='false' aria-controls='usluge'> <b>Услуге<\/b>  <\/a>  <\/p>  <\/div>  <div id='usluge' class='panel-collapse collapse' role='tabpanel' aria-labelledby='spisakUsluga'> ПРИЈЕМ ПОШИЉАКА<\/br>НОВЧАНО ПОСЛОВАЊЕ<\/br>ИСПОРУКА<\/br>ДОСТАВА<\/br>ПРОДАЈА АКЦИЈА<\/br>WESTERN UNION<\/br> <\/div>  <\/div> <\/div>",
    "amenity":"post_office",
    "phone":"+381 37 698-100",
    "ref":"37206",
    "name:sr-Latn":"37206 Dvorane",
    "addr:pak":"676111"},
   "geometry":
   {"type":"Point",
    "coordinates":[21.4107766128012, 43.499331442512]}},
  {"type":"Feature",
   "properties":
   {"name:sr":"26113 Панчево 13",
    "opening_hours":
    "Mo-Fr 09:00-17:00; Sa 09:00-13:00; PH 08:00-12:00",
    "addr:housenumber":"8К",
    "name":"26113 Панчево 13",
    "desciption":
    "<b>Локација: <\/b>ПАНЧЕВО<br\/><b>Назив:  <\/b>26113 ПАНЧЕВО 13<br\/><b>Адреса: <\/b>ДОСИТЕЈА ОБРАДОВИЋА 8К<br\/><b>ПАК: <\/b>301023<br\/><b>Радно време: <\/b>09.00-17.00<br\/>субота:09.00-13.00<br\/>празник:08.00-12.00<br\/><b>Телефон:  <\/b>013\/2300-005<br\/> <div id='accUsluge' class='panel-group akordion-posta' role='tablist' aria-multiselectable='true'>  <div class='panel' > <div id='spisakUsluga' class='panel-heading' role='tab'>  <p class='panel-title'>  <a href='#usluge' class='collapse-symbol collapsed' data-toggle='collapse'  role='button' aria-expanded='false' aria-controls='usluge'> <b>Услуге<\/b>  <\/a>  <\/p>  <\/div>  <div id='usluge' class='panel-collapse collapse' role='tabpanel' aria-labelledby='spisakUsluga'> ПРИЈЕМ ПОШИЉАКА<\/br>НОВЧАНО ПОСЛОВАЊЕ<\/br>ИНТЕРНЕТ УСЛУГЕ<\/br> <\/div>  <\/div> <\/div>",
    "amenity":"post_office",
    "phone":"+381 13 2300-005",
    "ref":"26113",
    "name:sr-Latn":"26113 Pančevo 13",
    "addr:pak":"301023",
    "addr:street":"Доситеја Обрадовића"},
   "geometry":
   {"type":"Point",
    "coordinates":[20.6405479373468, 44.8629721116705]}},
  {"type":"Feature",
   "properties":
   {"name:sr":"35221 Ракитово",
    "opening_hours":"Mo-Fr 07:00-10:00; PH off",
    "addr:housenumber":"1",
    "name":"35221 Ракитово",
    "desciption":
    "<b>Локација: <\/b>РАКИТОВО<br\/><b>Назив:  <\/b>35221 РАКИТОВО<br\/><b>Адреса: <\/b>ДРАГАНА СИМИЈОНОВИЋА СИКИЈА 1<br\/><b>ПАК: <\/b>584153<br\/><b>Радно време: <\/b>07.00-10.00<br\/><b>Телефон:  <\/b>035\/8200-035<br\/> <div id='accUsluge' class='panel-group akordion-posta' role='tablist' aria-multiselectable='true'>  <div class='panel' > <div id='spisakUsluga' class='panel-heading' role='tab'>  <p class='panel-title'>  <a href='#usluge' class='collapse-symbol collapsed' data-toggle='collapse'  role='button' aria-expanded='false' aria-controls='usluge'> <b>Услуге<\/b>  <\/a>  <\/p>  <\/div>  <div id='usluge' class='panel-collapse collapse' role='tabpanel' aria-labelledby='spisakUsluga'> ПРИЈЕМ ПОШИЉАКА<\/br>НОВЧАНО ПОСЛОВАЊЕ<\/br>ИСПОРУКА<\/br>ДОСТАВА<\/br>МЕЊАЧКИ ПОСЛОВИ<\/br>ПРОДАЈА АКЦИЈА<\/br>WESTERN UNION<\/br> <\/div>  <\/div> <\/div>",
    "amenity":"post_office",
    "phone":"+381 35 8200-035",
    "ref":"35221",
    "name:sr-Latn":"35221 Rakitovo",
    "addr:pak":"584153",
    "addr:street":"Драгана Симијоновића Сикија"},
   "geometry":
   {"type":"Point",
    "coordinates":[21.2945560667936, 43.9910749227589]}},
  {"type":"Feature",
   "properties":
   {"name:sr":"15307 Лешница",
    "opening_hours":"Mo-Sa 08:00-14:00; PH off",
    "name":"15307 Лешница",
    "desciption":
    "<b>Локација: <\/b>ЛЕШНИЦА<br\/><b>Назив:  <\/b>15307 ЛЕШНИЦА<br\/><b>Адреса: <\/b>КРАЉА ПЕТРА 1. 19<br\/><b>ПАК: <\/b>263779<br\/><b>Радно време: <\/b>08.00-14.00<br\/>субота:08.00-14.00<br\/><b>Телефон:  <\/b>015\/841-017<br\/> <div id='accUsluge' class='panel-group akordion-posta' role='tablist' aria-multiselectable='true'>  <div class='panel' > <div id='spisakUsluga' class='panel-heading' role='tab'>  <p class='panel-title'>  <a href='#usluge' class='collapse-symbol collapsed' data-toggle='collapse'  role='button' aria-expanded='false' aria-controls='usluge'> <b>Услуге<\/b>  <\/a>  <\/p>  <\/div>  <div id='usluge' class='panel-collapse collapse' role='tabpanel' aria-labelledby='spisakUsluga'> ПРИЈЕМ ПОШИЉАКА<\/br>НОВЧАНО ПОСЛОВАЊЕ<\/br>ИСПОРУКА<\/br>ДОСТАВА<\/br>МЕЊАЧКИ ПОСЛОВИ<\/br>PAKET ZA ISPORUKU<\/br>ПРОДАЈА АКЦИЈА<\/br>WESTERN UNION<\/br> <\/div>  <\/div> <\/div>",
    "amenity":"post_office",
    "phone":"+381 15 841-017",
    "ref":"15307",
    "name:sr-Latn":"15307 Lešnica",
    "addr:pak":"263779"},
   "geometry":
   {"type":"Point",
    "coordinates":[19.3126161056852, 44.6534646224934]}},
  {"type":"Feature",
   "properties":
   {"name:sr":"11431 Колари",
    "opening_hours":"Mo-Fr 07:00-14:00; PH off",
    "addr:housenumber":"2",
    "name":"11431 Колари",
    "desciption":
    "<b>Локација: <\/b>КОЛАРИ<br\/><b>Назив:  <\/b>11431 КОЛАРИ<br\/><b>Адреса: <\/b>СМЕДЕРЕВСКА 2<br\/><b>ПАК: <\/b>234424<br\/><b>Радно време: <\/b>07.00-14.00<br\/><b>Телефон:  <\/b>026\/4711-014<br\/> <div id='accUsluge' class='panel-group akordion-posta' role='tablist' aria-multiselectable='true'>  <div class='panel' > <div id='spisakUsluga' class='panel-heading' role='tab'>  <p class='panel-title'>  <a href='#usluge' class='collapse-symbol collapsed' data-toggle='collapse'  role='button' aria-expanded='false' aria-controls='usluge'> <b>Услуге<\/b>  <\/a>  <\/p>  <\/div>  <div id='usluge' class='panel-collapse collapse' role='tabpanel' aria-labelledby='spisakUsluga'> ПРИЈЕМ ПОШИЉАКА<\/br>НОВЧАНО ПОСЛОВАЊЕ<\/br>ИСПОРУКА<\/br>ДОСТАВА<\/br>PAKET ZA ISPORUKU<\/br>ПРОДАЈА АКЦИЈА<\/br>WESTERN UNION<\/br> <\/div>  <\/div> <\/div>",
    "amenity":"post_office",
    "phone":"+381 26 4711-014",
    "ref":"11431",
    "name:sr-Latn":"11431 Kolari",
    "addr:pak":"234424",
    "addr:street":"Смедеревска"},
   "geometry":
   {"type":"Point",
    "coordinates":[20.8979592310361, 44.5838280809459]}},
  {"type":"Feature",
   "properties":
   {"name:sr":"18246 Равна Дубрава",
    "opening_hours":"Tu,Th 07:00-10:00; PH off",
    "name":"18246 Равна Дубрава",
    "desciption":
    "<b>Локација: <\/b>РАВНА ДУБРАВА<br\/><b>Назив:  <\/b>18246 РАВНА ДУБРАВА<br\/><b>Адреса: <\/b>РАВНА ДУБРАВА ББ<br\/><b>ПАК: <\/b>693010<br\/><b>Радно време: <\/b> уто. 07.00-10.00 чет.  07.00-10.00<br\/><b>Телефон:  <\/b>018\/866-306<br\/> <div id='accUsluge' class='panel-group akordion-posta' role='tablist' aria-multiselectable='true'>  <div class='panel' > <div id='spisakUsluga' class='panel-heading' role='tab'>  <p class='panel-title'>  <a href='#usluge' class='collapse-symbol collapsed' data-toggle='collapse'  role='button' aria-expanded='false' aria-controls='usluge'> <b>Услуге<\/b>  <\/a>  <\/p>  <\/div>  <div id='usluge' class='panel-collapse collapse' role='tabpanel' aria-labelledby='spisakUsluga'> ПРИЈЕМ ПОШИЉАКА<\/br>НОВЧАНО ПОСЛОВАЊЕ<\/br>ИСПОРУКА<\/br>ДОСТАВА<\/br>ПРОДАЈА АКЦИЈА<\/br>WESTERN UNION<\/br> <\/div>  <\/div> <\/div>",
    "amenity":"post_office",
    "phone":"+381 18 866-306",
    "ref":"18246",
    "name:sr-Latn":"18246 Ravna Dubrava",
    "addr:pak":"693010"},
   "geometry":
   {"type":"Point",
    "coordinates":[22.1928336017527, 43.0775049373308]}},
  {"type":"Feature",
   "properties":
   {"name:sr":"23208 Елемир",
    "opening_hours":"Mo-Fr 07:30-13:30; Sa 07:30-11:30; PH off",
    "addr:housenumber":"32",
    "name":"23208 Елемир",
    "desciption":
    "<b>Локација: <\/b>ЕЛЕМИР<br\/><b>Назив:  <\/b>23208 ЕЛЕМИР<br\/><b>Адреса: <\/b>ЖАРКА ЗРЕЊАНИНА 32<br\/><b>ПАК: <\/b>358004<br\/><b>Радно време: <\/b>07.30-13.30<br\/>субота:07.30-11.30<br\/><b>Телефон:  <\/b>023\/593-453<br\/> <div id='accUsluge' class='panel-group akordion-posta' role='tablist' aria-multiselectable='true'>  <div class='panel' > <div id='spisakUsluga' class='panel-heading' role='tab'>  <p class='panel-title'>  <a href='#usluge' class='collapse-symbol collapsed' data-toggle='collapse'  role='button' aria-expanded='false' aria-controls='usluge'> <b>Услуге<\/b>  <\/a>  <\/p>  <\/div>  <div id='usluge' class='panel-collapse collapse' role='tabpanel' aria-labelledby='spisakUsluga'> ПРИЈЕМ ПОШИЉАКА<\/br>НОВЧАНО ПОСЛОВАЊЕ<\/br>ИСПОРУКА<\/br>ДОСТАВА<\/br>ИНТЕРНЕТ УСЛУГЕ<\/br>PAKET ZA ISPORUKU<\/br>ПРОДАЈА АКЦИЈА<\/br>WESTERN UNION<\/br> <\/div>  <\/div> <\/div>",
    "amenity":"post_office",
    "phone":"+381 23 593-453",
    "ref":"23208",
    "name:sr-Latn":"23208 Elemir",
    "addr:pak":"358004",
    "addr:street":"Жарка Зрењанина"},
   "geometry":
   {"type":"Point",
    "coordinates":[20.2998487412853, 45.439447763717]}},
  {"type":"Feature",
   "properties":
   {"name:sr":"36323 Лескова",
    "opening_hours":"We,Fr 08:00-14:00; PH off",
    "name":"36323 Лескова",
    "desciption":
    "<b>Локација: <\/b>ЛЕСКОВА<br\/><b>Назив:  <\/b>36323 ЛЕСКОВА<br\/><b>Адреса: <\/b>ЛЕСКОВА ББ<br\/><b>ПАК: <\/b>576420<br\/><b>Радно време: <\/b> сре.  08.00-14.00 пет.  08.00-14.00<br\/><b>Телефон:  <\/b>020\/452-602<br\/> <div id='accUsluge' class='panel-group akordion-posta' role='tablist' aria-multiselectable='true'>  <div class='panel' > <div id='spisakUsluga' class='panel-heading' role='tab'>  <p class='panel-title'>  <a href='#usluge' class='collapse-symbol collapsed' data-toggle='collapse'  role='button' aria-expanded='false' aria-controls='usluge'> <b>Услуге<\/b>  <\/a>  <\/p>  <\/div>  <div id='usluge' class='panel-collapse collapse' role='tabpanel' aria-labelledby='spisakUsluga'> ПРИЈЕМ ПОШИЉАКА<\/br>НОВЧАНО ПОСЛОВАЊЕ<\/br>ИСПОРУКА<\/br>ДОСТАВА<\/br>ПРОДАЈА АКЦИЈА<\/br>WESTERN UNION<\/br> <\/div>  <\/div> <\/div>",
    "amenity":"post_office",
    "phone":"+381 20 452-602",
    "ref":"36323",
    "name:sr-Latn":"36323 Leskova",
    "addr:pak":"576420"},
   "geometry":
   {"type":"Point",
    "coordinates":[20.1704633182036, 43.0473107385401]}},
  {"type":"Feature",
   "properties":
   {"name:sr":"22000 Сремска Митровица",
    "opening_hours":"Mo-Fr 08:00-19:00; Sa 08:00-14:00; PH off",
    "addr:housenumber":"2",
    "name":"22000 Сремска Митровица",
    "desciption":
    "<b>Локација: <\/b>СРЕМСКА МИТРОВИЦА<br\/><b>Назив:  <\/b>22000 СРЕМСКА МИТРОВИЦА<br\/><b>Адреса: <\/b>КРАЉА ПЕТРА ПРВОГ 2<br\/><b>ПАК: <\/b>320701<br\/><b>Радно време: <\/b>08.00-19.00<br\/>субота:08.00-14.00<br\/><b>Телефон:  <\/b>022\/600-633 022\/600-613 022\/600-615<br\/> <div id='accUsluge' class='panel-group akordion-posta' role='tablist' aria-multiselectable='true'>  <div class='panel' > <div id='spisakUsluga' class='panel-heading' role='tab'>  <p class='panel-title'>  <a href='#usluge' class='collapse-symbol collapsed' data-toggle='collapse'  role='button' aria-expanded='false' aria-controls='usluge'> <b>Услуге<\/b>  <\/a>  <\/p>  <\/div>  <div id='usluge' class='panel-collapse collapse' role='tabpanel' aria-labelledby='spisakUsluga'> ПРИЈЕМ ПОШИЉАКА<\/br>НОВЧАНО ПОСЛОВАЊЕ<\/br>ИСПОРУКА<\/br>ДОСТАВА<\/br>ДОСТАВА ПОСТНЕТ УПУТНИЦА<\/br>ФИЛАТЕЛИЈА<\/br>ИНТЕРНЕТ УСЛУГЕ<\/br>КЕШ ЕКСПРЕС<\/br>МАЛИ ОГЛАСИ<\/br>МЕЊАЧКИ ПОСЛОВИ<\/br>PAKET ZA ISPORUKU<\/br>ПРОДАЈА АКЦИЈА<\/br>РЕСТИТУЦИЈА<\/br>WESTERN UNION<\/br> <\/div>  <\/div> <\/div>",
    "amenity":"post_office",
    "phone":"+381 22 600-633;+381 22 600-613;+381 22 600-615",
    "ref":"22000",
    "name:sr-Latn":"22000 Sremska Mitrovica",
    "addr:pak":"320701",
    "addr:street":"Краља Петра првог"},
   "geometry":
   {"type":"Point",
    "coordinates":[19.6089543606697, 44.9690167734333]}},
  {"type":"Feature",
   "properties":
   {"name:sr":"18112 Ниш",
    "opening_hours":"Mo-Fr 10:00-17:00; Sa 08:00-14:00; PH off",
    "addr:housenumber":"999",
    "name":"18112 Ниш",
    "desciption":
    "<b>Локација: <\/b>НИШ-МЕДИЈАНА<br\/><b>Назив:  <\/b>18112 НИШ<br\/><b>Адреса: <\/b>ОБРЕНОВИЋЕВА 999<br\/><b>ПАК: <\/b>700309<br\/><b>Радно време: <\/b>10.00-17.00<br\/>субота:08.00-14.00<br\/><b>Телефон:  <\/b>018\/518-152 018\/257-329<br\/> <div id='accUsluge' class='panel-group akordion-posta' role='tablist' aria-multiselectable='true'>  <div class='panel' > <div id='spisakUsluga' class='panel-heading' role='tab'>  <p class='panel-title'>  <a href='#usluge' class='collapse-symbol collapsed' data-toggle='collapse'  role='button' aria-expanded='false' aria-controls='usluge'> <b>Услуге<\/b>  <\/a>  <\/p>  <\/div>  <div id='usluge' class='panel-collapse collapse' role='tabpanel' aria-labelledby='spisakUsluga'> ПРИЈЕМ ПОШИЉАКА<\/br>НОВЧАНО ПОСЛОВАЊЕ<\/br>ИНТЕРНЕТ УСЛУГЕ<\/br>МЕЊАЧКИ ПОСЛОВИ<\/br>ПРОДАЈА АКЦИЈА<\/br>WESTERN UNION<\/br> <\/div>  <\/div> <\/div>",
    "amenity":"post_office",
    "phone":"+381 18 518-152;+381 18 257-329",
    "ref":"18112",
    "name:sr-Latn":"18112 Niš",
    "addr:pak":"700309",
    "addr:street":"Обреновићева"},
   "geometry":
   {"type":"Point",
    "coordinates":[21.8937384343924, 43.3179703694799]}},
  {"type":"Feature",
   "properties":
   {"name:sr":"19210 Бор 1",
    "opening_hours":"Mo-Fr 07:00-19:00; Sa 08:00-14:00; PH off",
    "addr:housenumber":"1",
    "name":"19210 Бор 1",
    "desciption":
    "<b>Локација: <\/b>БОР<br\/><b>Назив:  <\/b>19210 БОР 1<br\/><b>Адреса: <\/b>ЂОРЂА ВАЈФЕРТА 1<br\/><b>ПАК: <\/b>601010<br\/><b>Радно време: <\/b>07.00-19.00<br\/>субота:08.00-14.00<br\/><b>Телефон:  <\/b>030\/453-313 030\/453-323<br\/> <div id='accUsluge' class='panel-group akordion-posta' role='tablist' aria-multiselectable='true'>  <div class='panel' > <div id='spisakUsluga' class='panel-heading' role='tab'>  <p class='panel-title'>  <a href='#usluge' class='collapse-symbol collapsed' data-toggle='collapse'  role='button' aria-expanded='false' aria-controls='usluge'> <b>Услуге<\/b>  <\/a>  <\/p>  <\/div>  <div id='usluge' class='panel-collapse collapse' role='tabpanel' aria-labelledby='spisakUsluga'> ПРИЈЕМ ПОШИЉАКА<\/br>НОВЧАНО ПОСЛОВАЊЕ<\/br>ИСПОРУКА<\/br>ДОСТАВА<\/br>ДОСТАВА ПОСТНЕТ УПУТНИЦА<\/br>ФИЛАТЕЛИЈА<\/br>ИНТЕРНЕТ УСЛУГЕ<\/br>КЕШ ЕКСПРЕС<\/br>МЕЊАЧКИ ПОСЛОВИ<\/br>PAKET ZA ISPORUKU<\/br>ПРОДАЈА АКЦИЈА<\/br>РЕСТИТУЦИЈА<\/br>WESTERN UNION<\/br> <\/div>  <\/div> <\/div>",
    "amenity":"post_office",
    "phone":"+381 30 453-313;+381 30 453-323",
    "ref":"19210",
    "name:sr-Latn":"19210 Bor 1",
    "addr:pak":"601010",
    "addr:street":"Ђорђа Вајферта"},
   "geometry":
   {"type":"Point",
    "coordinates":[22.0984294516382, 44.0781560286896]}},
  {"type":"Feature",
   "properties":
   {"name:sr":"12221 Мајиловац",
    "opening_hours":"Mo-Fr 08:00-14:00; PH off",
    "name":"12221 Мајиловац",
    "desciption":
    "<b>Локација: <\/b>МАЈИЛОВАЦ<br\/><b>Назив:  <\/b>12221 МАЈИЛОВАЦ<br\/><b>Адреса: <\/b>МАЈИЛОВАЦ ББ<br\/><b>ПАК: <\/b>295701<br\/><b>Радно време: <\/b>08.00-14.00<br\/><b>Телефон:  <\/b>012\/274906<br\/> <div id='accUsluge' class='panel-group akordion-posta' role='tablist' aria-multiselectable='true'>  <div class='panel' > <div id='spisakUsluga' class='panel-heading' role='tab'>  <p class='panel-title'>  <a href='#usluge' class='collapse-symbol collapsed' data-toggle='collapse'  role='button' aria-expanded='false' aria-controls='usluge'> <b>Услуге<\/b>  <\/a>  <\/p>  <\/div>  <div id='usluge' class='panel-collapse collapse' role='tabpanel' aria-labelledby='spisakUsluga'> ПРИЈЕМ ПОШИЉАКА<\/br>НОВЧАНО ПОСЛОВАЊЕ<\/br>ИСПОРУКА<\/br>ДОСТАВА<\/br>МЕЊАЧКИ ПОСЛОВИ<\/br>PAKET ZA ISPORUKU<\/br>ПРОДАЈА АКЦИЈА<\/br>WESTERN UNION<\/br> <\/div>  <\/div> <\/div>",
    "amenity":"post_office",
    "phone":"+381 12 274906",
    "ref":"12221",
    "name:sr-Latn":"12221 Majilovac",
    "addr:pak":"295701"},
   "geometry":
   {"type":"Point",
    "coordinates":[21.3629925997307, 44.6922155719369]}},
  {"type":"Feature",
   "properties":
   {"name:sr":"11426 Мељак",
    "opening_hours":"Mo-Fr 09:00-15:00; Sa 09:00-14:30; PH off",
    "addr:housenumber":"32А",
    "name":"11426 Мељак",
    "desciption":
    "<b>Локација: <\/b>МЕЉАК<br\/><b>Назив:  <\/b>11426 МЕЉАК<br\/><b>Адреса: <\/b>МАРШАЛА ТИТА 32А<br\/><b>ПАК: <\/b>217921<br\/><b>Радно време: <\/b>09.00-15.00<br\/>субота:09.00-14.30<br\/><b>Телефон:  <\/b>011\/8340-033 011\/8340-609<br\/> <div id='accUsluge' class='panel-group akordion-posta' role='tablist' aria-multiselectable='true'>  <div class='panel' > <div id='spisakUsluga' class='panel-heading' role='tab'>  <p class='panel-title'>  <a href='#usluge' class='collapse-symbol collapsed' data-toggle='collapse'  role='button' aria-expanded='false' aria-controls='usluge'> <b>Услуге<\/b>  <\/a>  <\/p>  <\/div>  <div id='usluge' class='panel-collapse collapse' role='tabpanel' aria-labelledby='spisakUsluga'> ПРИЈЕМ ПОШИЉАКА<\/br>НОВЧАНО ПОСЛОВАЊЕ<\/br>ИСПОРУКА<\/br>ДОСТАВА<\/br>PAKET ZA ISPORUKU<\/br>ПРОДАЈА АКЦИЈА<\/br>WESTERN UNION<\/br> <\/div>  <\/div> <\/div>",
    "amenity":"post_office",
    "phone":"+381 11 8340-033;+381 11 8340-609",
    "ref":"11426",
    "name:sr-Latn":"11426 Meljak",
    "addr:pak":"217921",
    "addr:street":"Маршала Тита"},
   "geometry":
   {"type":"Point",
    "coordinates":[20.3672455167855, 44.6222861572964]}},
  {"type":"Feature",
   "properties":
   {"name:sr":"16214 Стајковце",
    "opening_hours":"Mo-Fr 08:00-11:00; PH off",
    "name":"16214 Стајковце",
    "desciption":
    "<b>Локација: <\/b>СТАЈКОВЦЕ<br\/><b>Назив:  <\/b>16214 СТАЈКОВЦЕ<br\/><b>Адреса: <\/b>СТАЈКОВЦЕ ББ<br\/><b>ПАК: <\/b>645604<br\/><b>Радно време: <\/b>08.00-11.00<br\/><b>Телефон:  <\/b>016\/3869-012<br\/> <div id='accUsluge' class='panel-group akordion-posta' role='tablist' aria-multiselectable='true'>  <div class='panel' > <div id='spisakUsluga' class='panel-heading' role='tab'>  <p class='panel-title'>  <a href='#usluge' class='collapse-symbol collapsed' data-toggle='collapse'  role='button' aria-expanded='false' aria-controls='usluge'> <b>Услуге<\/b>  <\/a>  <\/p>  <\/div>  <div id='usluge' class='panel-collapse collapse' role='tabpanel' aria-labelledby='spisakUsluga'> ПРИЈЕМ ПОШИЉАКА<\/br>НОВЧАНО ПОСЛОВАЊЕ<\/br>ИСПОРУКА<\/br>ДОСТАВА<\/br>ПРОДАЈА АКЦИЈА<\/br>WESTERN UNION<\/br> <\/div>  <\/div> <\/div>",
    "amenity":"post_office",
    "phone":"+381 16 3869-012",
    "ref":"16214",
    "name:sr-Latn":"16214 Stajkovce",
    "addr:pak":"645604"},
   "geometry":
   {"type":"Point",
    "coordinates":[22.0618576333383, 42.9856419042817]}},
  {"type":"Feature",
   "properties":
   {"name:sr":"11276 Јаково",
    "opening_hours":"Mo-Fr 08:00-14:00; PH off",
    "addr:housenumber":"12",
    "name":"11276 Јаково",
    "desciption":
    "<b>Локација: <\/b>ЈАКОВО<br\/><b>Назив:  <\/b>11276 ЈАКОВО<br\/><b>Адреса: <\/b>ПРОТЕ СТАМАТОВИЋА 12<br\/><b>ПАК: <\/b>202042<br\/><b>Радно време: <\/b>08.00-14.00<br\/><b>Телефон:  <\/b>011\/3718-013 011\/8416-610<br\/> <div id='accUsluge' class='panel-group akordion-posta' role='tablist' aria-multiselectable='true'>  <div class='panel' > <div id='spisakUsluga' class='panel-heading' role='tab'>  <p class='panel-title'>  <a href='#usluge' class='collapse-symbol collapsed' data-toggle='collapse'  role='button' aria-expanded='false' aria-controls='usluge'> <b>Услуге<\/b>  <\/a>  <\/p>  <\/div>  <div id='usluge' class='panel-collapse collapse' role='tabpanel' aria-labelledby='spisakUsluga'> ПРИЈЕМ ПОШИЉАКА<\/br>НОВЧАНО ПОСЛОВАЊЕ<\/br>ИСПОРУКА<\/br>ДОСТАВА<\/br>PAKET ZA ISPORUKU<\/br>ПРОДАЈА АКЦИЈА<\/br>WESTERN UNION<\/br> <\/div>  <\/div> <\/div>",
    "amenity":"post_office",
    "phone":"+381 11 3718-013;+381 11 8416-610",
    "ref":"11276",
    "name:sr-Latn":"11276 Jakovo",
    "addr:pak":"202042",
    "addr:street":"Проте Стаматовића"},
   "geometry":
   {"type":"Point",
    "coordinates":[20.2605372231527, 44.753339402779]}},
  {"type":"Feature",
   "properties":
   {"name:sr":"25270 Бездан",
    "opening_hours":"Mo-Fr 07:00-13:00; Sa 07:30-11:30; PH off",
    "addr:housenumber":"36",
    "name":"25270 Бездан",
    "desciption":
    "<b>Локација: <\/b>БЕЗДАН<br\/><b>Назив:  <\/b>25270 БЕЗДАН<br\/><b>Адреса: <\/b>ЖРТАВА ФАШИЗМА 36<br\/><b>ПАК: <\/b>426002<br\/><b>Радно време: <\/b>07.00-13.00<br\/>субота:07.30-11.30<br\/><b>Телефон:  <\/b>025\/465-165<br\/> <div id='accUsluge' class='panel-group akordion-posta' role='tablist' aria-multiselectable='true'>  <div class='panel' > <div id='spisakUsluga' class='panel-heading' role='tab'>  <p class='panel-title'>  <a href='#usluge' class='collapse-symbol collapsed' data-toggle='collapse'  role='button' aria-expanded='false' aria-controls='usluge'> <b>Услуге<\/b>  <\/a>  <\/p>  <\/div>  <div id='usluge' class='panel-collapse collapse' role='tabpanel' aria-labelledby='spisakUsluga'> ПРИЈЕМ ПОШИЉАКА<\/br>НОВЧАНО ПОСЛОВАЊЕ<\/br>ИСПОРУКА<\/br>ДОСТАВА<\/br>МЕЊАЧКИ ПОСЛОВИ<\/br>PAKET ZA ISPORUKU<\/br>ПРОДАЈА АКЦИЈА<\/br>WESTERN UNION<\/br> <\/div>  <\/div> <\/div>",
    "amenity":"post_office",
    "phone":"+381 25 465-165",
    "ref":"25270",
    "name:sr-Latn":"25270 Bezdan",
    "addr:pak":"426002",
    "addr:street":"Жртава Фашизма"},
   "geometry":
   {"type":"Point",
    "coordinates":[18.9230206834918, 45.8522206400047]}},
  {"type":"Feature",
   "properties":
   {"name:sr":"23264 Фаркаждин",
    "opening_hours":"Mo-Fr 07:00-12:00; PH off",
    "addr:housenumber":"1",
    "name":"23264 Фаркаждин",
    "desciption":
    "<b>Локација: <\/b>ФАРКАЖДИН<br\/><b>Назив:  <\/b>23264 ФАРКАЖДИН<br\/><b>Адреса: <\/b>ТРГ ОСЛОБОЂЕЊА 1<br\/><b>ПАК: <\/b>356808<br\/><b>Радно време: <\/b>07.00-12.00<br\/><b>Телефон:  <\/b>023\/3868-020<br\/> <div id='accUsluge' class='panel-group akordion-posta' role='tablist' aria-multiselectable='true'>  <div class='panel' > <div id='spisakUsluga' class='panel-heading' role='tab'>  <p class='panel-title'>  <a href='#usluge' class='collapse-symbol collapsed' data-toggle='collapse'  role='button' aria-expanded='false' aria-controls='usluge'> <b>Услуге<\/b>  <\/a>  <\/p>  <\/div>  <div id='usluge' class='panel-collapse collapse' role='tabpanel' aria-labelledby='spisakUsluga'> ПРИЈЕМ ПОШИЉАКА<\/br>НОВЧАНО ПОСЛОВАЊЕ<\/br>ИСПОРУКА<\/br>ДОСТАВА<\/br>ИНТЕРНЕТ УСЛУГЕ<\/br> <\/div>  <\/div> <\/div>",
    "amenity":"post_office",
    "phone":"+381 23 3868-020",
    "ref":"23264",
    "name:sr-Latn":"23264 Farkaždin",
    "addr:pak":"356808",
    "addr:street":"Трг ослобођења"},
   "geometry":
   {"type":"Point",
    "coordinates":[20.4733043170521, 45.1886612712558]}},
  {"type":"Feature",
   "properties":
   {"name:sr":"11562 Јунковац",
    "opening_hours":"Mo-Fr 08:00-14:00; PH off",
    "addr:housenumber":"ББ",
    "name":"11562 Јунковац",
    "desciption":
    "<b>Локација: <\/b>ЈУНКОВАЦ<br\/><b>Назив:  <\/b>11562 ЈУНКОВАЦ<br\/><b>Адреса: <\/b>ТРГ ОСЛОБОЂЕЊА ББ<br\/><b>ПАК: <\/b>217302<br\/><b>Радно време: <\/b>08.00-14.00<br\/><b>Телефон:  <\/b>011\/8177-131<br\/> <div id='accUsluge' class='panel-group akordion-posta' role='tablist' aria-multiselectable='true'>  <div class='panel' > <div id='spisakUsluga' class='panel-heading' role='tab'>  <p class='panel-title'>  <a href='#usluge' class='collapse-symbol collapsed' data-toggle='collapse'  role='button' aria-expanded='false' aria-controls='usluge'> <b>Услуге<\/b>  <\/a>  <\/p>  <\/div>  <div id='usluge' class='panel-collapse collapse' role='tabpanel' aria-labelledby='spisakUsluga'> ПРИЈЕМ ПОШИЉАКА<\/br>НОВЧАНО ПОСЛОВАЊЕ<\/br>ИСПОРУКА<\/br>ДОСТАВА<\/br>ПРОДАЈА АКЦИЈА<\/br>WESTERN UNION<\/br> <\/div>  <\/div> <\/div>",
    "amenity":"post_office",
    "phone":"+381 11 8177-131",
    "ref":"11562",
    "name:sr-Latn":"11562 Junkovac",
    "addr:pak":"217302",
    "addr:street":"Трг ослобођења"},
   "geometry":
   {"type":"Point",
    "coordinates":[20.3517975337808, 44.4494101372633]}},
  {"type":"Feature",
   "properties":
   {"name:sr":"23109 Зрењанин",
    "opening_hours":"Mo-Fr 08:00-14:00; Sa 08:00-12:00; PH off",
    "addr:housenumber":"ББ",
    "name":"23109 Зрењанин",
    "desciption":
    "<b>Локација: <\/b>ЗРЕЊАНИН<br\/><b>Назив:  <\/b>23109 ЗРЕЊАНИН<br\/><b>Адреса: <\/b>БЕОГРАДСКА ББ<br\/><b>ПАК: <\/b>351703<br\/><b>Радно време: <\/b>08.00-14.00<br\/>субота:08.00-12.00<br\/><b>Телефон:  <\/b>023\/562-055<br\/> <div id='accUsluge' class='panel-group akordion-posta' role='tablist' aria-multiselectable='true'>  <div class='panel' > <div id='spisakUsluga' class='panel-heading' role='tab'>  <p class='panel-title'>  <a href='#usluge' class='collapse-symbol collapsed' data-toggle='collapse'  role='button' aria-expanded='false' aria-controls='usluge'> <b>Услуге<\/b>  <\/a>  <\/p>  <\/div>  <div id='usluge' class='panel-collapse collapse' role='tabpanel' aria-labelledby='spisakUsluga'> ПРИЈЕМ ПОШИЉАКА<\/br>НОВЧАНО ПОСЛОВАЊЕ<\/br>ИСПОРУКА<\/br>ИНТЕРНЕТ УСЛУГЕ<\/br>МЕЊАЧКИ ПОСЛОВИ<\/br>ПРОДАЈА АКЦИЈА<\/br>WESTERN UNION<\/br> <\/div>  <\/div> <\/div>",
    "amenity":"post_office",
    "phone":"+381 23 562-055",
    "ref":"23109",
    "name:sr-Latn":"23109 Zrenjanin",
    "addr:pak":"351703",
    "addr:street":"Београдска"},
   "geometry":
   {"type":"Point",
    "coordinates":[20.4153969613884, 45.3732503890008]}},
  {"type":"Feature",
   "properties":
   {"name:sr":"23271 Кумане",
    "opening_hours":"Mo-Fr 07:30-13:30; Sa 07:30-11:30; PH off",
    "addr:housenumber":"2",
    "name":"23271 Кумане",
    "desciption":
    "<b>Локација: <\/b>КУМАНЕ<br\/><b>Назив:  <\/b>23271 КУМАНЕ<br\/><b>Адреса: <\/b>ТРГ СЛОБОДЕ 2<br\/><b>ПАК: <\/b>366601<br\/><b>Радно време: <\/b>07.30-13.30<br\/>субота:07.30-11.30<br\/><b>Телефон:  <\/b>023\/786-118<br\/> <div id='accUsluge' class='panel-group akordion-posta' role='tablist' aria-multiselectable='true'>  <div class='panel' > <div id='spisakUsluga' class='panel-heading' role='tab'>  <p class='panel-title'>  <a href='#usluge' class='collapse-symbol collapsed' data-toggle='collapse'  role='button' aria-expanded='false' aria-controls='usluge'> <b>Услуге<\/b>  <\/a>  <\/p>  <\/div>  <div id='usluge' class='panel-collapse collapse' role='tabpanel' aria-labelledby='spisakUsluga'> ПРИЈЕМ ПОШИЉАКА<\/br>НОВЧАНО ПОСЛОВАЊЕ<\/br>ИСПОРУКА<\/br>ДОСТАВА<\/br>PAKET ZA ISPORUKU<\/br>ПРОДАЈА АКЦИЈА<\/br>WESTERN UNION<\/br> <\/div>  <\/div> <\/div>",
    "amenity":"post_office",
    "phone":"+381 23 786-118",
    "ref":"23271",
    "name:sr-Latn":"23271 Kumane",
    "addr:pak":"366601",
    "addr:street":"Трг Слободе"},
   "geometry":
   {"type":"Point",
    "coordinates":[20.229656778794, 45.5369349762147]}},
  {"type":"Feature",
   "properties":
   {"name:sr":"23252 Бока",
    "opening_hours":"Mo-Fr 07:30-14:00; PH off",
    "addr:housenumber":"34",
    "name":"23252 Бока",
    "desciption":
    "<b>Локација: <\/b>БОКА<br\/><b>Назив:  <\/b>23252 БОКА<br\/><b>Адреса: <\/b>ИВЕ ЛОЛЕ РИБАРА 34<br\/><b>ПАК: <\/b>368639<br\/><b>Радно време: <\/b>07.30-14.00<br\/><b>Телефон:  <\/b>023\/846-700<br\/> <div id='accUsluge' class='panel-group akordion-posta' role='tablist' aria-multiselectable='true'>  <div class='panel' > <div id='spisakUsluga' class='panel-heading' role='tab'>  <p class='panel-title'>  <a href='#usluge' class='collapse-symbol collapsed' data-toggle='collapse'  role='button' aria-expanded='false' aria-controls='usluge'> <b>Услуге<\/b>  <\/a>  <\/p>  <\/div>  <div id='usluge' class='panel-collapse collapse' role='tabpanel' aria-labelledby='spisakUsluga'> ПРИЈЕМ ПОШИЉАКА<\/br>НОВЧАНО ПОСЛОВАЊЕ<\/br>ИСПОРУКА<\/br>ДОСТАВА<\/br>МЕЊАЧКИ ПОСЛОВИ<\/br>ПРОДАЈА АКЦИЈА<\/br>WESTERN UNION<\/br> <\/div>  <\/div> <\/div>",
    "amenity":"post_office",
    "phone":"+381 23 846-700",
    "ref":"23252",
    "name:sr-Latn":"23252 Boka",
    "addr:pak":"368639",
    "addr:street":"Иве Лоле Рибара"},
   "geometry":
   {"type":"Point",
    "coordinates":[20.8284494865393, 45.3558250259714]}},
  {"type":"Feature",
   "properties":
   {"name:sr":"21466 Куцура",
    "opening_hours":"Mo-Fr 08:00-14:00; Sa 09:00-13:00; PH off",
    "addr:housenumber":"1Е",
    "name":"21466 Куцура",
    "desciption":
    "<b>Локација: <\/b>КУЦУРА<br\/><b>Назив:  <\/b>21466 КУЦУРА<br\/><b>Адреса: <\/b>ОСЛОБОЂЕЊА 1Е<br\/><b>ПАК: <\/b>398824<br\/><b>Радно време: <\/b>08.00-14.00<br\/>субота:09.00-13.00<br\/><b>Телефон:  <\/b>021\/727-002<br\/> <div id='accUsluge' class='panel-group akordion-posta' role='tablist' aria-multiselectable='true'>  <div class='panel' > <div id='spisakUsluga' class='panel-heading' role='tab'>  <p class='panel-title'>  <a href='#usluge' class='collapse-symbol collapsed' data-toggle='collapse'  role='button' aria-expanded='false' aria-controls='usluge'> <b>Услуге<\/b>  <\/a>  <\/p>  <\/div>  <div id='usluge' class='panel-collapse collapse' role='tabpanel' aria-labelledby='spisakUsluga'> ПРИЈЕМ ПОШИЉАКА<\/br>НОВЧАНО ПОСЛОВАЊЕ<\/br>ИСПОРУКА<\/br>ДОСТАВА<\/br>МЕЊАЧКИ ПОСЛОВИ<\/br>PAKET ZA ISPORUKU<\/br>ПРОДАЈА АКЦИЈА<\/br>WESTERN UNION<\/br> <\/div>  <\/div> <\/div>",
    "amenity":"post_office",
    "phone":"+381 21 727-002",
    "ref":"21466",
    "name:sr-Latn":"21466 Kucura",
    "addr:pak":"398824",
    "addr:street":"Ослобођења"},
   "geometry":
   {"type":"Point",
    "coordinates":[19.5842907876252, 45.5201665236698]}},
  {"type":"Feature",
   "properties":
   {"name:sr":"18412 Житорађа",
    "opening_hours":"Mo-Fr 07:30-14:00; Sa 07:30-12:00; PH off",
    "name":"18412 Житорађа",
    "desciption":
    "<b>Локација: <\/b>ЖИТОРАЂА<br\/><b>Назив:  <\/b>18412 ЖИТОРАЂА<br\/><b>Адреса: <\/b>ТОПЛИЧКИ ХЕРОЈИ 53Б<br\/><b>ПАК: <\/b>658101<br\/><b>Радно време: <\/b>07.30-14.00<br\/>субота:07.30-12.00<br\/><b>Телефон:  <\/b>027\/8362-120 027\/8362-130<br\/> <div id='accUsluge' class='panel-group akordion-posta' role='tablist' aria-multiselectable='true'>  <div class='panel' > <div id='spisakUsluga' class='panel-heading' role='tab'>  <p class='panel-title'>  <a href='#usluge' class='collapse-symbol collapsed' data-toggle='collapse'  role='button' aria-expanded='false' aria-controls='usluge'> <b>Услуге<\/b>  <\/a>  <\/p>  <\/div>  <div id='usluge' class='panel-collapse collapse' role='tabpanel' aria-labelledby='spisakUsluga'> ПРИЈЕМ ПОШИЉАКА<\/br>НОВЧАНО ПОСЛОВАЊЕ<\/br>ИСПОРУКА<\/br>ДОСТАВА<\/br>МЕЊАЧКИ ПОСЛОВИ<\/br>PAKET ZA ISPORUKU<\/br>ПРОДАЈА АКЦИЈА<\/br>WESTERN UNION<\/br> <\/div>  <\/div> <\/div>",
    "amenity":"post_office",
    "phone":"+381 27 8362-120;+381 27 8362-130",
    "ref":"18412",
    "name:sr-Latn":"18412 Žitorađa",
    "addr:pak":"658101"},
   "geometry":
   {"type":"Point",
    "coordinates":[21.7106860314834, 43.189098386391]}},
  {"type":"Feature",
   "properties":
   {"name:sr":"11505 Забрежје",
    "opening_hours":"Mo-Fr 08:00-14:00; Sa 08:00-12:00; PH off",
    "addr:housenumber":"1",
    "name":"11505 Забрежје",
    "desciption":
    "<b>Локација: <\/b>ЗАБРЕЖЈЕ<br\/><b>Назив:  <\/b>11505 ЗАБРЕЖЈЕ<br\/><b>Адреса: <\/b>САВСКА 1<br\/><b>ПАК: <\/b>213620<br\/><b>Радно време: <\/b>08.00-14.00<br\/>субота:08.00-12.00<br\/><b>Телефон:  <\/b>011\/8755-919<br\/> <div id='accUsluge' class='panel-group akordion-posta' role='tablist' aria-multiselectable='true'>  <div class='panel' > <div id='spisakUsluga' class='panel-heading' role='tab'>  <p class='panel-title'>  <a href='#usluge' class='collapse-symbol collapsed' data-toggle='collapse'  role='button' aria-expanded='false' aria-controls='usluge'> <b>Услуге<\/b>  <\/a>  <\/p>  <\/div>  <div id='usluge' class='panel-collapse collapse' role='tabpanel' aria-labelledby='spisakUsluga'> ПРИЈЕМ ПОШИЉАКА<\/br>НОВЧАНО ПОСЛОВАЊЕ<\/br> <\/div>  <\/div> <\/div>",
    "amenity":"post_office",
    "phone":"+381 11 8755-919",
    "ref":"11505",
    "name:sr-Latn":"11505 Zabrežje",
    "addr:pak":"213620",
    "addr:street":"Савска"},
   "geometry":
   {"type":"Point",
    "coordinates":[20.2023060189878, 44.6832427795698]}},
  {"type":"Feature",
   "properties":
   {"name:sr":"36206 Витановац",
    "opening_hours":"Mo-Fr 09:00-15:00; PH off",
    "name":"36206 Витановац",
    "desciption":
    "<b>Локација: <\/b>ВИТАНОВАЦ<br\/><b>Назив:  <\/b>36206 ВИТАНОВАЦ<br\/><b>Адреса: <\/b>ВИТАНОВАЦ ББ<br\/><b>ПАК: <\/b>566101<br\/><b>Радно време: <\/b>09.00-15.00<br\/><b>Телефон:  <\/b>036\/5871-112<br\/> <div id='accUsluge' class='panel-group akordion-posta' role='tablist' aria-multiselectable='true'>  <div class='panel' > <div id='spisakUsluga' class='panel-heading' role='tab'>  <p class='panel-title'>  <a href='#usluge' class='collapse-symbol collapsed' data-toggle='collapse'  role='button' aria-expanded='false' aria-controls='usluge'> <b>Услуге<\/b>  <\/a>  <\/p>  <\/div>  <div id='usluge' class='panel-collapse collapse' role='tabpanel' aria-labelledby='spisakUsluga'> ПРИЈЕМ ПОШИЉАКА<\/br>НОВЧАНО ПОСЛОВАЊЕ<\/br>ИСПОРУКА<\/br>ДОСТАВА<\/br>ПРОДАЈА АКЦИЈА<\/br>WESTERN UNION<\/br> <\/div>  <\/div> <\/div>",
    "amenity":"post_office",
    "phone":"+381 36 5871-112",
    "ref":"36206",
    "name:sr-Latn":"36206 Vitanovac",
    "addr:pak":"566101"},
   "geometry":
   {"type":"Point",
    "coordinates":[20.8017011812741, 43.7285700310925]}},
  {"type":"Feature",
   "properties":
   {"name:sr":"24114 Суботица",
    "opening_hours":"Mo-Fr 08:00-14:00; PH off",
    "addr:housenumber":"1",
    "name":"24114 Суботица",
    "desciption":
    "<b>Локација: <\/b>СУБОТИЦА<br\/><b>Назив:  <\/b>24114 СУБОТИЦА<br\/><b>Адреса: <\/b>СЕНЋАНСКИ ПУТ 1<br\/><b>ПАК: <\/b>450229<br\/><b>Радно време: <\/b>08.00-14.00<br\/><b>Телефон:  <\/b>024\/555-792<br\/> <div id='accUsluge' class='panel-group akordion-posta' role='tablist' aria-multiselectable='true'>  <div class='panel' > <div id='spisakUsluga' class='panel-heading' role='tab'>  <p class='panel-title'>  <a href='#usluge' class='collapse-symbol collapsed' data-toggle='collapse'  role='button' aria-expanded='false' aria-controls='usluge'> <b>Услуге<\/b>  <\/a>  <\/p>  <\/div>  <div id='usluge' class='panel-collapse collapse' role='tabpanel' aria-labelledby='spisakUsluga'> ПРИЈЕМ ПОШИЉАКА<\/br>НОВЧАНО ПОСЛОВАЊЕ<\/br>ИСПОРУКА<\/br>ИНТЕРНЕТ УСЛУГЕ<\/br>ПРОДАЈА АКЦИЈА<\/br>WESTERN UNION<\/br> <\/div>  <\/div> <\/div>",
    "amenity":"post_office",
    "phone":"+381 24 555-792",
    "ref":"24114",
    "name:sr-Latn":"24114 Subotica",
    "addr:pak":"450229",
    "addr:street":"Сенћански пут"},
   "geometry":
   {"type":"Point",
    "coordinates":[19.6726374927787, 46.0962117435474]}},
  {"type":"Feature",
   "properties":
   {"name:sr":"14253 Осечина",
    "opening_hours":"Mo-Sa 08:00-14:00; PH off",
    "addr:housenumber":"1",
    "name":"14253 Осечина",
    "desciption":
    "<b>Локација: <\/b>ОСЕЧИНА (ВАРОШИЦА)<br\/><b>Назив:  <\/b>14253 ОСЕЧИНА<br\/><b>Адреса: <\/b>БРАЋЕ НЕДИЋА 1<br\/><b>ПАК: <\/b>255106<br\/><b>Радно време: <\/b>08.00-14.00<br\/>субота:08.00-14.00<br\/><b>Телефон:  <\/b>014\/294-057 014\/451-020<br\/> <div id='accUsluge' class='panel-group akordion-posta' role='tablist' aria-multiselectable='true'>  <div class='panel' > <div id='spisakUsluga' class='panel-heading' role='tab'>  <p class='panel-title'>  <a href='#usluge' class='collapse-symbol collapsed' data-toggle='collapse'  role='button' aria-expanded='false' aria-controls='usluge'> <b>Услуге<\/b>  <\/a>  <\/p>  <\/div>  <div id='usluge' class='panel-collapse collapse' role='tabpanel' aria-labelledby='spisakUsluga'> ПРИЈЕМ ПОШИЉАКА<\/br>НОВЧАНО ПОСЛОВАЊЕ<\/br>ИСПОРУКА<\/br>ДОСТАВА<\/br>ИНТЕРНЕТ УСЛУГЕ<\/br>МЕЊАЧКИ ПОСЛОВИ<\/br>PAKET ZA ISPORUKU<\/br>ПРОДАЈА АКЦИЈА<\/br>WESTERN UNION<\/br> <\/div>  <\/div> <\/div>",
    "amenity":"post_office",
    "phone":"+381 14 294-057;+381 14 451-020",
    "ref":"14253",
    "name:sr-Latn":"14253 Osečina",
    "addr:pak":"255106",
    "addr:street":"Браће Недића"},
   "geometry":
   {"type":"Point",
    "coordinates":[19.6006187410831, 44.3730570481395]}},
  {"type":"Feature",
   "properties":
   {"name:sr":"19225 Сиколе",
    "opening_hours":"Mo,We,Fr 08:00-12:00; PH off",
    "addr:housenumber":"1",
    "name":"19225 Сиколе",
    "desciption":
    "<b>Локација: <\/b>СИКОЛЕ<br\/><b>Назив:  <\/b>19225 СИКОЛЕ<br\/><b>Адреса: <\/b>ВУКА КАРАЏИЋА 1<br\/><b>ПАК: <\/b>612904<br\/><b>Радно време: <\/b> пон.  08.00-12.00 сре.  08.00-12.00 пет.  08.00-12.00<br\/><b>Телефон:  <\/b>019\/475-822<br\/> <div id='accUsluge' class='panel-group akordion-posta' role='tablist' aria-multiselectable='true'>  <div class='panel' > <div id='spisakUsluga' class='panel-heading' role='tab'>  <p class='panel-title'>  <a href='#usluge' class='collapse-symbol collapsed' data-toggle='collapse'  role='button' aria-expanded='false' aria-controls='usluge'> <b>Услуге<\/b>  <\/a>  <\/p>  <\/div>  <div id='usluge' class='panel-collapse collapse' role='tabpanel' aria-labelledby='spisakUsluga'> ПРИЈЕМ ПОШИЉАКА<\/br>НОВЧАНО ПОСЛОВАЊЕ<\/br>ИСПОРУКА<\/br>ДОСТАВА<\/br>ПРОДАЈА АКЦИЈА<\/br> <\/div>  <\/div> <\/div>",
    "amenity":"post_office",
    "phone":"+381 19 475-822",
    "ref":"19225",
    "name:sr-Latn":"19225 Sikole",
    "addr:pak":"612904",
    "addr:street":"Вука Караџића"},
   "geometry":
   {"type":"Point",
    "coordinates":[22.3037525260331, 44.1758046033168]}},
  {"type":"Feature",
   "properties":
   {"name:sr":"35247 Плана",
    "opening_hours":"Mo-Fr 07:00-11:00; PH off",
    "addr:housenumber":"ББ",
    "name":"35247 Плана",
    "desciption":
    "<b>Локација: <\/b>ПЛАНА<br\/><b>Назив:  <\/b>35247 ПЛАНА<br\/><b>Адреса: <\/b>ИВЕ АНДРИЋА ББ<br\/><b>ПАК: <\/b>593113<br\/><b>Радно време: <\/b>07.00-11.00<br\/><b>Телефон:  <\/b>035\/532-400<br\/> <div id='accUsluge' class='panel-group akordion-posta' role='tablist' aria-multiselectable='true'>  <div class='panel' > <div id='spisakUsluga' class='panel-heading' role='tab'>  <p class='panel-title'>  <a href='#usluge' class='collapse-symbol collapsed' data-toggle='collapse'  role='button' aria-expanded='false' aria-controls='usluge'> <b>Услуге<\/b>  <\/a>  <\/p>  <\/div>  <div id='usluge' class='panel-collapse collapse' role='tabpanel' aria-labelledby='spisakUsluga'> ПРИЈЕМ ПОШИЉАКА<\/br>НОВЧАНО ПОСЛОВАЊЕ<\/br>ИСПОРУКА<\/br>ДОСТАВА<\/br> <\/div>  <\/div> <\/div>",
    "amenity":"post_office",
    "phone":"+381 35 532-400",
    "ref":"35247",
    "name:sr-Latn":"35247 Plana",
    "addr:pak":"593113",
    "addr:street":"Иве Андрића"},
   "geometry":
   {"type":"Point",
    "coordinates":[21.544870879492, 43.8208994722373]}},
  {"type":"Feature",
   "properties":
   {"name:sr":"18355 Темска",
    "opening_hours":"Mo-Fr 07:00-10:00; PH off",
    "name":"18355 Темска",
    "desciption":
    "<b>Локација: <\/b>ТЕМСКА<br\/><b>Назив:  <\/b>18355 ТЕМСКА<br\/><b>Адреса: <\/b>ТЕМСКА ББ<br\/><b>ПАК: <\/b>624301<br\/><b>Радно време: <\/b>07.00-10.00<br\/><b>Телефон:  <\/b>010\/371-117<br\/> <div id='accUsluge' class='panel-group akordion-posta' role='tablist' aria-multiselectable='true'>  <div class='panel' > <div id='spisakUsluga' class='panel-heading' role='tab'>  <p class='panel-title'>  <a href='#usluge' class='collapse-symbol collapsed' data-toggle='collapse'  role='button' aria-expanded='false' aria-controls='usluge'> <b>Услуге<\/b>  <\/a>  <\/p>  <\/div>  <div id='usluge' class='panel-collapse collapse' role='tabpanel' aria-labelledby='spisakUsluga'> ПРИЈЕМ ПОШИЉАКА<\/br>НОВЧАНО ПОСЛОВАЊЕ<\/br>ИСПОРУКА<\/br>ДОСТАВА<\/br>ПРОДАЈА АКЦИЈА<\/br>WESTERN UNION<\/br> <\/div>  <\/div> <\/div>",
    "amenity":"post_office",
    "phone":"+381 10 371-117",
    "ref":"18355",
    "name:sr-Latn":"18355 Temska",
    "addr:pak":"624301"},
   "geometry":
   {"type":"Point",
    "coordinates":[22.5429469504597, 43.2613747980157]}},
  {"type":"Feature",
   "properties":
   {"name:sr":"11305 Смедерево 5",
    "opening_hours":"Mo-Fr 08:00-15:00; Sa 08:00-13:00; PH off",
    "addr:housenumber":"14",
    "name":"11305 Смедерево 5",
    "desciption":
    "<b>Локација: <\/b>СМЕДЕРЕВО<br\/><b>Назив:  <\/b>11305 СМЕДЕРЕВО 5<br\/><b>Адреса: <\/b>КРАЉА ПЕТРА ПРВОГ 14<br\/><b>ПАК: <\/b>230123<br\/><b>Радно време: <\/b>08.00-15.00<br\/>субота:08.00-13.00<br\/><b>Телефон:  <\/b>026\/634-054<br\/> <div id='accUsluge' class='panel-group akordion-posta' role='tablist' aria-multiselectable='true'>  <div class='panel' > <div id='spisakUsluga' class='panel-heading' role='tab'>  <p class='panel-title'>  <a href='#usluge' class='collapse-symbol collapsed' data-toggle='collapse'  role='button' aria-expanded='false' aria-controls='usluge'> <b>Услуге<\/b>  <\/a>  <\/p>  <\/div>  <div id='usluge' class='panel-collapse collapse' role='tabpanel' aria-labelledby='spisakUsluga'> ПРИЈЕМ ПОШИЉАКА<\/br>НОВЧАНО ПОСЛОВАЊЕ<\/br>МЕЊАЧКИ ПОСЛОВИ<\/br>ПРОДАЈА АКЦИЈА<\/br>WESTERN UNION<\/br> <\/div>  <\/div> <\/div>",
    "amenity":"post_office",
    "phone":"+381 26 634-054",
    "ref":"11305",
    "name:sr-Latn":"11305 Smederevo 5",
    "addr:pak":"230123",
    "addr:street":"Краља Петра првог"},
   "geometry":
   {"type":"Point",
    "coordinates":[20.9236692662787, 44.6660564116166]}},
  {"type":"Feature",
   "properties":
   {"name:sr":"24400 Сента",
    "opening_hours":"Mo-Fr 07:00-19:00; Sa 07:00-13:00; PH off",
    "addr:housenumber":"2",
    "name":"24400 Сента",
    "desciption":
    "<b>Локација: <\/b>СЕНТА<br\/><b>Назив:  <\/b>24400 СЕНТА<br\/><b>Адреса: <\/b>ПОШТАНСКА 2<br\/><b>ПАК: <\/b>446692<br\/><b>Радно време: <\/b>07.00-19.00<br\/>субота:07.00-13.00<br\/><b>Телефон:  <\/b>024\/815-700 024\/815-701 024\/815-707<br\/> <div id='accUsluge' class='panel-group akordion-posta' role='tablist' aria-multiselectable='true'>  <div class='panel' > <div id='spisakUsluga' class='panel-heading' role='tab'>  <p class='panel-title'>  <a href='#usluge' class='collapse-symbol collapsed' data-toggle='collapse'  role='button' aria-expanded='false' aria-controls='usluge'> <b>Услуге<\/b>  <\/a>  <\/p>  <\/div>  <div id='usluge' class='panel-collapse collapse' role='tabpanel' aria-labelledby='spisakUsluga'> ПРИЈЕМ ПОШИЉАКА<\/br>НОВЧАНО ПОСЛОВАЊЕ<\/br>ИСПОРУКА<\/br>ДОСТАВА<\/br>ДОСТАВА ПОСТНЕТ УПУТНИЦА<\/br>ФИЛАТЕЛИЈА<\/br>ИНТЕРНЕТ УСЛУГЕ<\/br>КЕШ ЕКСПРЕС<\/br>МЕЊАЧКИ ПОСЛОВИ<\/br>PAKET ZA ISPORUKU<\/br>ПРОДАЈА АКЦИЈА<\/br>РЕСТИТУЦИЈА<\/br>WESTERN UNION<\/br> <\/div>  <\/div> <\/div>",
    "amenity":"post_office",
    "phone":"+381 24 815-700;+381 24 815-701;+381 24 815-707",
    "ref":"24400",
    "name:sr-Latn":"24400 Senta",
    "addr:pak":"446692",
    "addr:street":"Поштанска"},
   "geometry":
   {"type":"Point",
    "coordinates":[20.0884909116301, 45.9302500148784]}},
  {"type":"Feature",
   "properties":
   {"name:sr":"25220 Црвенка",
    "opening_hours":"Mo-Fr 07:00-19:00; Sa 08:00-12:00; PH off",
    "addr:housenumber":"125",
    "name":"25220 Црвенка",
    "desciption":
    "<b>Локација: <\/b>ЦРВЕНКА<br\/><b>Назив:  <\/b>25220 ЦРВЕНКА<br\/><b>Адреса: <\/b>МАРШАЛА ТИТА 125<br\/><b>ПАК: <\/b>438601<br\/><b>Радно време: <\/b>07.00-19.00<br\/>субота:08.00-12.00<br\/><b>Телефон:  <\/b>025\/465-162<br\/> <div id='accUsluge' class='panel-group akordion-posta' role='tablist' aria-multiselectable='true'>  <div class='panel' > <div id='spisakUsluga' class='panel-heading' role='tab'>  <p class='panel-title'>  <a href='#usluge' class='collapse-symbol collapsed' data-toggle='collapse'  role='button' aria-expanded='false' aria-controls='usluge'> <b>Услуге<\/b>  <\/a>  <\/p>  <\/div>  <div id='usluge' class='panel-collapse collapse' role='tabpanel' aria-labelledby='spisakUsluga'> ПРИЈЕМ ПОШИЉАКА<\/br>НОВЧАНО ПОСЛОВАЊЕ<\/br>ИСПОРУКА<\/br>ДОСТАВА<\/br>ДОСТАВА ПОСТНЕТ УПУТНИЦА<\/br>ФИЛАТЕЛИЈА<\/br>ИНТЕРНЕТ УСЛУГЕ<\/br>КЕШ ЕКСПРЕС<\/br>МЕЊАЧКИ ПОСЛОВИ<\/br>PAKET ZA ISPORUKU<\/br>ПРОДАЈА АКЦИЈА<\/br>WESTERN UNION<\/br> <\/div>  <\/div> <\/div>",
    "amenity":"post_office",
    "phone":"+381 25 465-162",
    "ref":"25220",
    "name:sr-Latn":"25220 Crvenka",
    "addr:pak":"438601",
    "addr:street":"Маршала Тита"},
   "geometry":
   {"type":"Point",
    "coordinates":[19.4541125537327, 45.6591036462177]}},
  {"type":"Feature",
   "properties":
   {"name:sr":"31108 Ужице",
    "opening_hours":"Mo-Fr 08:00-16:00; PH off",
    "addr:housenumber":"3",
    "name":"31108 Ужице",
    "desciption":
    "<b>Локација: <\/b>УЖИЦЕ<br\/><b>Назив:  <\/b>31108 УЖИЦЕ<br\/><b>Адреса: <\/b>УЖИЧКЕ РЕПУБЛИКЕ 3<br\/><b>ПАК: <\/b>501403<br\/><b>Радно време: <\/b>08.00-16.00<br\/><b>Телефон:  <\/b>031\/ 031\/522-964<br\/> <div id='accUsluge' class='panel-group akordion-posta' role='tablist' aria-multiselectable='true'>  <div class='panel' > <div id='spisakUsluga' class='panel-heading' role='tab'>  <p class='panel-title'>  <a href='#usluge' class='collapse-symbol collapsed' data-toggle='collapse'  role='button' aria-expanded='false' aria-controls='usluge'> <b>Услуге<\/b>  <\/a>  <\/p>  <\/div>  <div id='usluge' class='panel-collapse collapse' role='tabpanel' aria-labelledby='spisakUsluga'> ПРИЈЕМ ПОШИЉАКА<\/br>НОВЧАНО ПОСЛОВАЊЕ<\/br>ИСПОРУКА<\/br>ДОСТАВА<\/br>ДОСТАВА ПОСТНЕТ УПУТНИЦА<\/br>ИНТЕРНЕТ УСЛУГЕ<\/br>КЕШ ЕКСПРЕС<\/br>PAKET ZA ISPORUKU<\/br>ПРОДАЈА АКЦИЈА<\/br>WESTERN UNION<\/br> <\/div>  <\/div> <\/div>",
    "amenity":"post_office",
    "phone":"+381 31 ;+381 31 522-964",
    "ref":"31108",
    "name:sr-Latn":"31108 Užice",
    "addr:pak":"501403",
    "addr:street":"Ужичке Републике"},
   "geometry":
   {"type":"Point",
    "coordinates":[19.8344013908816, 43.856712469649]}},
  {"type":"Feature",
   "properties":
   {"name:sr":"19250 Мајданпек",
    "opening_hours":"Mo-Fr 07:00-19:00; Sa 08:00-13:00; PH off",
    "addr:housenumber":"44",
    "name":"19250 Мајданпек",
    "desciption":
    "<b>Локација: <\/b>МАЈДАНПЕК<br\/><b>Назив:  <\/b>19250 МАЈДАНПЕК<br\/><b>Адреса: <\/b>КАПЕТАНСКА 44<br\/><b>ПАК: <\/b>605002<br\/><b>Радно време: <\/b>07.00-19.00<br\/>субота:08.00-13.00<br\/><b>Телефон:  <\/b>030\/453-331 030\/581-643<br\/> <div id='accUsluge' class='panel-group akordion-posta' role='tablist' aria-multiselectable='true'>  <div class='panel' > <div id='spisakUsluga' class='panel-heading' role='tab'>  <p class='panel-title'>  <a href='#usluge' class='collapse-symbol collapsed' data-toggle='collapse'  role='button' aria-expanded='false' aria-controls='usluge'> <b>Услуге<\/b>  <\/a>  <\/p>  <\/div>  <div id='usluge' class='panel-collapse collapse' role='tabpanel' aria-labelledby='spisakUsluga'> ПРИЈЕМ ПОШИЉАКА<\/br>НОВЧАНО ПОСЛОВАЊЕ<\/br>ИСПОРУКА<\/br>ДОСТАВА<\/br>ДОСТАВА ПОСТНЕТ УПУТНИЦА<\/br>ФИЛАТЕЛИЈА<\/br>ИНТЕРНЕТ УСЛУГЕ<\/br>КЕШ ЕКСПРЕС<\/br>МЕЊАЧКИ ПОСЛОВИ<\/br>PAKET ZA ISPORUKU<\/br>ПРОДАЈА АКЦИЈА<\/br>РЕСТИТУЦИЈА<\/br>WESTERN UNION<\/br> <\/div>  <\/div> <\/div>",
    "amenity":"post_office",
    "phone":"+381 30 453-331;+381 30 581-643",
    "ref":"19250",
    "name:sr-Latn":"19250 Majdanpek",
    "addr:pak":"605002",
    "addr:street":"Капетанска"},
   "geometry":
   {"type":"Point",
    "coordinates":[21.9408926231976, 44.4250114694462]}},
  {"type":"Feature",
   "properties":
   {"name:sr":"35256 Сикирица",
    "opening_hours":"Mo-Fr 08:00-11:00; PH off",
    "addr:housenumber":"ББ",
    "name":"35256 Сикирица",
    "desciption":
    "<b>Локација: <\/b>СИКИРИЦА<br\/><b>Назив:  <\/b>35256 СИКИРИЦА<br\/><b>Адреса: <\/b>БРАНКА КРСМАНОВИЋА ББ<br\/><b>ПАК: <\/b>592602<br\/><b>Радно време: <\/b>08.00-11.00<br\/><b>Телефон:  <\/b>035\/8548-500<br\/> <div id='accUsluge' class='panel-group akordion-posta' role='tablist' aria-multiselectable='true'>  <div class='panel' > <div id='spisakUsluga' class='panel-heading' role='tab'>  <p class='panel-title'>  <a href='#usluge' class='collapse-symbol collapsed' data-toggle='collapse'  role='button' aria-expanded='false' aria-controls='usluge'> <b>Услуге<\/b>  <\/a>  <\/p>  <\/div>  <div id='usluge' class='panel-collapse collapse' role='tabpanel' aria-labelledby='spisakUsluga'> ПРИЈЕМ ПОШИЉАКА<\/br>НОВЧАНО ПОСЛОВАЊЕ<\/br>ИСПОРУКА<\/br>ДОСТАВА<\/br> <\/div>  <\/div> <\/div>",
    "amenity":"post_office",
    "phone":"+381 35 8548-500",
    "ref":"35256",
    "name:sr-Latn":"35256 Sikirica",
    "addr:pak":"592602",
    "addr:street":"Бранка Крсмановића"},
   "geometry":
   {"type":"Point",
    "coordinates":[21.4142089456463, 43.7803882303319]}},
  {"type":"Feature",
   "properties":
   {"name:sr":"11212 Овча",
    "opening_hours":"Mo-Fr 08:00-14:00; PH off",
    "addr:housenumber":"78А",
    "name":"11212 Овча",
    "desciption":
    "<b>Локација: <\/b>ОВЧА<br\/><b>Назив:  <\/b>11212 ОВЧА<br\/><b>Адреса: <\/b>МИХАЈА ЕМИНЕСКУА 78А<br\/><b>ПАК: <\/b>131810<br\/><b>Радно време: <\/b>08.00-14.00<br\/><b>Телефон:  <\/b>011\/3319-988<br\/> <div id='accUsluge' class='panel-group akordion-posta' role='tablist' aria-multiselectable='true'>  <div class='panel' > <div id='spisakUsluga' class='panel-heading' role='tab'>  <p class='panel-title'>  <a href='#usluge' class='collapse-symbol collapsed' data-toggle='collapse'  role='button' aria-expanded='false' aria-controls='usluge'> <b>Услуге<\/b>  <\/a>  <\/p>  <\/div>  <div id='usluge' class='panel-collapse collapse' role='tabpanel' aria-labelledby='spisakUsluga'> ПРИЈЕМ ПОШИЉАКА<\/br>НОВЧАНО ПОСЛОВАЊЕ<\/br>ИСПОРУКА<\/br>ДОСТАВА<\/br>МЕЊАЧКИ ПОСЛОВИ<\/br>PAKET ZA ISPORUKU<\/br>ПРОДАЈА АКЦИЈА<\/br>WESTERN UNION<\/br> <\/div>  <\/div> <\/div>",
    "amenity":"post_office",
    "phone":"+381 11 3319-988",
    "ref":"11212",
    "name:sr-Latn":"11212 Ovča",
    "addr:pak":"131810",
    "addr:street":"Михаја Еминескуа"},
   "geometry":
   {"type":"Point",
    "coordinates":[20.5366498550798, 44.8880397823303]}},
  {"type":"Feature",
   "properties":
   {"name:sr":"22414 Суботиште",
    "opening_hours":"Tu,Th 07:00-10:30; PH off",
    "addr:housenumber":"28",
    "name":"22414 Суботиште",
    "desciption":
    "<b>Локација: <\/b>СУБОТИШТЕ<br\/><b>Назив:  <\/b>22414 СУБОТИШТЕ<br\/><b>Адреса: <\/b>КАМЕНОВА 28<br\/><b>ПАК: <\/b>338307<br\/><b>Радно време: <\/b> уто. 07.00-10.30 чет.  07.00-10.30<br\/><b>Телефон:  <\/b>022\/482-511<br\/> <div id='accUsluge' class='panel-group akordion-posta' role='tablist' aria-multiselectable='true'>  <div class='panel' > <div id='spisakUsluga' class='panel-heading' role='tab'>  <p class='panel-title'>  <a href='#usluge' class='collapse-symbol collapsed' data-toggle='collapse'  role='button' aria-expanded='false' aria-controls='usluge'> <b>Услуге<\/b>  <\/a>  <\/p>  <\/div>  <div id='usluge' class='panel-collapse collapse' role='tabpanel' aria-labelledby='spisakUsluga'> ПРИЈЕМ ПОШИЉАКА<\/br>НОВЧАНО ПОСЛОВАЊЕ<\/br>ИСПОРУКА<\/br>ДОСТАВА<\/br>ПРОДАЈА АКЦИЈА<\/br>WESTERN UNION<\/br> <\/div>  <\/div> <\/div>",
    "amenity":"post_office",
    "phone":"+381 22 482-511",
    "ref":"22414",
    "name:sr-Latn":"22414 Subotište",
    "addr:pak":"338307",
    "addr:street":"Каменова"},
   "geometry":
   {"type":"Point",
    "coordinates":[19.9608454088732, 44.8447354910519]}},
  {"type":"Feature",
   "properties":
   {"name:sr":"12258 Клење",
    "opening_hours":"Mo-Fr 07:00-12:00; PH off",
    "name":"12258 Клење",
    "desciption":
    "<b>Локација: <\/b>КЛЕЊЕ<br\/><b>Назив:  <\/b>12258 КЛЕЊЕ<br\/><b>Адреса: <\/b>КЛЕЊЕ ББ<br\/><b>ПАК: <\/b>298601<br\/><b>Радно време: <\/b>07.00-12.00<br\/><b>Телефон:  <\/b>012\/887180<br\/> <div id='accUsluge' class='panel-group akordion-posta' role='tablist' aria-multiselectable='true'>  <div class='panel' > <div id='spisakUsluga' class='panel-heading' role='tab'>  <p class='panel-title'>  <a href='#usluge' class='collapse-symbol collapsed' data-toggle='collapse'  role='button' aria-expanded='false' aria-controls='usluge'> <b>Услуге<\/b>  <\/a>  <\/p>  <\/div>  <div id='usluge' class='panel-collapse collapse' role='tabpanel' aria-labelledby='spisakUsluga'> ПРИЈЕМ ПОШИЉАКА<\/br>НОВЧАНО ПОСЛОВАЊЕ<\/br>ИСПОРУКА<\/br>ДОСТАВА<\/br>ИНТЕРНЕТ УСЛУГЕ<\/br> <\/div>  <\/div> <\/div>",
    "amenity":"post_office",
    "phone":"+381 12 887180",
    "ref":"12258",
    "name:sr-Latn":"12258 Klenje",
    "addr:pak":"298601"},
   "geometry":
   {"type":"Point",
    "coordinates":[21.5300632865682, 44.6012837535058]}},
  {"type":"Feature",
   "properties":
   {"name:sr":"26333 Павлиш",
    "opening_hours":"Mo-Fr 07:00-14:00; PH off",
    "addr:housenumber":"85",
    "name":"26333 Павлиш",
    "desciption":
    "<b>Локација: <\/b>ПАВЛИШ<br\/><b>Назив:  <\/b>26333 ПАВЛИШ<br\/><b>Адреса: <\/b>ЖАРКА ЗРЕЊАНИНА 85<br\/><b>ПАК: <\/b>312108<br\/><b>Радно време: <\/b>07.00-14.00<br\/><b>Телефон:  <\/b>013\/2891-146<br\/> <div id='accUsluge' class='panel-group akordion-posta' role='tablist' aria-multiselectable='true'>  <div class='panel' > <div id='spisakUsluga' class='panel-heading' role='tab'>  <p class='panel-title'>  <a href='#usluge' class='collapse-symbol collapsed' data-toggle='collapse'  role='button' aria-expanded='false' aria-controls='usluge'> <b>Услуге<\/b>  <\/a>  <\/p>  <\/div>  <div id='usluge' class='panel-collapse collapse' role='tabpanel' aria-labelledby='spisakUsluga'> ПРИЈЕМ ПОШИЉАКА<\/br>НОВЧАНО ПОСЛОВАЊЕ<\/br>ИСПОРУКА<\/br>ДОСТАВА<\/br>ИНТЕРНЕТ УСЛУГЕ<\/br>ПРОДАЈА АКЦИЈА<\/br>WESTERN UNION<\/br> <\/div>  <\/div> <\/div>",
    "amenity":"post_office",
    "phone":"+381 13 2891-146",
    "ref":"26333",
    "name:sr-Latn":"26333 Pavliš",
    "addr:pak":"312108",
    "addr:street":"Жарка Зрењанина"},
   "geometry":
   {"type":"Point",
    "coordinates":[21.2389089810076, 45.1052628628646]}},
  {"type":"Feature",
   "properties":
   {"name:sr":"15312 Завлака",
    "opening_hours":"Mo-Sa 08:00-14:00; PH off",
    "name":"15312 Завлака",
    "desciption":
    "<b>Локација: <\/b>ЗАВЛАКА<br\/><b>Назив:  <\/b>15312 ЗАВЛАКА<br\/><b>Адреса: <\/b>ЗАВЛАКА ВАРОШИЦА ББ<br\/><b>ПАК: <\/b>265019<br\/><b>Радно време: <\/b>08.00-14.00<br\/>субота:08.00-14.00<br\/><b>Телефон:  <\/b>015\/592-011<br\/> <div id='accUsluge' class='panel-group akordion-posta' role='tablist' aria-multiselectable='true'>  <div class='panel' > <div id='spisakUsluga' class='panel-heading' role='tab'>  <p class='panel-title'>  <a href='#usluge' class='collapse-symbol collapsed' data-toggle='collapse'  role='button' aria-expanded='false' aria-controls='usluge'> <b>Услуге<\/b>  <\/a>  <\/p>  <\/div>  <div id='usluge' class='panel-collapse collapse' role='tabpanel' aria-labelledby='spisakUsluga'> ПРИЈЕМ ПОШИЉАКА<\/br>НОВЧАНО ПОСЛОВАЊЕ<\/br>ИСПОРУКА<\/br>ДОСТАВА<\/br>PAKET ZA ISPORUKU<\/br>ПРОДАЈА АКЦИЈА<\/br>WESTERN UNION<\/br> <\/div>  <\/div> <\/div>",
    "amenity":"post_office",
    "phone":"+381 15 592-011",
    "ref":"15312",
    "name:sr-Latn":"15312 Zavlaka",
    "addr:pak":"265019"},
   "geometry":
   {"type":"Point",
    "coordinates":[19.4840452052131, 44.4549622023404]}},
  {"type":"Feature",
   "properties":
   {"name:sr":"22322 Нови Карловци",
    "opening_hours":"Mo-Fr 07:00-14:00; PH off",
    "addr:housenumber":"24",
    "name":"22322 Нови Карловци",
    "desciption":
    "<b>Локација: <\/b>НОВИ КАРЛОВЦИ<br\/><b>Назив:  <\/b>22322 НОВИ КАРЛОВЦИ<br\/><b>Адреса: <\/b>ГЛАВНА 24<br\/><b>ПАК: <\/b>348366<br\/><b>Радно време: <\/b>07.00-14.00<br\/><b>Телефон:  <\/b>022\/584-411<br\/> <div id='accUsluge' class='panel-group akordion-posta' role='tablist' aria-multiselectable='true'>  <div class='panel' > <div id='spisakUsluga' class='panel-heading' role='tab'>  <p class='panel-title'>  <a href='#usluge' class='collapse-symbol collapsed' data-toggle='collapse'  role='button' aria-expanded='false' aria-controls='usluge'> <b>Услуге<\/b>  <\/a>  <\/p>  <\/div>  <div id='usluge' class='panel-collapse collapse' role='tabpanel' aria-labelledby='spisakUsluga'> ПРИЈЕМ ПОШИЉАКА<\/br>НОВЧАНО ПОСЛОВАЊЕ<\/br>ИСПОРУКА<\/br>ДОСТАВА<\/br>МЕЊАЧКИ ПОСЛОВИ<\/br>PAKET ZA ISPORUKU<\/br>ПРОДАЈА АКЦИЈА<\/br>WESTERN UNION<\/br> <\/div>  <\/div> <\/div>",
    "amenity":"post_office",
    "phone":"+381 22 584-411",
    "ref":"22322",
    "name:sr-Latn":"22322 Novi Karlovci",
    "addr:pak":"348366",
    "addr:street":"Главна"},
   "geometry":
   {"type":"Point",
    "coordinates":[20.1780792342244, 45.0789372461826]}},
  {"type":"Feature",
   "properties":
   {"name:sr":"26234 Банатски Брестовац",
    "opening_hours":"Mo-Fr 07:00-14:00; PH off",
    "addr:housenumber":"7",
    "name":"26234 Банатски Брестовац",
    "desciption":
    "<b>Локација: <\/b>БАНАТСКИ БРЕСТОВАЦ<br\/><b>Назив:  <\/b>26234 БАНАТСКИ БРЕСТОВАЦ<br\/><b>Адреса: <\/b>МАРШАЛА ТИТА 7<br\/><b>ПАК: <\/b>307618<br\/><b>Радно време: <\/b>07.00-14.00<br\/><b>Телефон:  <\/b>013\/626-095<br\/> <div id='accUsluge' class='panel-group akordion-posta' role='tablist' aria-multiselectable='true'>  <div class='panel' > <div id='spisakUsluga' class='panel-heading' role='tab'>  <p class='panel-title'>  <a href='#usluge' class='collapse-symbol collapsed' data-toggle='collapse'  role='button' aria-expanded='false' aria-controls='usluge'> <b>Услуге<\/b>  <\/a>  <\/p>  <\/div>  <div id='usluge' class='panel-collapse collapse' role='tabpanel' aria-labelledby='spisakUsluga'> ПРИЈЕМ ПОШИЉАКА<\/br>НОВЧАНО ПОСЛОВАЊЕ<\/br>ИСПОРУКА<\/br>ДОСТАВА<\/br>PAKET ZA ISPORUKU<\/br>ПРОДАЈА АКЦИЈА<\/br>WESTERN UNION<\/br> <\/div>  <\/div> <\/div>",
    "amenity":"post_office",
    "phone":"+381 13 626-095",
    "ref":"26234",
    "name:sr-Latn":"26234 Banatski Brestovac",
    "addr:pak":"307618",
    "addr:street":"Маршала Тита"},
   "geometry":
   {"type":"Point",
    "coordinates":[20.8096839304948, 44.7280688652496]}},
  {"type":"Feature",
   "properties":
   {"name:sr":"12315 Рашанац",
    "opening_hours":"Mo-Fr 08:00-14:00; PH off",
    "addr:housenumber":"ББ",
    "name":"12315 Рашанац",
    "desciption":
    "<b>Локација: <\/b>РАШАНАЦ<br\/><b>Назив:  <\/b>12315 РАШАНАЦ<br\/><b>Адреса: <\/b>ПОЖАРЕВАЧКА ББ<br\/><b>ПАК: <\/b>283316<br\/><b>Радно време: <\/b>08.00-14.00<br\/><b>Телефон:  <\/b>012\/340232<br\/> <div id='accUsluge' class='panel-group akordion-posta' role='tablist' aria-multiselectable='true'>  <div class='panel' > <div id='spisakUsluga' class='panel-heading' role='tab'>  <p class='panel-title'>  <a href='#usluge' class='collapse-symbol collapsed' data-toggle='collapse'  role='button' aria-expanded='false' aria-controls='usluge'> <b>Услуге<\/b>  <\/a>  <\/p>  <\/div>  <div id='usluge' class='panel-collapse collapse' role='tabpanel' aria-labelledby='spisakUsluga'> ПРИЈЕМ ПОШИЉАКА<\/br>НОВЧАНО ПОСЛОВАЊЕ<\/br>ИСПОРУКА<\/br>ДОСТАВА<\/br>ИНТЕРНЕТ УСЛУГЕ<\/br>МЕЊАЧКИ ПОСЛОВИ<\/br>ПРОДАЈА АКЦИЈА<\/br>WESTERN UNION<\/br> <\/div>  <\/div> <\/div>",
    "amenity":"post_office",
    "phone":"+381 12 340232",
    "ref":"12315",
    "name:sr-Latn":"12315 Rašanac",
    "addr:pak":"283316",
    "addr:street":"Пожаревачка"},
   "geometry":
   {"type":"Point",
    "coordinates":[21.3394997357285, 44.4552366587161]}},
  {"type":"Feature",
   "properties":
   {"name:sr":"31258 Бачевци",
    "opening_hours":"Mo-Fr 08:00-11:00; PH off",
    "name":"31258 Бачевци",
    "desciption":
    "<b>Локација: <\/b>БАЧЕВЦИ<br\/><b>Назив:  <\/b>31258 БАЧЕВЦИ<br\/><b>Адреса: <\/b>БАЧЕВЦИ ББ<br\/><b>ПАК: <\/b>507920<br\/><b>Радно време: <\/b>08.00-11.00<br\/><b>Телефон:  <\/b>031\/856-720<br\/> <div id='accUsluge' class='panel-group akordion-posta' role='tablist' aria-multiselectable='true'>  <div class='panel' > <div id='spisakUsluga' class='panel-heading' role='tab'>  <p class='panel-title'>  <a href='#usluge' class='collapse-symbol collapsed' data-toggle='collapse'  role='button' aria-expanded='false' aria-controls='usluge'> <b>Услуге<\/b>  <\/a>  <\/p>  <\/div>  <div id='usluge' class='panel-collapse collapse' role='tabpanel' aria-labelledby='spisakUsluga'> ПРИЈЕМ ПОШИЉАКА<\/br>НОВЧАНО ПОСЛОВАЊЕ<\/br>ИСПОРУКА<\/br>ДОСТАВА<\/br>ДОСТАВА ПОСТНЕТ УПУТНИЦА<\/br>ИНТЕРНЕТ УСЛУГЕ<\/br>ПРОДАЈА АКЦИЈА<\/br> <\/div>  <\/div> <\/div>",
    "amenity":"post_office",
    "phone":"+381 31 856-720",
    "ref":"31258",
    "name:sr-Latn":"31258 Bačevci",
    "addr:pak":"507920"},
   "geometry":
   {"type":"Point",
    "coordinates":[19.5092820322766, 44.0890276454281]}},
  {"type":"Feature",
   "properties":
   {"name:sr":"22428 Попинци",
    "opening_hours":"Mo-Fr 07:00-10:30; PH off",
    "addr:housenumber":"4",
    "name":"22428 Попинци",
    "desciption":
    "<b>Локација: <\/b>ПОПИНЦИ<br\/><b>Назив:  <\/b>22428 ПОПИНЦИ<br\/><b>Адреса: <\/b>ЈНА 4<br\/><b>ПАК: <\/b>338107<br\/><b>Радно време: <\/b>07.00-10.30<br\/><b>Телефон:  <\/b>022\/484-512<br\/> <div id='accUsluge' class='panel-group akordion-posta' role='tablist' aria-multiselectable='true'>  <div class='panel' > <div id='spisakUsluga' class='panel-heading' role='tab'>  <p class='panel-title'>  <a href='#usluge' class='collapse-symbol collapsed' data-toggle='collapse'  role='button' aria-expanded='false' aria-controls='usluge'> <b>Услуге<\/b>  <\/a>  <\/p>  <\/div>  <div id='usluge' class='panel-collapse collapse' role='tabpanel' aria-labelledby='spisakUsluga'> ПРИЈЕМ ПОШИЉАКА<\/br>НОВЧАНО ПОСЛОВАЊЕ<\/br>ИСПОРУКА<\/br>ДОСТАВА<\/br>ПРОДАЈА АКЦИЈА<\/br>WESTERN UNION<\/br> <\/div>  <\/div> <\/div>",
    "amenity":"post_office",
    "phone":"+381 22 484-512",
    "ref":"22428",
    "name:sr-Latn":"22428 Popinci",
    "addr:pak":"338107",
    "addr:street":"ЈНА"},
   "geometry":
   {"type":"Point",
    "coordinates":[20.0059900676309, 44.9279898938793]}},
  {"type":"Feature",
   "properties":
   {"name:sr":"11509 Скела",
    "opening_hours":"Mo-Fr 08:00-14:00; PH off",
    "name":"11509 Скела",
    "desciption":
    "<b>Локација: <\/b>СКЕЛА<br\/><b>Назив:  <\/b>11509 СКЕЛА<br\/><b>Адреса: <\/b>СТАНИСЛАВА ЈОВАНОВИЋА 2<br\/><b>ПАК: <\/b>212925<br\/><b>Радно време: <\/b>08.00-14.00<br\/><b>Телефон:  <\/b>011\/8770-218<br\/> <div id='accUsluge' class='panel-group akordion-posta' role='tablist' aria-multiselectable='true'>  <div class='panel' > <div id='spisakUsluga' class='panel-heading' role='tab'>  <p class='panel-title'>  <a href='#usluge' class='collapse-symbol collapsed' data-toggle='collapse'  role='button' aria-expanded='false' aria-controls='usluge'> <b>Услуге<\/b>  <\/a>  <\/p>  <\/div>  <div id='usluge' class='panel-collapse collapse' role='tabpanel' aria-labelledby='spisakUsluga'> ПРИЈЕМ ПОШИЉАКА<\/br>НОВЧАНО ПОСЛОВАЊЕ<\/br>ИСПОРУКА<\/br>ДОСТАВА<\/br>PAKET ZA ISPORUKU<\/br>ПРОДАЈА АКЦИЈА<\/br>WESTERN UNION<\/br> <\/div>  <\/div> <\/div>",
    "amenity":"post_office",
    "phone":"+381 11 8770-218",
    "ref":"11509",
    "name:sr-Latn":"11509 Skela",
    "addr:pak":"212925"},
   "geometry":
   {"type":"Point",
    "coordinates":[20.0533392015722, 44.6806062780686]}},
  {"type":"Feature",
   "properties":
   {"name:sr":"11271 Сурчин",
    "opening_hours":"Mo-Fr 08:00-19:00; Sa 08:00-14:00; PH off",
    "addr:housenumber":"73",
    "name":"11271 Сурчин",
    "desciption":
    "<b>Локација: <\/b>СУРЧИН<br\/><b>Назив:  <\/b>11271 СУРЧИН<br\/><b>Адреса: <\/b>ВОЈВОЂАНСКА 73<br\/><b>ПАК: <\/b>201802<br\/><b>Радно време: <\/b>08.00-19.00<br\/>субота:08.00-14.00<br\/><b>Телефон:  <\/b>011\/3718-005 011\/8440-389<br\/> <div id='accUsluge' class='panel-group akordion-posta' role='tablist' aria-multiselectable='true'>  <div class='panel' > <div id='spisakUsluga' class='panel-heading' role='tab'>  <p class='panel-title'>  <a href='#usluge' class='collapse-symbol collapsed' data-toggle='collapse'  role='button' aria-expanded='false' aria-controls='usluge'> <b>Услуге<\/b>  <\/a>  <\/p>  <\/div>  <div id='usluge' class='panel-collapse collapse' role='tabpanel' aria-labelledby='spisakUsluga'> ПРИЈЕМ ПОШИЉАКА<\/br>НОВЧАНО ПОСЛОВАЊЕ<\/br>ИСПОРУКА<\/br>ДОСТАВА<\/br>ДОСТАВА ПОСТНЕТ УПУТНИЦА<\/br>КЕШ ЕКСПРЕС<\/br>МАЛИ ОГЛАСИ<\/br>МЕЊАЧКИ ПОСЛОВИ<\/br>PAKET ZA ISPORUKU<\/br>ПРОДАЈА АКЦИЈА<\/br>РЕСТИТУЦИЈА<\/br>WESTERN UNION<\/br> <\/div>  <\/div> <\/div>",
    "amenity":"post_office",
    "phone":"+381 11 3718-005;+381 11 8440-389",
    "ref":"11271",
    "name:sr-Latn":"11271 Surčin",
    "addr:pak":"201802",
    "addr:street":"Војвођанска"},
   "geometry":
   {"type":"Point",
    "coordinates":[20.2690576314932, 44.7910656149513]}},
  {"type":"Feature",
   "properties":
   {"name:sr":"11224 Врчин",
    "opening_hours":"Mo-Fr 08:00-18:00; Sa 08:00-14:00; PH off",
    "addr:housenumber":"2",
    "name":"11224 Врчин",
    "desciption":
    "<b>Локација: <\/b>ВРЧИН<br\/><b>Назив:  <\/b>11224 ВРЧИН<br\/><b>Адреса: <\/b>САВЕ КОВАЧЕВИЋА 2<br\/><b>ПАК: <\/b>158311<br\/><b>Радно време: <\/b>08.00-18.00<br\/>субота:08.00-14.00<br\/><b>Телефон:  <\/b>011\/8054-363<br\/> <div id='accUsluge' class='panel-group akordion-posta' role='tablist' aria-multiselectable='true'>  <div class='panel' > <div id='spisakUsluga' class='panel-heading' role='tab'>  <p class='panel-title'>  <a href='#usluge' class='collapse-symbol collapsed' data-toggle='collapse'  role='button' aria-expanded='false' aria-controls='usluge'> <b>Услуге<\/b>  <\/a>  <\/p>  <\/div>  <div id='usluge' class='panel-collapse collapse' role='tabpanel' aria-labelledby='spisakUsluga'> ПРИЈЕМ ПОШИЉАКА<\/br>НОВЧАНО ПОСЛОВАЊЕ<\/br>ИСПОРУКА<\/br>ДОСТАВА<\/br>ИНТЕРНЕТ УСЛУГЕ<\/br>МЕЊАЧКИ ПОСЛОВИ<\/br>PAKET ZA ISPORUKU<\/br>ПРОДАЈА АКЦИЈА<\/br>WESTERN UNION<\/br> <\/div>  <\/div> <\/div>",
    "amenity":"post_office",
    "phone":"+381 11 8054-363",
    "ref":"11224",
    "name:sr-Latn":"11224 Vrčin",
    "addr:pak":"158311",
    "addr:street":"Саве Ковачевића"},
   "geometry":
   {"type":"Point",
    "coordinates":[20.5920662535468, 44.6628833194222]}},
  {"type":"Feature",
   "properties":
   {"name:sr":"31337 БАЊА КОД ПрибојА",
    "opening_hours":"Mo-Fr 08:00-15:00; PH off",
    "name":"31337 БАЊА КОД ПрибојА",
    "desciption":
    "<b>Локација: <\/b>БАЊА<br\/><b>Назив:  <\/b>31337 БАЊА КОД ПРИБОЈА<br\/><b>Адреса: <\/b>БАЊА ББ<br\/><b>ПАК: <\/b>515610<br\/><b>Радно време: <\/b>08.00-15.00<br\/><b>Телефон:  <\/b>033\/2448-896<br\/> <div id='accUsluge' class='panel-group akordion-posta' role='tablist' aria-multiselectable='true'>  <div class='panel' > <div id='spisakUsluga' class='panel-heading' role='tab'>  <p class='panel-title'>  <a href='#usluge' class='collapse-symbol collapsed' data-toggle='collapse'  role='button' aria-expanded='false' aria-controls='usluge'> <b>Услуге<\/b>  <\/a>  <\/p>  <\/div>  <div id='usluge' class='panel-collapse collapse' role='tabpanel' aria-labelledby='spisakUsluga'> ПРИЈЕМ ПОШИЉАКА<\/br>НОВЧАНО ПОСЛОВАЊЕ<\/br>ИСПОРУКА<\/br>ДОСТАВА<\/br>ИНТЕРНЕТ УСЛУГЕ<\/br>ПРОДАЈА АКЦИЈА<\/br>WESTERN UNION<\/br> <\/div>  <\/div> <\/div>",
    "amenity":"post_office",
    "phone":"+381 33 2448-896",
    "ref":"31337",
    "name:sr-Latn":"31337 BANjA KOD PribojA",
    "addr:pak":"515610"},
   "geometry":
   {"type":"Point",
    "coordinates":[19.5599313175855, 43.5458187836721]}},
  {"type":"Feature",
   "properties":
   {"name:sr":"11408 Велика Крсна",
    "opening_hours":"Mo-Fr 07:00-14:00; PH off",
    "name":"11408 Велика Крсна",
    "desciption":
    "<b>Локација: <\/b>ВЕЛИКА КРСНА<br\/><b>Назив:  <\/b>11408 ВЕЛИКА КРСНА<br\/><b>Адреса: <\/b>ЦЕНТРАЛНА 1<br\/><b>ПАК: <\/b>222605<br\/><b>Радно време: <\/b>07.00-14.00<br\/><b>Телефон:  <\/b>011\/8215-090<br\/> <div id='accUsluge' class='panel-group akordion-posta' role='tablist' aria-multiselectable='true'>  <div class='panel' > <div id='spisakUsluga' class='panel-heading' role='tab'>  <p class='panel-title'>  <a href='#usluge' class='collapse-symbol collapsed' data-toggle='collapse'  role='button' aria-expanded='false' aria-controls='usluge'> <b>Услуге<\/b>  <\/a>  <\/p>  <\/div>  <div id='usluge' class='panel-collapse collapse' role='tabpanel' aria-labelledby='spisakUsluga'> ПРИЈЕМ ПОШИЉАКА<\/br>НОВЧАНО ПОСЛОВАЊЕ<\/br>ИСПОРУКА<\/br>ДОСТАВА<\/br>ПРОДАЈА АКЦИЈА<\/br>WESTERN UNION<\/br> <\/div>  <\/div> <\/div>",
    "amenity":"post_office",
    "phone":"+381 11 8215-090",
    "ref":"11408",
    "name:sr-Latn":"11408 Velika Krsna",
    "addr:pak":"222605"},
   "geometry":
   {"type":"Point",
    "coordinates":[20.8014521011177, 44.4782159529166]}},
  {"type":"Feature",
   "properties":
   {"name:sr":"22304 Нови Бановци",
    "opening_hours":"Mo-Fr 07:00-14:00; PH off",
    "addr:housenumber":"91",
    "name":"22304 Нови Бановци",
    "desciption":
    "<b>Локација: <\/b>НОВИ БАНОВЦИ<br\/><b>Назив:  <\/b>22304 НОВИ БАНОВЦИ<br\/><b>Адреса: <\/b>СВЕТОСАВСКА 91<br\/><b>ПАК: <\/b>342339<br\/><b>Радно време: <\/b>07.00-14.00<br\/><b>Телефон:  <\/b>022\/341-310<br\/> <div id='accUsluge' class='panel-group akordion-posta' role='tablist' aria-multiselectable='true'>  <div class='panel' > <div id='spisakUsluga' class='panel-heading' role='tab'>  <p class='panel-title'>  <a href='#usluge' class='collapse-symbol collapsed' data-toggle='collapse'  role='button' aria-expanded='false' aria-controls='usluge'> <b>Услуге<\/b>  <\/a>  <\/p>  <\/div>  <div id='usluge' class='panel-collapse collapse' role='tabpanel' aria-labelledby='spisakUsluga'> ПРИЈЕМ ПОШИЉАКА<\/br>НОВЧАНО ПОСЛОВАЊЕ<\/br>МЕЊАЧКИ ПОСЛОВИ<\/br>ПРОДАЈА АКЦИЈА<\/br>WESTERN UNION<\/br> <\/div>  <\/div> <\/div>",
    "amenity":"post_office",
    "phone":"+381 22 341-310",
    "ref":"22304",
    "name:sr-Latn":"22304 Novi Banovci",
    "addr:pak":"342339",
    "addr:street":"Светосавска"},
   "geometry":
   {"type":"Point",
    "coordinates":[20.280967165943, 44.9563932139591]}},
  {"type":"Feature",
   "properties":
   {"name:sr":"18225 Катун",
    "opening_hours":"Mo-Fr 07:30-11:00; PH off",
    "name":"18225 Катун",
    "desciption":
    "<b>Локација: <\/b>КАТУН<br\/><b>Назив:  <\/b>18225 КАТУН<br\/><b>Адреса: <\/b>КАТУН ББ<br\/><b>ПАК: <\/b>684410<br\/><b>Радно време: <\/b>07.30-11.00<br\/><b>Телефон:  <\/b>018\/4848-106<br\/> <div id='accUsluge' class='panel-group akordion-posta' role='tablist' aria-multiselectable='true'>  <div class='panel' > <div id='spisakUsluga' class='panel-heading' role='tab'>  <p class='panel-title'>  <a href='#usluge' class='collapse-symbol collapsed' data-toggle='collapse'  role='button' aria-expanded='false' aria-controls='usluge'> <b>Услуге<\/b>  <\/a>  <\/p>  <\/div>  <div id='usluge' class='panel-collapse collapse' role='tabpanel' aria-labelledby='spisakUsluga'> ПРИЈЕМ ПОШИЉАКА<\/br>НОВЧАНО ПОСЛОВАЊЕ<\/br>ИСПОРУКА<\/br>ДОСТАВА<\/br>ПРОДАЈА АКЦИЈА<\/br> <\/div>  <\/div> <\/div>",
    "amenity":"post_office",
    "phone":"+381 18 4848-106",
    "ref":"18225",
    "name:sr-Latn":"18225 Katun",
    "addr:pak":"684410"},
   "geometry":
   {"type":"Point",
    "coordinates":[21.7857485749102, 43.4930188337494]}},
  {"type":"Feature",
   "properties":
   {"name:sr":"16230 Лебане",
    "opening_hours":"Mo-Fr 07:00-14:00; Sa 08:00-13:00; PH off",
    "addr:housenumber":"99",
    "name":"16230 Лебане",
    "desciption":
    "<b>Локација: <\/b>ЛЕБАНЕ<br\/><b>Назив:  <\/b>16230 ЛЕБАНЕ<br\/><b>Адреса: <\/b>ЦАРА ДУШАНА 99<br\/><b>ПАК: <\/b>647499<br\/><b>Радно време: <\/b>07.00-14.00<br\/>субота:08.00-13.00<br\/><b>Телефон:  <\/b>016\/843049 016\/843988<br\/> <div id='accUsluge' class='panel-group akordion-posta' role='tablist' aria-multiselectable='true'>  <div class='panel' > <div id='spisakUsluga' class='panel-heading' role='tab'>  <p class='panel-title'>  <a href='#usluge' class='collapse-symbol collapsed' data-toggle='collapse'  role='button' aria-expanded='false' aria-controls='usluge'> <b>Услуге<\/b>  <\/a>  <\/p>  <\/div>  <div id='usluge' class='panel-collapse collapse' role='tabpanel' aria-labelledby='spisakUsluga'> ПРИЈЕМ ПОШИЉАКА<\/br>НОВЧАНО ПОСЛОВАЊЕ<\/br>ИСПОРУКА<\/br>ДОСТАВА<\/br>ИНТЕРНЕТ УСЛУГЕ<\/br>МЕЊАЧКИ ПОСЛОВИ<\/br>PAKET ZA ISPORUKU<\/br>ПРОДАЈА АКЦИЈА<\/br>РЕСТИТУЦИЈА<\/br>WESTERN UNION<\/br> <\/div>  <\/div> <\/div>",
    "amenity":"post_office",
    "phone":"+381 16 843049;+381 16 843988",
    "ref":"16230",
    "name:sr-Latn":"16230 Lebane",
    "addr:pak":"647499",
    "addr:street":"Цара Душана"},
   "geometry":
   {"type":"Point",
    "coordinates":[21.7357899855819, 42.9168255270521]}},
  {"type":"Feature",
   "properties":
   {"name:sr":"11189 Београд 71",
    "opening_hours":"Mo-Fr 09:00-16:00; PH off",
    "addr:housenumber":"155",
    "name":"11189 Београд 71",
    "desciption":
    "<b>Локација: <\/b>БЕОГРАД-НОВИ БЕОГРАД<br\/><b>Назив:  <\/b>11189 БЕОГРАД 71<br\/><b>Адреса: <\/b>ТОШИН БУНАР 155<br\/><b>ПАК: <\/b>190281<br\/><b>Радно време: <\/b>09.00-16.00<br\/><b>Телефон:  <\/b>011\/2692-096 011\/2604-230<br\/> <div id='accUsluge' class='panel-group akordion-posta' role='tablist' aria-multiselectable='true'>  <div class='panel' > <div id='spisakUsluga' class='panel-heading' role='tab'>  <p class='panel-title'>  <a href='#usluge' class='collapse-symbol collapsed' data-toggle='collapse'  role='button' aria-expanded='false' aria-controls='usluge'> <b>Услуге<\/b>  <\/a>  <\/p>  <\/div>  <div id='usluge' class='panel-collapse collapse' role='tabpanel' aria-labelledby='spisakUsluga'> ПРИЈЕМ ПОШИЉАКА<\/br>НОВЧАНО ПОСЛОВАЊЕ<\/br>ИНТЕРНЕТ УСЛУГЕ<\/br>МЕЊАЧКИ ПОСЛОВИ<\/br>ПРОДАЈА АКЦИЈА<\/br>WESTERN UNION<\/br> <\/div>  <\/div> <\/div>",
    "amenity":"post_office",
    "phone":"+381 11 2692-096;+381 11 2604-230",
    "ref":"11189",
    "name:sr-Latn":"11189 Beograd 71",
    "addr:pak":"190281",
    "addr:street":"Тошин бунар"},
   "geometry":
   {"type":"Point",
    "coordinates":[20.3990382169002, 44.8236901138582]}},
  {"type":"Feature",
   "properties":
   {"name:sr":"16220 Грделица",
    "opening_hours":"Mo-Fr 07:30-14:30; PH off",
    "addr:housenumber":"ББ",
    "name":"16220 Грделица",
    "desciption":
    "<b>Локација: <\/b>ГРДЕЛИЦА (ВАРОШ)<br\/><b>Назив:  <\/b>16220 ГРДЕЛИЦА<br\/><b>Адреса: <\/b>ДВАДЕСЕТДЕВЕТОГ НОВЕМБРА ББ<br\/><b>ПАК: <\/b>644104<br\/><b>Радно време: <\/b>07.30-14.30<br\/><b>Телефон:  <\/b>016\/3426037 016\/3426724<br\/> <div id='accUsluge' class='panel-group akordion-posta' role='tablist' aria-multiselectable='true'>  <div class='panel' > <div id='spisakUsluga' class='panel-heading' role='tab'>  <p class='panel-title'>  <a href='#usluge' class='collapse-symbol collapsed' data-toggle='collapse'  role='button' aria-expanded='false' aria-controls='usluge'> <b>Услуге<\/b>  <\/a>  <\/p>  <\/div>  <div id='usluge' class='panel-collapse collapse' role='tabpanel' aria-labelledby='spisakUsluga'> ПРИЈЕМ ПОШИЉАКА<\/br>НОВЧАНО ПОСЛОВАЊЕ<\/br>ИСПОРУКА<\/br>ДОСТАВА<\/br>МЕЊАЧКИ ПОСЛОВИ<\/br>PAKET ZA ISPORUKU<\/br>ПРОДАЈА АКЦИЈА<\/br>WESTERN UNION<\/br> <\/div>  <\/div> <\/div>",
    "amenity":"post_office",
    "phone":"+381 16 3426037;+381 16 3426724",
    "ref":"16220",
    "name:sr-Latn":"16220 Grdelica",
    "addr:pak":"644104",
    "addr:street":"Двадесетдеветог новембра"},
   "geometry":
   {"type":"Point",
    "coordinates":[22.0728487145605, 42.8923611556782]}},
  {"type":"Feature",
   "properties":
   {"name:sr":"22239 Шид",
    "opening_hours":"Mo-Fr 09:00-16:00; PH off",
    "addr:housenumber":"5",
    "name":"22239 Шид",
    "desciption":
    "<b>Локација: <\/b>ШИД<br\/><b>Назив:  <\/b>22239 ШИД<br\/><b>Адреса: <\/b>НАСЕЉЕ ИСТОК 5<br\/><b>ПАК: <\/b>326389<br\/><b>Радно време: <\/b>09.00-16.00<br\/><b>Телефон:  <\/b>022\/711-797<br\/> <div id='accUsluge' class='panel-group akordion-posta' role='tablist' aria-multiselectable='true'>  <div class='panel' > <div id='spisakUsluga' class='panel-heading' role='tab'>  <p class='panel-title'>  <a href='#usluge' class='collapse-symbol collapsed' data-toggle='collapse'  role='button' aria-expanded='false' aria-controls='usluge'> <b>Услуге<\/b>  <\/a>  <\/p>  <\/div>  <div id='usluge' class='panel-collapse collapse' role='tabpanel' aria-labelledby='spisakUsluga'> ПРИЈЕМ ПОШИЉАКА<\/br>НОВЧАНО ПОСЛОВАЊЕ<\/br>ПРОДАЈА АКЦИЈА<\/br>WESTERN UNION<\/br> <\/div>  <\/div> <\/div>",
    "amenity":"post_office",
    "phone":"+381 22 711-797",
    "ref":"22239",
    "name:sr-Latn":"22239 Šid",
    "addr:pak":"326389",
    "addr:street":"Насеље Исток"},
   "geometry":
   {"type":"Point",
    "coordinates":[19.2412552544307, 45.1223856483712]}},
  {"type":"Feature",
   "properties":
   {"name:sr":"12206 Брадарац",
    "opening_hours":"Mo-Fr 07:00-13:00; PH off",
    "addr:housenumber":"ББ",
    "name":"12206 Брадарац",
    "desciption":
    "<b>Локација: <\/b>БРАДАРАЦ<br\/><b>Назив:  <\/b>12206 БРАДАРАЦ<br\/><b>Адреса: <\/b>СВЕТОСАВСКА ББ<br\/><b>ПАК: <\/b>294802<br\/><b>Радно време: <\/b>07.00-13.00<br\/><b>Телефон:  <\/b>012\/261512<br\/> <div id='accUsluge' class='panel-group akordion-posta' role='tablist' aria-multiselectable='true'>  <div class='panel' > <div id='spisakUsluga' class='panel-heading' role='tab'>  <p class='panel-title'>  <a href='#usluge' class='collapse-symbol collapsed' data-toggle='collapse'  role='button' aria-expanded='false' aria-controls='usluge'> <b>Услуге<\/b>  <\/a>  <\/p>  <\/div>  <div id='usluge' class='panel-collapse collapse' role='tabpanel' aria-labelledby='spisakUsluga'> ПРИЈЕМ ПОШИЉАКА<\/br>НОВЧАНО ПОСЛОВАЊЕ<\/br>ИСПОРУКА<\/br>ДОСТАВА<\/br>ПРОДАЈА АКЦИЈА<\/br>WESTERN UNION<\/br> <\/div>  <\/div> <\/div>",
    "amenity":"post_office",
    "phone":"+381 12 261512",
    "ref":"12206",
    "name:sr-Latn":"12206 Bradarac",
    "addr:pak":"294802",
    "addr:street":"Светосавска"},
   "geometry":
   {"type":"Point",
    "coordinates":[21.2292433841924, 44.6909294130624]}},
  {"type":"Feature",
   "properties":
   {"name:sr":"16254 Богојевце",
    "opening_hours":"Mo-Fr 07:00-13:00; PH off",
    "name":"16254 Богојевце",
    "desciption":
    "<b>Локација: <\/b>БОГОЈЕВЦЕ<br\/><b>Назив:  <\/b>16254 БОГОЈЕВЦЕ<br\/><b>Адреса: <\/b>ВЛАДЕ ЂОКИЋА 82<br\/><b>ПАК: <\/b>649004<br\/><b>Радно време: <\/b>07.00-13.00<br\/><b>Телефон:  <\/b>016\/732666<br\/> <div id='accUsluge' class='panel-group akordion-posta' role='tablist' aria-multiselectable='true'>  <div class='panel' > <div id='spisakUsluga' class='panel-heading' role='tab'>  <p class='panel-title'>  <a href='#usluge' class='collapse-symbol collapsed' data-toggle='collapse'  role='button' aria-expanded='false' aria-controls='usluge'> <b>Услуге<\/b>  <\/a>  <\/p>  <\/div>  <div id='usluge' class='panel-collapse collapse' role='tabpanel' aria-labelledby='spisakUsluga'> ПРИЈЕМ ПОШИЉАКА<\/br>НОВЧАНО ПОСЛОВАЊЕ<\/br>ИСПОРУКА<\/br>ДОСТАВА<\/br>ПРОДАЈА АКЦИЈА<\/br>WESTERN UNION<\/br> <\/div>  <\/div> <\/div>",
    "amenity":"post_office",
    "phone":"+381 16 732666",
    "ref":"16254",
    "name:sr-Latn":"16254 Bogojevce",
    "addr:pak":"649004"},
   "geometry":
   {"type":"Point",
    "coordinates":[21.9591636296488, 43.0494337170925]}},
  {"type":"Feature",
   "properties":
   {"name:sr":"18400 Прокупље",
    "opening_hours":"Mo-Fr 07:00-19:00; Sa 07:30-15:00; PH off",
    "addr:housenumber":"6",
    "name":"18400 Прокупље",
    "desciption":
    "<b>Локација: <\/b>ПРОКУПЉЕ<br\/><b>Назив:  <\/b>18400 ПРОКУПЉЕ<br\/><b>Адреса: <\/b>ЈУГ БОГДАНОВА 6<br\/><b>ПАК: <\/b>650401<br\/><b>Радно време: <\/b>07.00-19.00<br\/>субота:07.30-15.00<br\/><b>Телефон:  <\/b>027\/320-313 027\/320-315<br\/> <div id='accUsluge' class='panel-group akordion-posta' role='tablist' aria-multiselectable='true'>  <div class='panel' > <div id='spisakUsluga' class='panel-heading' role='tab'>  <p class='panel-title'>  <a href='#usluge' class='collapse-symbol collapsed' data-toggle='collapse'  role='button' aria-expanded='false' aria-controls='usluge'> <b>Услуге<\/b>  <\/a>  <\/p>  <\/div>  <div id='usluge' class='panel-collapse collapse' role='tabpanel' aria-labelledby='spisakUsluga'> ПРИЈЕМ ПОШИЉАКА<\/br>НОВЧАНО ПОСЛОВАЊЕ<\/br>ИСПОРУКА<\/br>ДОСТАВА<\/br>ДОСТАВА ПОСТНЕТ УПУТНИЦА<\/br>КЕШ ЕКСПРЕС<\/br>МЕЊАЧКИ ПОСЛОВИ<\/br>PAKET ZA ISPORUKU<\/br>ПРОДАЈА АКЦИЈА<\/br>РЕСТИТУЦИЈА<\/br>WESTERN UNION<\/br> <\/div>  <\/div> <\/div>",
    "amenity":"post_office",
    "phone":"+381 27 320-313;+381 27 320-315",
    "ref":"18400",
    "name:sr-Latn":"18400 Prokuplje",
    "addr:pak":"650401",
    "addr:street":"Југ Богданова"},
   "geometry":
   {"type":"Point",
    "coordinates":[21.586216624833, 43.2338018756831]}},
  {"type":"Feature",
   "properties":
   {"name:sr":"32258 Кушићи",
    "opening_hours":"Tu,Th 08:00-14:00; PH off",
    "name":"32258 Кушићи",
    "desciption":
    "<b>Локација: <\/b>КУШИЋИ<br\/><b>Назив:  <\/b>32258 КУШИЋИ<br\/><b>Адреса: <\/b>КУШИЋИ НАСЕЉЕ ББ<br\/><b>ПАК: <\/b>532815<br\/><b>Радно време: <\/b> уто. 08.00-14.00 чет.  08.00-14.00<br\/><b>Телефон:  <\/b>032\/5678-200<br\/> <div id='accUsluge' class='panel-group akordion-posta' role='tablist' aria-multiselectable='true'>  <div class='panel' > <div id='spisakUsluga' class='panel-heading' role='tab'>  <p class='panel-title'>  <a href='#usluge' class='collapse-symbol collapsed' data-toggle='collapse'  role='button' aria-expanded='false' aria-controls='usluge'> <b>Услуге<\/b>  <\/a>  <\/p>  <\/div>  <div id='usluge' class='panel-collapse collapse' role='tabpanel' aria-labelledby='spisakUsluga'> ПРИЈЕМ ПОШИЉАКА<\/br>НОВЧАНО ПОСЛОВАЊЕ<\/br>ИСПОРУКА<\/br>ДОСТАВА<\/br>ПРОДАЈА АКЦИЈА<\/br> <\/div>  <\/div> <\/div>",
    "amenity":"post_office",
    "phone":"+381 32 5678-200",
    "ref":"32258",
    "name:sr-Latn":"32258 Kušići",
    "addr:pak":"532815"},
   "geometry":
   {"type":"Point",
    "coordinates":[20.1026450199964, 43.5014793362347]}},
  {"type":"Feature",
   "properties":
   {"name:sr":"15324 Врхпоље",
    "opening_hours":"Mo-Fr 08:00-11:00; PH off",
    "name":"15324 Врхпоље",
    "desciption":
    "<b>Локација: <\/b>ВРХПОЉЕ<br\/><b>Назив:  <\/b>15324 ВРХПОЉЕ<br\/><b>Адреса: <\/b>ВРХПОЉЕ ББ<br\/><b>ПАК: <\/b>269465<br\/><b>Радно време: <\/b>08.00-11.00<br\/><b>Телефон:  <\/b>015\/567-019<br\/> <div id='accUsluge' class='panel-group akordion-posta' role='tablist' aria-multiselectable='true'>  <div class='panel' > <div id='spisakUsluga' class='panel-heading' role='tab'>  <p class='panel-title'>  <a href='#usluge' class='collapse-symbol collapsed' data-toggle='collapse'  role='button' aria-expanded='false' aria-controls='usluge'> <b>Услуге<\/b>  <\/a>  <\/p>  <\/div>  <div id='usluge' class='panel-collapse collapse' role='tabpanel' aria-labelledby='spisakUsluga'> ПРИЈЕМ ПОШИЉАКА<\/br>НОВЧАНО ПОСЛОВАЊЕ<\/br>ИСПОРУКА<\/br>ДОСТАВА<\/br>ПРОДАЈА АКЦИЈА<\/br>WESTERN UNION<\/br> <\/div>  <\/div> <\/div>",
    "amenity":"post_office",
    "phone":"+381 15 567-019",
    "ref":"15324",
    "name:sr-Latn":"15324 Vrhpolje",
    "addr:pak":"269465"},
   "geometry":
   {"type":"Point",
    "coordinates":[19.4490160784016, 44.1438326038752]}},
  {"type":"Feature",
   "properties":
   {"name:sr":"24407 Кеви",
    "opening_hours":"Mo-Fr 07:00-11:00; PH off",
    "addr:housenumber":"2",
    "name":"24407 Кеви",
    "desciption":
    "<b>Локација: <\/b>КЕВИ<br\/><b>Назив:  <\/b>24407 КЕВИ<br\/><b>Адреса: <\/b>АРАЊ ЈАНОШ 2<br\/><b>ПАК: <\/b>447210<br\/><b>Радно време: <\/b>07.00-11.00<br\/><b>Телефон:  <\/b>024\/846-020<br\/> <div id='accUsluge' class='panel-group akordion-posta' role='tablist' aria-multiselectable='true'>  <div class='panel' > <div id='spisakUsluga' class='panel-heading' role='tab'>  <p class='panel-title'>  <a href='#usluge' class='collapse-symbol collapsed' data-toggle='collapse'  role='button' aria-expanded='false' aria-controls='usluge'> <b>Услуге<\/b>  <\/a>  <\/p>  <\/div>  <div id='usluge' class='panel-collapse collapse' role='tabpanel' aria-labelledby='spisakUsluga'> ПРИЈЕМ ПОШИЉАКА<\/br>НОВЧАНО ПОСЛОВАЊЕ<\/br>ИСПОРУКА<\/br> <\/div>  <\/div> <\/div>",
    "amenity":"post_office",
    "phone":"+381 24 846-020",
    "ref":"24407",
    "name:sr-Latn":"24407 Kevi",
    "addr:pak":"447210",
    "addr:street":"Арањ Јанош"},
   "geometry":
   {"type":"Point",
    "coordinates":[19.8777565871455, 45.8504498910726]}},
  {"type":"Feature",
   "properties":
   {"name:sr":"32101 Чачак 1",
    "opening_hours":"Mo-Fr 07:00-20:00; Sa 08:00-16:00; PH off",
    "addr:housenumber":"28",
    "name":"32101 Чачак 1",
    "desciption":
    "<b>Локација: <\/b>ЧАЧАК<br\/><b>Назив:  <\/b>32101 ЧАЧАК 1<br\/><b>Адреса: <\/b>ГРАДСКО ШЕТАЛИШТЕ 28<br\/><b>ПАК: <\/b>522008<br\/><b>Радно време: <\/b>07.00-20.00<br\/>субота:08.00-16.00<br\/><b>Телефон:  <\/b>032\/304-013 032\/304-015<br\/> <div id='accUsluge' class='panel-group akordion-posta' role='tablist' aria-multiselectable='true'>  <div class='panel' > <div id='spisakUsluga' class='panel-heading' role='tab'>  <p class='panel-title'>  <a href='#usluge' class='collapse-symbol collapsed' data-toggle='collapse'  role='button' aria-expanded='false' aria-controls='usluge'> <b>Услуге<\/b>  <\/a>  <\/p>  <\/div>  <div id='usluge' class='panel-collapse collapse' role='tabpanel' aria-labelledby='spisakUsluga'> ПРИЈЕМ ПОШИЉАКА<\/br>НОВЧАНО ПОСЛОВАЊЕ<\/br>ИСПОРУКА<\/br>ФИЛАТЕЛИЈА<\/br>ИНТЕРНЕТ УСЛУГЕ<\/br>МЕЊАЧКИ ПОСЛОВИ<\/br>PAKET ZA ISPORUKU<\/br>ПРОДАЈА АКЦИЈА<\/br>РЕСТИТУЦИЈА<\/br>WESTERN UNION<\/br> <\/div>  <\/div> <\/div>",
    "amenity":"post_office",
    "phone":"+381 32 304-013;+381 32 304-015",
    "ref":"32101",
    "name:sr-Latn":"32101 Čačak 1",
    "addr:pak":"522008",
    "addr:street":"Градско Шеталиште"},
   "geometry":
   {"type":"Point",
    "coordinates":[20.3478128655271, 43.8913819407698]}},
  {"type":"Feature",
   "properties":
   {"name:sr":"11051 Београд 130",
    "opening_hours":"Mo-Fr 08:00-15:00; PH off",
    "addr:housenumber":"19",
    "name":"11051 Београд 130",
    "desciption":
    "<b>Локација: <\/b>БЕОГРАД-ЗВЕЗДАРА<br\/><b>Назив:  <\/b>11051 БЕОГРАД 130<br\/><b>Адреса: <\/b>ВЕЉКА ДУГОШЕВИЋА 19<br\/><b>ПАК: <\/b>141503<br\/><b>Радно време: <\/b>08.00-15.00<br\/><b>Телефон:  <\/b>011\/7293-928<br\/> <div id='accUsluge' class='panel-group akordion-posta' role='tablist' aria-multiselectable='true'>  <div class='panel' > <div id='spisakUsluga' class='panel-heading' role='tab'>  <p class='panel-title'>  <a href='#usluge' class='collapse-symbol collapsed' data-toggle='collapse'  role='button' aria-expanded='false' aria-controls='usluge'> <b>Услуге<\/b>  <\/a>  <\/p>  <\/div>  <div id='usluge' class='panel-collapse collapse' role='tabpanel' aria-labelledby='spisakUsluga'> ПРИЈЕМ ПОШИЉАКА<\/br>НОВЧАНО ПОСЛОВАЊЕ<\/br>МЕЊАЧКИ ПОСЛОВИ<\/br>ПРОДАЈА АКЦИЈА<\/br>WESTERN UNION<\/br> <\/div>  <\/div> <\/div>",
    "amenity":"post_office",
    "phone":"+381 11 7293-928",
    "ref":"11051",
    "name:sr-Latn":"11051 Beograd 130",
    "addr:pak":"141503",
    "addr:street":"Вељка Дугошевића"},
   "geometry":
   {"type":"Point",
    "coordinates":[20.4962064842608, 44.8059747770754]}},
  {"type":"Feature",
   "properties":
   {"name:sr":"23241 Лазарево",
    "opening_hours":"Mo-Fr 08:00-14:00; Sa 07:30-11:30; PH off",
    "addr:housenumber":"17",
    "name":"23241 Лазарево",
    "desciption":
    "<b>Локација: <\/b>ЛАЗАРЕВО<br\/><b>Назив:  <\/b>23241 ЛАЗАРЕВО<br\/><b>Адреса: <\/b>ЖАРКА ЗРЕЊАНИНА 17<br\/><b>ПАК: <\/b>355508<br\/><b>Радно време: <\/b>08.00-14.00<br\/>субота:07.30-11.30<br\/><b>Телефон:  <\/b>023\/896-527<br\/> <div id='accUsluge' class='panel-group akordion-posta' role='tablist' aria-multiselectable='true'>  <div class='panel' > <div id='spisakUsluga' class='panel-heading' role='tab'>  <p class='panel-title'>  <a href='#usluge' class='collapse-symbol collapsed' data-toggle='collapse'  role='button' aria-expanded='false' aria-controls='usluge'> <b>Услуге<\/b>  <\/a>  <\/p>  <\/div>  <div id='usluge' class='panel-collapse collapse' role='tabpanel' aria-labelledby='spisakUsluga'> ПРИЈЕМ ПОШИЉАКА<\/br>НОВЧАНО ПОСЛОВАЊЕ<\/br>ИСПОРУКА<\/br>ДОСТАВА<\/br>ИНТЕРНЕТ УСЛУГЕ<\/br>PAKET ZA ISPORUKU<\/br>ПРОДАЈА АКЦИЈА<\/br>WESTERN UNION<\/br> <\/div>  <\/div> <\/div>",
    "amenity":"post_office",
    "phone":"+381 23 896-527",
    "ref":"23241",
    "name:sr-Latn":"23241 Lazarevo",
    "addr:pak":"355508",
    "addr:street":"Жарка Зрењанина"},
   "geometry":
   {"type":"Point",
    "coordinates":[20.5383736555094, 45.3869946473324]}},
  {"type":"Feature",
   "properties":
   {"name:sr":"17522 Биљача",
    "opening_hours":"Mo-Fr 08:00-12:00; PH off",
    "name":"17522 Биљача",
    "desciption":
    "<b>Локација: <\/b>БИЉАЧА<br\/><b>Назив:  <\/b>17522 БИЉАЧА<br\/><b>Адреса: <\/b>БИЉАЧА ББ<br\/><b>ПАК: <\/b>634702<br\/><b>Радно време: <\/b>08.00-12.00<br\/><b>Телефон:  <\/b>017\/647-510<br\/> <div id='accUsluge' class='panel-group akordion-posta' role='tablist' aria-multiselectable='true'>  <div class='panel' > <div id='spisakUsluga' class='panel-heading' role='tab'>  <p class='panel-title'>  <a href='#usluge' class='collapse-symbol collapsed' data-toggle='collapse'  role='button' aria-expanded='false' aria-controls='usluge'> <b>Услуге<\/b>  <\/a>  <\/p>  <\/div>  <div id='usluge' class='panel-collapse collapse' role='tabpanel' aria-labelledby='spisakUsluga'> ПРИЈЕМ ПОШИЉАКА<\/br>НОВЧАНО ПОСЛОВАЊЕ<\/br>ИСПОРУКА<\/br>ДОСТАВА<\/br>ИНТЕРНЕТ УСЛУГЕ<\/br>ПРОДАЈА АКЦИЈА<\/br>WESTERN UNION<\/br> <\/div>  <\/div> <\/div>",
    "amenity":"post_office",
    "phone":"+381 17 647-510",
    "ref":"17522",
    "name:sr-Latn":"17522 Biljača",
    "addr:pak":"634702"},
   "geometry":
   {"type":"Point",
    "coordinates":[21.7467801431491, 42.3554356804383]}},
  {"type":"Feature",
   "properties":
   {"name:sr":"26330 Уљма",
    "opening_hours":"Mo-Fr 07:00-14:00; PH off",
    "addr:housenumber":"96",
    "name":"26330 Уљма",
    "desciption":
    "<b>Локација: <\/b>УЉМА<br\/><b>Назив:  <\/b>26330 УЉМА<br\/><b>Адреса: <\/b>ВРШАЧКА 96<br\/><b>ПАК: <\/b>313007<br\/><b>Радно време: <\/b>07.00-14.00<br\/><b>Телефон:  <\/b>013\/898-122<br\/> <div id='accUsluge' class='panel-group akordion-posta' role='tablist' aria-multiselectable='true'>  <div class='panel' > <div id='spisakUsluga' class='panel-heading' role='tab'>  <p class='panel-title'>  <a href='#usluge' class='collapse-symbol collapsed' data-toggle='collapse'  role='button' aria-expanded='false' aria-controls='usluge'> <b>Услуге<\/b>  <\/a>  <\/p>  <\/div>  <div id='usluge' class='panel-collapse collapse' role='tabpanel' aria-labelledby='spisakUsluga'> ПРИЈЕМ ПОШИЉАКА<\/br>НОВЧАНО ПОСЛОВАЊЕ<\/br>ИСПОРУКА<\/br>ДОСТАВА<\/br>PAKET ZA ISPORUKU<\/br>ПРОДАЈА АКЦИЈА<\/br>WESTERN UNION<\/br> <\/div>  <\/div> <\/div>",
    "amenity":"post_office",
    "phone":"+381 13 898-122",
    "ref":"26330",
    "name:sr-Latn":"26330 Uljma",
    "addr:pak":"313007",
    "addr:street":"Вршачка"},
   "geometry":
   {"type":"Point",
    "coordinates":[21.1575389054566, 45.0437379502226]}},
  {"type":"Feature",
   "properties":
   {"name:sr":"34232 Губеревац",
    "opening_hours":"Mo-Fr 07:00-11:00; PH off",
    "name":"34232 Губеревац",
    "desciption":
    "<b>Локација: <\/b>ГУБЕРЕВАЦ<br\/><b>Назив:  <\/b>34232 ГУБЕРЕВАЦ<br\/><b>Адреса: <\/b>ГУБЕРЕВАЦ ББ<br\/><b>ПАК: <\/b>558501<br\/><b>Радно време: <\/b>07.00-11.00<br\/><b>Телефон:  <\/b>034\/518-388<br\/> <div id='accUsluge' class='panel-group akordion-posta' role='tablist' aria-multiselectable='true'>  <div class='panel' > <div id='spisakUsluga' class='panel-heading' role='tab'>  <p class='panel-title'>  <a href='#usluge' class='collapse-symbol collapsed' data-toggle='collapse'  role='button' aria-expanded='false' aria-controls='usluge'> <b>Услуге<\/b>  <\/a>  <\/p>  <\/div>  <div id='usluge' class='panel-collapse collapse' role='tabpanel' aria-labelledby='spisakUsluga'> ПРИЈЕМ ПОШИЉАКА<\/br>НОВЧАНО ПОСЛОВАЊЕ<\/br>ИСПОРУКА<\/br>ДОСТАВА<\/br>ПРОДАЈА АКЦИЈА<\/br>WESTERN UNION<\/br> <\/div>  <\/div> <\/div>",
    "amenity":"post_office",
    "phone":"+381 34 518-388",
    "ref":"34232",
    "name:sr-Latn":"34232 Guberevac",
    "addr:pak":"558501"},
   "geometry":
   {"type":"Point",
    "coordinates":[20.7745254994649, 43.8360424507442]}},
  {"type":"Feature",
   "properties":
   {"name:sr":"18436 Мерћез",
    "opening_hours":"Mo,We 08:00-11:30; PH off",
    "name":"18436 Мерћез",
    "desciption":
    "<b>Локација: <\/b>МЕРЋЕЗ<br\/><b>Назив:  <\/b>18436 МЕРЋЕЗ<br\/><b>Адреса: <\/b>МЕРЋЕЗ ББ<br\/><b>ПАК: <\/b>657501<br\/><b>Радно време: <\/b> пон.  08.00-11.30 сре.  08.00-11.30<br\/><b>Телефон:  <\/b>027\/381-110<br\/> <div id='accUsluge' class='panel-group akordion-posta' role='tablist' aria-multiselectable='true'>  <div class='panel' > <div id='spisakUsluga' class='panel-heading' role='tab'>  <p class='panel-title'>  <a href='#usluge' class='collapse-symbol collapsed' data-toggle='collapse'  role='button' aria-expanded='false' aria-controls='usluge'> <b>Услуге<\/b>  <\/a>  <\/p>  <\/div>  <div id='usluge' class='panel-collapse collapse' role='tabpanel' aria-labelledby='spisakUsluga'> ПРИЈЕМ ПОШИЉАКА<\/br>НОВЧАНО ПОСЛОВАЊЕ<\/br>ИСПОРУКА<\/br>ДОСТАВА<\/br>ПРОДАЈА АКЦИЈА<\/br>WESTERN UNION<\/br> <\/div>  <\/div> <\/div>",
    "amenity":"post_office",
    "phone":"+381 27 381-110",
    "ref":"18436",
    "name:sr-Latn":"18436 Merćez",
    "addr:pak":"657501"},
   "geometry":
   {"type":"Point",
    "coordinates":[21.0631982830775, 43.2414982201439]}},
  {"type":"Feature",
   "properties":
   {"name:sr":"16221 Велика Грабовница",
    "opening_hours":"Mo-Fr 07:00-14:00; PH off",
    "name":"16221 Велика Грабовница",
    "desciption":
    "<b>Локација: <\/b>ВЕЛИКА ГРАБОВНИЦА<br\/><b>Назив:  <\/b>16221 ВЕЛИКА ГРАБОВНИЦА<br\/><b>Адреса: <\/b>ВЕЛИКА ГРАБОВНИЦА ББ<br\/><b>ПАК: <\/b>644310<br\/><b>Радно време: <\/b>07.00-14.00<br\/><b>Телефон:  <\/b>016\/3481903<br\/> <div id='accUsluge' class='panel-group akordion-posta' role='tablist' aria-multiselectable='true'>  <div class='panel' > <div id='spisakUsluga' class='panel-heading' role='tab'>  <p class='panel-title'>  <a href='#usluge' class='collapse-symbol collapsed' data-toggle='collapse'  role='button' aria-expanded='false' aria-controls='usluge'> <b>Услуге<\/b>  <\/a>  <\/p>  <\/div>  <div id='usluge' class='panel-collapse collapse' role='tabpanel' aria-labelledby='spisakUsluga'> ПРИЈЕМ ПОШИЉАКА<\/br>НОВЧАНО ПОСЛОВАЊЕ<\/br>ИСПОРУКА<\/br>ДОСТАВА<\/br>ПРОДАЈА АКЦИЈА<\/br>WESTERN UNION<\/br> <\/div>  <\/div> <\/div>",
    "amenity":"post_office",
    "phone":"+381 16 3481903",
    "ref":"16221",
    "name:sr-Latn":"16221 Velika Grabovnica",
    "addr:pak":"644310"},
   "geometry":
   {"type":"Point",
    "coordinates":[22.0111158245225, 42.9253730060464]}},
  {"type":"Feature",
   "properties":
   {"name:sr":"21237 Госпођинци",
    "opening_hours":"Mo-Fr 08:00-14:00; Sa 09:00-13:00; PH off",
    "addr:housenumber":"18",
    "name":"21237 Госпођинци",
    "desciption":
    "<b>Локација: <\/b>ГОСПОЂИНЦИ<br\/><b>Назив:  <\/b>21237 ГОСПОЂИНЦИ<br\/><b>Адреса: <\/b>КРАЉА ПЕТРА ПРВОГ 18<br\/><b>ПАК: <\/b>382501<br\/><b>Радно време: <\/b>08.00-14.00<br\/>субота:09.00-13.00<br\/><b>Телефон:  <\/b>021\/4807-285<br\/> <div id='accUsluge' class='panel-group akordion-posta' role='tablist' aria-multiselectable='true'>  <div class='panel' > <div id='spisakUsluga' class='panel-heading' role='tab'>  <p class='panel-title'>  <a href='#usluge' class='collapse-symbol collapsed' data-toggle='collapse'  role='button' aria-expanded='false' aria-controls='usluge'> <b>Услуге<\/b>  <\/a>  <\/p>  <\/div>  <div id='usluge' class='panel-collapse collapse' role='tabpanel' aria-labelledby='spisakUsluga'> ПРИЈЕМ ПОШИЉАКА<\/br>НОВЧАНО ПОСЛОВАЊЕ<\/br>ИСПОРУКА<\/br>ДОСТАВА<\/br>PAKET ZA ISPORUKU<\/br>ПРОДАЈА АКЦИЈА<\/br>WESTERN UNION<\/br> <\/div>  <\/div> <\/div>",
    "amenity":"post_office",
    "phone":"+381 21 4807-285",
    "ref":"21237",
    "name:sr-Latn":"21237 Gospođinci",
    "addr:pak":"382501",
    "addr:street":"Краља Петра првог"},
   "geometry":
   {"type":"Point",
    "coordinates":[19.9885307966113, 45.4054248717897]}},
  {"type":"Feature",
   "properties":
   {"name:sr":"22416 Огар",
    "opening_hours":"Mo-Fr 07:00-10:30; PH off",
    "addr:housenumber":"1",
    "name":"22416 Огар",
    "desciption":
    "<b>Локација: <\/b>ОГАР<br\/><b>Назив:  <\/b>22416 ОГАР<br\/><b>Адреса: <\/b>ШУМСКА 1<br\/><b>ПАК: <\/b>338560<br\/><b>Радно време: <\/b>07.00-10.30<br\/><b>Телефон:  <\/b>022\/487-511<br\/> <div id='accUsluge' class='panel-group akordion-posta' role='tablist' aria-multiselectable='true'>  <div class='panel' > <div id='spisakUsluga' class='panel-heading' role='tab'>  <p class='panel-title'>  <a href='#usluge' class='collapse-symbol collapsed' data-toggle='collapse'  role='button' aria-expanded='false' aria-controls='usluge'> <b>Услуге<\/b>  <\/a>  <\/p>  <\/div>  <div id='usluge' class='panel-collapse collapse' role='tabpanel' aria-labelledby='spisakUsluga'> ПРИЈЕМ ПОШИЉАКА<\/br>НОВЧАНО ПОСЛОВАЊЕ<\/br>ИСПОРУКА<\/br>ДОСТАВА<\/br>ПРОДАЈА АКЦИЈА<\/br>WESTERN UNION<\/br> <\/div>  <\/div> <\/div>",
    "amenity":"post_office",
    "phone":"+381 22 487-511",
    "ref":"22416",
    "name:sr-Latn":"22416 Ogar",
    "addr:pak":"338560",
    "addr:street":"Шумска"},
   "geometry":
   {"type":"Point",
    "coordinates":[19.947140466342, 44.7919787222042]}},
  {"type":"Feature",
   "properties":
   {"name:sr":"19214 Рготина",
    "opening_hours":"Mo-Fr 07:00-11:00; PH off",
    "addr:housenumber":"ББ",
    "name":"19214 Рготина",
    "desciption":
    "<b>Локација: <\/b>РГОТИНА<br\/><b>Назив:  <\/b>19214 РГОТИНА<br\/><b>Адреса: <\/b>СВЕТОСАВСКА ББ<br\/><b>ПАК: <\/b>612606<br\/><b>Радно време: <\/b>07.00-11.00<br\/><b>Телефон:  <\/b>019\/466-022<br\/> <div id='accUsluge' class='panel-group akordion-posta' role='tablist' aria-multiselectable='true'>  <div class='panel' > <div id='spisakUsluga' class='panel-heading' role='tab'>  <p class='panel-title'>  <a href='#usluge' class='collapse-symbol collapsed' data-toggle='collapse'  role='button' aria-expanded='false' aria-controls='usluge'> <b>Услуге<\/b>  <\/a>  <\/p>  <\/div>  <div id='usluge' class='panel-collapse collapse' role='tabpanel' aria-labelledby='spisakUsluga'> ПРИЈЕМ ПОШИЉАКА<\/br>НОВЧАНО ПОСЛОВАЊЕ<\/br>ИСПОРУКА<\/br>ДОСТАВА<\/br>PAKET ZA ISPORUKU<\/br>ПРОДАЈА АКЦИЈА<\/br>WESTERN UNION<\/br> <\/div>  <\/div> <\/div>",
    "amenity":"post_office",
    "phone":"+381 19 466-022",
    "ref":"19214",
    "name:sr-Latn":"19214 Rgotina",
    "addr:pak":"612606",
    "addr:street":"Светосавска"},
   "geometry":
   {"type":"Point",
    "coordinates":[22.2713902808305, 44.0087299102165]}},
  {"type":"Feature",
   "properties":
   {"name:sr":"11081 Београд 128",
    "opening_hours":"Mo-Fr 08:00-15:30; PH off",
    "addr:housenumber":"42А",
    "name":"11081 Београд 128",
    "desciption":
    "<b>Локација: <\/b>БЕОГРАД-НОВИ БЕОГРАД<br\/><b>Назив:  <\/b>11081 БЕОГРАД 128<br\/><b>Адреса: <\/b>БУЛЕВАР НИКОЛЕ ТЕСЛЕ 42А<br\/><b>ПАК: <\/b>190457<br\/><b>Радно време: <\/b>08.00-15.30<br\/><b>Телефон:  <\/b>011\/3376-015<br\/> <div id='accUsluge' class='panel-group akordion-posta' role='tablist' aria-multiselectable='true'>  <div class='panel' > <div id='spisakUsluga' class='panel-heading' role='tab'>  <p class='panel-title'>  <a href='#usluge' class='collapse-symbol collapsed' data-toggle='collapse'  role='button' aria-expanded='false' aria-controls='usluge'> <b>Услуге<\/b>  <\/a>  <\/p>  <\/div>  <div id='usluge' class='panel-collapse collapse' role='tabpanel' aria-labelledby='spisakUsluga'> ПРИЈЕМ ПОШИЉАКА<\/br>НОВЧАНО ПОСЛОВАЊЕ<\/br>МЕЊАЧКИ ПОСЛОВИ<\/br>ПРОДАЈА АКЦИЈА<\/br>WESTERN UNION<\/br> <\/div>  <\/div> <\/div>",
    "amenity":"post_office",
    "phone":"+381 11 3376-015",
    "ref":"11081",
    "name:sr-Latn":"11081 Beograd 128",
    "addr:pak":"190457",
    "addr:street":"Булевар Николе Тесле"},
   "geometry":
   {"type":"Point",
    "coordinates":[20.419393882292, 44.8272073542263]}},
  {"type":"Feature",
   "properties":
   {"name:sr":"36321 Црквине",
    "opening_hours":"Mo-Fr 08:00-14:00; PH off",
    "addr:housenumber":"ББ",
    "name":"36321 Црквине",
    "desciption":
    "<b>Локација: <\/b>ЦРКВИНЕ<br\/><b>Назив:  <\/b>36321 ЦРКВИНЕ<br\/><b>Адреса: <\/b>ЦРКВИНЕ ББ<br\/><b>ПАК: <\/b>577201<br\/><b>Радно време: <\/b>08.00-14.00<br\/><b>Телефон:  <\/b>020\/5723-040<br\/> <div id='accUsluge' class='panel-group akordion-posta' role='tablist' aria-multiselectable='true'>  <div class='panel' > <div id='spisakUsluga' class='panel-heading' role='tab'>  <p class='panel-title'>  <a href='#usluge' class='collapse-symbol collapsed' data-toggle='collapse'  role='button' aria-expanded='false' aria-controls='usluge'> <b>Услуге<\/b>  <\/a>  <\/p>  <\/div>  <div id='usluge' class='panel-collapse collapse' role='tabpanel' aria-labelledby='spisakUsluga'> ПРИЈЕМ ПОШИЉАКА<\/br>НОВЧАНО ПОСЛОВАЊЕ<\/br>ИСПОРУКА<\/br>ДОСТАВА<\/br>ПРОДАЈА АКЦИЈА<\/br> <\/div>  <\/div> <\/div>",
    "amenity":"post_office",
    "phone":"+381 20 5723-040",
    "ref":"36321",
    "name:sr-Latn":"36321 Crkvine",
    "addr:pak":"577201",
    "addr:street":"Црквине"},
   "geometry":
   {"type":"Point",
    "coordinates":[20.3865382061126, 43.0523091504536]}},
  {"type":"Feature",
   "properties":
   {"name:sr":"11273 Београд 87",
    "opening_hours":"Mo-Fr 08:00-19:00; Sa 08:00-14:00; PH off",
    "addr:housenumber":"1",
    "name":"11273 Београд 87",
    "desciption":
    "<b>Локација: <\/b>БЕОГРАД-ЗЕМУН<br\/><b>Назив:  <\/b>11273 БЕОГРАД 87<br\/><b>Адреса: <\/b>БИХАЋКА 1<br\/><b>ПАК: <\/b>201375<br\/><b>Радно време: <\/b>08.00-19.00<br\/>субота:08.00-14.00<br\/><b>Телефон:  <\/b>011\/3718-007 011\/7870-300<br\/> <div id='accUsluge' class='panel-group akordion-posta' role='tablist' aria-multiselectable='true'>  <div class='panel' > <div id='spisakUsluga' class='panel-heading' role='tab'>  <p class='panel-title'>  <a href='#usluge' class='collapse-symbol collapsed' data-toggle='collapse'  role='button' aria-expanded='false' aria-controls='usluge'> <b>Услуге<\/b>  <\/a>  <\/p>  <\/div>  <div id='usluge' class='panel-collapse collapse' role='tabpanel' aria-labelledby='spisakUsluga'> ПРИЈЕМ ПОШИЉАКА<\/br>НОВЧАНО ПОСЛОВАЊЕ<\/br>ИСПОРУКА<\/br>ДОСТАВА<\/br>ДОСТАВА ПОСТНЕТ УПУТНИЦА<\/br>ИНТЕРНЕТ УСЛУГЕ<\/br>КЕШ ЕКСПРЕС<\/br>МАЛИ ОГЛАСИ<\/br>МЕЊАЧКИ ПОСЛОВИ<\/br>PAKET ZA ISPORUKU<\/br>ПРОДАЈА АКЦИЈА<\/br>РЕСТИТУЦИЈА<\/br>WESTERN UNION<\/br> <\/div>  <\/div> <\/div>",
    "amenity":"post_office",
    "phone":"+381 11 3718-007;+381 11 7870-300",
    "ref":"11273",
    "name:sr-Latn":"11273 Beograd 87",
    "addr:pak":"201375",
    "addr:street":"Бихаћка"},
   "geometry":
   {"type":"Point",
    "coordinates":[20.2918609833127, 44.8937417775852]}},
  {"type":"Feature",
   "properties":
   {"name:sr":"34300 Аранђеловац",
    "opening_hours":
    "Mo-Fr 08:00-19:00; Sa 07:00-19:00; PH 08:00-14:00",
    "addr:housenumber":"28",
    "name":"34300 Аранђеловац",
    "desciption":
    "<b>Локација: <\/b>АРАНЂЕЛОВАЦ<br\/><b>Назив:  <\/b>34300 АРАНЂЕЛОВАЦ<br\/><b>Адреса: <\/b>ИЛИЈЕ ГАРАШАНИНА 28<br\/><b>ПАК: <\/b>540106<br\/><b>Радно време: <\/b>08.00-19.00<br\/>субота:07.00-19.00<br\/>празник:08.00-14.00<br\/><b>Телефон:  <\/b>034\/504-086 034\/504-087 034\/725-174<br\/> <div id='accUsluge' class='panel-group akordion-posta' role='tablist' aria-multiselectable='true'>  <div class='panel' > <div id='spisakUsluga' class='panel-heading' role='tab'>  <p class='panel-title'>  <a href='#usluge' class='collapse-symbol collapsed' data-toggle='collapse'  role='button' aria-expanded='false' aria-controls='usluge'> <b>Услуге<\/b>  <\/a>  <\/p>  <\/div>  <div id='usluge' class='panel-collapse collapse' role='tabpanel' aria-labelledby='spisakUsluga'> ПРИЈЕМ ПОШИЉАКА<\/br>НОВЧАНО ПОСЛОВАЊЕ<\/br>ИСПОРУКА<\/br>ДОСТАВА<\/br>ДОСТАВА ПОСТНЕТ УПУТНИЦА<\/br>КЕШ ЕКСПРЕС<\/br>МЕЊАЧКИ ПОСЛОВИ<\/br>PAKET ZA ISPORUKU<\/br>ПРОДАЈА АКЦИЈА<\/br>РЕСТИТУЦИЈА<\/br>WESTERN UNION<\/br> <\/div>  <\/div> <\/div>",
    "amenity":"post_office",
    "phone":"+381 34 504-086;+381 34 504-087;+381 34 725-174",
    "ref":"34300",
    "name:sr-Latn":"34300 Aranđelovac",
    "addr:pak":"540106",
    "addr:street":"Илије Гарашанина"},
   "geometry":
   {"type":"Point",
    "coordinates":[20.5544903356526, 44.3097179021591]}},
  {"type":"Feature",
   "properties":
   {"name:sr":"23117 Зрењанин",
    "opening_hours":"Mo-Sa,PH 07:30-19:30",
    "addr:housenumber":"ББ",
    "name":"23117 Зрењанин",
    "desciption":
    "<b>Локација: <\/b>ЗРЕЊАНИН<br\/><b>Назив:  <\/b>23117 ЗРЕЊАНИН<br\/><b>Адреса: <\/b>ЈУНАКА МИЛАНА ТЕПИЋА ББ<br\/><b>ПАК: <\/b>351454<br\/><b>Радно време: <\/b>07.30-19.30<br\/>субота:07.30-19.30<br\/>празник:07.30-19.30<br\/><b>Телефон:  <\/b>023\/582-471<br\/> <div id='accUsluge' class='panel-group akordion-posta' role='tablist' aria-multiselectable='true'>  <div class='panel' > <div id='spisakUsluga' class='panel-heading' role='tab'>  <p class='panel-title'>  <a href='#usluge' class='collapse-symbol collapsed' data-toggle='collapse'  role='button' aria-expanded='false' aria-controls='usluge'> <b>Услуге<\/b>  <\/a>  <\/p>  <\/div>  <div id='usluge' class='panel-collapse collapse' role='tabpanel' aria-labelledby='spisakUsluga'> ПРИЈЕМ ПОШИЉАКА<\/br>НОВЧАНО ПОСЛОВАЊЕ<\/br> <\/div>  <\/div> <\/div>",
    "amenity":"post_office",
    "phone":"+381 23 582-471",
    "ref":"23117",
    "name:sr-Latn":"23117 Zrenjanin",
    "addr:pak":"351454",
    "addr:street":"Јунака Милана Тепића"},
   "geometry":
   {"type":"Point",
    "coordinates":[20.3644376634626, 45.3798380626162]}},
  {"type":"Feature",
   "properties":
   {"name:sr":"31260 Косјерић",
    "opening_hours":"Mo-Fr 08:00-15:00; Sa 08:00-12:00; PH off",
    "addr:housenumber":"62",
    "name":"31260 Косјерић",
    "desciption":
    "<b>Локација: <\/b>КОСЈЕРИЋ (ВАРОШ)<br\/><b>Назив:  <\/b>31260 КОСЈЕРИЋ<br\/><b>Адреса: <\/b>КАРАЂОРЂЕВА 62<br\/><b>ПАК: <\/b>508104<br\/><b>Радно време: <\/b>08.00-15.00<br\/>субота:08.00-12.00<br\/><b>Телефон:  <\/b>031\/590-895 031\/590-854<br\/> <div id='accUsluge' class='panel-group akordion-posta' role='tablist' aria-multiselectable='true'>  <div class='panel' > <div id='spisakUsluga' class='panel-heading' role='tab'>  <p class='panel-title'>  <a href='#usluge' class='collapse-symbol collapsed' data-toggle='collapse'  role='button' aria-expanded='false' aria-controls='usluge'> <b>Услуге<\/b>  <\/a>  <\/p>  <\/div>  <div id='usluge' class='panel-collapse collapse' role='tabpanel' aria-labelledby='spisakUsluga'> ПРИЈЕМ ПОШИЉАКА<\/br>НОВЧАНО ПОСЛОВАЊЕ<\/br>ИСПОРУКА<\/br>ДОСТАВА<\/br>ДОСТАВА ПОСТНЕТ УПУТНИЦА<\/br>ИНТЕРНЕТ УСЛУГЕ<\/br>КЕШ ЕКСПРЕС<\/br>PAKET ZA ISPORUKU<\/br>ПРОДАЈА АКЦИЈА<\/br>WESTERN UNION<\/br> <\/div>  <\/div> <\/div>",
    "amenity":"post_office",
    "phone":"+381 31 590-895;+381 31 590-854",
    "ref":"31260",
    "name:sr-Latn":"31260 Kosjerić",
    "addr:pak":"508104",
    "addr:street":"Карађорђева"},
   "geometry":
   {"type":"Point",
    "coordinates":[19.9072910480414, 43.9987561630751]}},
  {"type":"Feature",
   "properties":
   {"name:sr":"11210 Београд 26",
    "opening_hours":"Mo-Fr 08:00-19:00; Sa 08:00-13:00; PH off",
    "addr:housenumber":"ББ",
    "name":"11210 Београд 26",
    "desciption":
    "<b>Локација: <\/b>БЕОГРАД-ПАЛИЛУЛА<br\/><b>Назив:  <\/b>11210 БЕОГРАД 26<br\/><b>Адреса: <\/b>ЗРЕЊАНИНСКИ ПУТ ББ<br\/><b>ПАК: <\/b>134611<br\/><b>Радно време: <\/b>08.00-19.00<br\/>субота:08.00-13.00<br\/><b>Телефон:  <\/b>011\/3210-100 011\/3210-129<br\/> <div id='accUsluge' class='panel-group akordion-posta' role='tablist' aria-multiselectable='true'>  <div class='panel' > <div id='spisakUsluga' class='panel-heading' role='tab'>  <p class='panel-title'>  <a href='#usluge' class='collapse-symbol collapsed' data-toggle='collapse'  role='button' aria-expanded='false' aria-controls='usluge'> <b>Услуге<\/b>  <\/a>  <\/p>  <\/div>  <div id='usluge' class='panel-collapse collapse' role='tabpanel' aria-labelledby='spisakUsluga'> ПРИЈЕМ ПОШИЉАКА<\/br>НОВЧАНО ПОСЛОВАЊЕ<\/br>ИСПОРУКА<\/br>ДОСТАВА<\/br>ДОСТАВА ПОСТНЕТ УПУТНИЦА<\/br>ИНТЕРНЕТ УСЛУГЕ<\/br>КЕШ ЕКСПРЕС<\/br>МЕЊАЧКИ ПОСЛОВИ<\/br>PAKET ZA ISPORUKU<\/br>ПРОДАЈА АКЦИЈА<\/br>РЕСТИТУЦИЈА<\/br>WESTERN UNION<\/br> <\/div>  <\/div> <\/div>",
    "amenity":"post_office",
    "phone":"+381 11 3210-100;+381 11 3210-129",
    "ref":"11210",
    "name:sr-Latn":"11210 Beograd 26",
    "addr:pak":"134611",
    "addr:street":"Зрењанински пут"},
   "geometry":
   {"type":"Point",
    "coordinates":[20.4862748513547, 44.8476127981472]}},
  {"type":"Feature",
   "properties":
   {"name:sr":"21467 Савино Село",
    "opening_hours":"Mo-Fr 08:00-14:00; Sa 09:00-13:00; PH off",
    "addr:housenumber":"33",
    "name":"21467 Савино Село",
    "desciption":
    "<b>Локација: <\/b>САВИНО СЕЛО<br\/><b>Назив:  <\/b>21467 САВИНО СЕЛО<br\/><b>Адреса: <\/b>МАРШАЛА ТИТА 33<br\/><b>ПАК: <\/b>399301<br\/><b>Радно време: <\/b>08.00-14.00<br\/>субота:09.00-13.00<br\/><b>Телефон:  <\/b>021\/720-002<br\/> <div id='accUsluge' class='panel-group akordion-posta' role='tablist' aria-multiselectable='true'>  <div class='panel' > <div id='spisakUsluga' class='panel-heading' role='tab'>  <p class='panel-title'>  <a href='#usluge' class='collapse-symbol collapsed' data-toggle='collapse'  role='button' aria-expanded='false' aria-controls='usluge'> <b>Услуге<\/b>  <\/a>  <\/p>  <\/div>  <div id='usluge' class='panel-collapse collapse' role='tabpanel' aria-labelledby='spisakUsluga'> ПРИЈЕМ ПОШИЉАКА<\/br>НОВЧАНО ПОСЛОВАЊЕ<\/br>ИСПОРУКА<\/br>ДОСТАВА<\/br>PAKET ZA ISPORUKU<\/br>ПРОДАЈА АКЦИЈА<\/br>WESTERN UNION<\/br> <\/div>  <\/div> <\/div>",
    "amenity":"post_office",
    "phone":"+381 21 720-002",
    "ref":"21467",
    "name:sr-Latn":"21467 Savino Selo",
    "addr:pak":"399301",
    "addr:street":"Маршала Тита"},
   "geometry":
   {"type":"Point",
    "coordinates":[19.5233979964142, 45.5065599579835]}},
  {"type":"Feature",
   "properties":
   {"name:sr":"37212 Сталаћ",
    "opening_hours":"Mo-Fr 07:00-14:00; PH off",
    "name":"37212 Сталаћ",
    "desciption":
    "<b>Локација: <\/b>СТАЛАЋ<br\/><b>Назив:  <\/b>37212 СТАЛАЋ<br\/><b>Адреса: <\/b>ДОКТОРА ИЛИЈЕ НАГУЛИЋА 6<br\/><b>ПАК: <\/b>669303<br\/><b>Радно време: <\/b>07.00-14.00<br\/><b>Телефон:  <\/b>037\/806-100<br\/> <div id='accUsluge' class='panel-group akordion-posta' role='tablist' aria-multiselectable='true'>  <div class='panel' > <div id='spisakUsluga' class='panel-heading' role='tab'>  <p class='panel-title'>  <a href='#usluge' class='collapse-symbol collapsed' data-toggle='collapse'  role='button' aria-expanded='false' aria-controls='usluge'> <b>Услуге<\/b>  <\/a>  <\/p>  <\/div>  <div id='usluge' class='panel-collapse collapse' role='tabpanel' aria-labelledby='spisakUsluga'> ПРИЈЕМ ПОШИЉАКА<\/br>НОВЧАНО ПОСЛОВАЊЕ<\/br>ИСПОРУКА<\/br>ДОСТАВА<\/br>МЕЊАЧКИ ПОСЛОВИ<\/br>ПРОДАЈА АКЦИЈА<\/br>WESTERN UNION<\/br> <\/div>  <\/div> <\/div>",
    "amenity":"post_office",
    "phone":"+381 37 806-100",
    "ref":"37212",
    "name:sr-Latn":"37212 Stalać",
    "addr:pak":"669303"},
   "geometry":
   {"type":"Point",
    "coordinates":[21.4155172791327, 43.6827142926259]}},
  {"type":"Feature",
   "properties":
   {"name:sr":"24101 Суботица",
    "opening_hours":"Mo-Fr 07:30-19:00; Sa 07:30-14:00; PH off",
    "addr:housenumber":"2",
    "name":"24101 Суботица",
    "desciption":
    "<b>Локација: <\/b>СУБОТИЦА<br\/><b>Назив:  <\/b>24101 СУБОТИЦА<br\/><b>Адреса: <\/b>ПРВОМАЈСКА 2<br\/><b>ПАК: <\/b>459901<br\/><b>Радно време: <\/b>07.30-19.00<br\/>субота:07.30-14.00<br\/><b>Телефон:  <\/b>024\/634-060 024\/634-061 024\/634-062<br\/> <div id='accUsluge' class='panel-group akordion-posta' role='tablist' aria-multiselectable='true'>  <div class='panel' > <div id='spisakUsluga' class='panel-heading' role='tab'>  <p class='panel-title'>  <a href='#usluge' class='collapse-symbol collapsed' data-toggle='collapse'  role='button' aria-expanded='false' aria-controls='usluge'> <b>Услуге<\/b>  <\/a>  <\/p>  <\/div>  <div id='usluge' class='panel-collapse collapse' role='tabpanel' aria-labelledby='spisakUsluga'> ПРИЈЕМ ПОШИЉАКА<\/br>НОВЧАНО ПОСЛОВАЊЕ<\/br>ИСПОРУКА<\/br>ФИЛАТЕЛИЈА<\/br>ИНТЕРНЕТ УСЛУГЕ<\/br>МЕЊАЧКИ ПОСЛОВИ<\/br>ПРОДАЈА АКЦИЈА<\/br>РЕСТИТУЦИЈА<\/br>WESTERN UNION<\/br> <\/div>  <\/div> <\/div>",
    "amenity":"post_office",
    "phone":"+381 24 634-060;+381 24 634-061;+381 24 634-062",
    "ref":"24101",
    "name:sr-Latn":"24101 Subotica",
    "addr:pak":"459901",
    "addr:street":"Првомајска"},
   "geometry":
   {"type":"Point",
    "coordinates":[19.6653481542632, 46.0973794168873]}},
  {"type":"Feature",
   "properties":
   {"name:sr":"31310 Чајетина",
    "opening_hours":"Mo-Fr 08:00-14:30; Sa 08:00-12:00; PH off",
    "name":"31310 Чајетина",
    "desciption":
    "<b>Локација: <\/b>ЧАЈЕТИНА<br\/><b>Назив:  <\/b>31310 ЧАЈЕТИНА<br\/><b>Адреса: <\/b>АЛЕКСАНДРА КАРАЂОРЂЕВИЋА 19<br\/><b>ПАК: <\/b>508829<br\/><b>Радно време: <\/b>08.00-14.30<br\/>субота:08.00-12.00<br\/><b>Телефон:  <\/b>031\/3831-332 031\/3831-330<br\/> <div id='accUsluge' class='panel-group akordion-posta' role='tablist' aria-multiselectable='true'>  <div class='panel' > <div id='spisakUsluga' class='panel-heading' role='tab'>  <p class='panel-title'>  <a href='#usluge' class='collapse-symbol collapsed' data-toggle='collapse'  role='button' aria-expanded='false' aria-controls='usluge'> <b>Услуге<\/b>  <\/a>  <\/p>  <\/div>  <div id='usluge' class='panel-collapse collapse' role='tabpanel' aria-labelledby='spisakUsluga'> ПРИЈЕМ ПОШИЉАКА<\/br>НОВЧАНО ПОСЛОВАЊЕ<\/br>ИСПОРУКА<\/br>ДОСТАВА<\/br>ДОСТАВА ПОСТНЕТ УПУТНИЦА<\/br>ИНТЕРНЕТ УСЛУГЕ<\/br>КЕШ ЕКСПРЕС<\/br>PAKET ZA ISPORUKU<\/br>ПРОДАЈА АКЦИЈА<\/br>WESTERN UNION<\/br> <\/div>  <\/div> <\/div>",
    "amenity":"post_office",
    "phone":"+381 31 3831-332;+381 31 3831-330",
    "ref":"31310",
    "name:sr-Latn":"31310 Čajetina",
    "addr:pak":"508829"},
   "geometry":
   {"type":"Point",
    "coordinates":[19.7171761284002, 43.7504665329948]}},
  {"type":"Feature",
   "properties":
   {"name:sr":"12226 Тополовник",
    "opening_hours":"Mo-Fr 08:00-14:00; PH off",
    "name":"12226 Тополовник",
    "desciption":
    "<b>Локација: <\/b>ТОПОЛОВНИК<br\/><b>Назив:  <\/b>12226 ТОПОЛОВНИК<br\/><b>Адреса: <\/b>ТОПОЛОВНИК ББ<br\/><b>ПАК: <\/b>296001<br\/><b>Радно време: <\/b>08.00-14.00<br\/><b>Телефон:  <\/b>012\/664209<br\/> <div id='accUsluge' class='panel-group akordion-posta' role='tablist' aria-multiselectable='true'>  <div class='panel' > <div id='spisakUsluga' class='panel-heading' role='tab'>  <p class='panel-title'>  <a href='#usluge' class='collapse-symbol collapsed' data-toggle='collapse'  role='button' aria-expanded='false' aria-controls='usluge'> <b>Услуге<\/b>  <\/a>  <\/p>  <\/div>  <div id='usluge' class='panel-collapse collapse' role='tabpanel' aria-labelledby='spisakUsluga'> ПРИЈЕМ ПОШИЉАКА<\/br>НОВЧАНО ПОСЛОВАЊЕ<\/br>ИСПОРУКА<\/br>ДОСТАВА<\/br>ИНТЕРНЕТ УСЛУГЕ<\/br>ПРОДАЈА АКЦИЈА<\/br>WESTERN UNION<\/br> <\/div>  <\/div> <\/div>",
    "amenity":"post_office",
    "phone":"+381 12 664209",
    "ref":"12226",
    "name:sr-Latn":"12226 Topolovnik",
    "addr:pak":"296001"},
   "geometry":
   {"type":"Point",
    "coordinates":[21.4421992580633, 44.720075378312]}},
  {"type":"Feature",
   "properties":
   {"name:sr":"18424 Белољин",
    "opening_hours":"Mo-Fr 07:00-14:30; PH off",
    "name":"18424 Белољин",
    "desciption":
    "<b>Локација: <\/b>БЕЛОЉИН<br\/><b>Назив:  <\/b>18424 БЕЛОЉИН<br\/><b>Адреса: <\/b>БЕЛОЉИН ББ<br\/><b>ПАК: <\/b>653605<br\/><b>Радно време: <\/b>07.00-14.30<br\/><b>Телефон:  <\/b>027\/359-110<br\/> <div id='accUsluge' class='panel-group akordion-posta' role='tablist' aria-multiselectable='true'>  <div class='panel' > <div id='spisakUsluga' class='panel-heading' role='tab'>  <p class='panel-title'>  <a href='#usluge' class='collapse-symbol collapsed' data-toggle='collapse'  role='button' aria-expanded='false' aria-controls='usluge'> <b>Услуге<\/b>  <\/a>  <\/p>  <\/div>  <div id='usluge' class='panel-collapse collapse' role='tabpanel' aria-labelledby='spisakUsluga'> ПРИЈЕМ ПОШИЉАКА<\/br>НОВЧАНО ПОСЛОВАЊЕ<\/br>ИСПОРУКА<\/br>ДОСТАВА<\/br>МЕЊАЧКИ ПОСЛОВИ<\/br>PAKET ZA ISPORUKU<\/br>ПРОДАЈА АКЦИЈА<\/br>WESTERN UNION<\/br> <\/div>  <\/div> <\/div>",
    "amenity":"post_office",
    "phone":"+381 27 359-110",
    "ref":"18424",
    "name:sr-Latn":"18424 Beloljin",
    "addr:pak":"653605"},
   "geometry":
   {"type":"Point",
    "coordinates":[21.4017013590752, 43.2318474934337]}}]}
