{"type":"FeatureCollection",
 "features":
 [{"type":"Feature",
   "properties":
   {"name:sr":"23105 Зрењанин",
    "opening_hours":"Tu,Th 07:30-14:30; PH off",
    "addr:housenumber":"27",
    "name":"23105 Зрењанин",
    "amenity":"post_office",
    "phone":"+381 23 563-023",
    "ref":"23105",
    "name:sr-Latn":"23105 Zrenjanin",
    "addr:pak":"350339",
    "addr:street":"Топличина"},
   "geometry":
   {"type":"Point",
    "coordinates":[20.4072395863657, 45.390112521708]}},
  {"type":"Feature",
   "properties":
   {"name:sr":"19353 Кална",
    "opening_hours":"Mo-Fr 08:00-12:00; PH off",
    "addr:housenumber":"ББ",
    "name":"19353 Кална",
    "amenity":"post_office",
    "phone":"+381 19 760-611",
    "ref":"19353",
    "name:sr-Latn":"19353 Kalna",
    "addr:pak":"618109",
    "addr:street":"Видовданска"},
   "geometry":
   {"type":"Point",
    "coordinates":[22.4251304764592, 43.4087730805338]}},
  {"type":"Feature",
   "properties":
   {"name:sr":"21225 Радичевић",
    "opening_hours":"Mo-Fr 08:00-11:00; PH off",
    "addr:housenumber":"2",
    "name":"21225 Радичевић",
    "amenity":"post_office",
    "phone":"+381 21 809-002",
    "ref":"21225",
    "name:sr-Latn":"21225 Radičević",
    "addr:pak":"381820",
    "addr:street":"Вељка Влаховића"},
   "geometry":
   {"type":"Point",
    "coordinates":[19.9216456439129, 45.5860455619802]}},
  {"type":"Feature",
   "properties":
   {"name:sr":"12227 Баре",
    "opening_hours":"Mo-Fr 07:00-10:00; PH off",
    "addr:housenumber":"ББ",
    "name":"12227 Баре",
    "amenity":"post_office",
    "phone":"+381 12 587526",
    "ref":"12227",
    "name:sr-Latn":"12227 Bare",
    "addr:pak":"294902",
    "addr:street":"Маршала Тита"},
   "geometry":
   {"type":"Point",
    "coordinates":[21.3299855672829, 44.6473848919417]}},
  {"type":"Feature",
   "properties":
   {"name:sr":"21311 Черевић",
    "opening_hours":"Mo-Fr 08:00-14:00; PH off",
    "addr:housenumber":"19",
    "name":"21311 Черевић",
    "amenity":"post_office",
    "phone":"+381 21 2977-034",
    "ref":"21311",
    "name:sr-Latn":"21311 Čerević",
    "addr:pak":"396930",
    "addr:street":"Краља Петра првог"},
   "geometry":
   {"type":"Point",
    "coordinates":[19.6668969804951, 45.2187380109911]}},
  {"type":"Feature",
   "properties":
   {"name:sr":"17520 Бујановац",
    "opening_hours":"Mo-Fr 08:00-17:00; Sa 08:00-13:00; PH off",
    "addr:housenumber":"244",
    "name":"17520 Бујановац",
    "amenity":"post_office",
    "phone":"+381 17 407-052",
    "ref":"17520",
    "name:sr-Latn":"17520 Bujanovac",
    "addr:pak":"634126",
    "addr:street":"Карађорђа Петровића"},
   "geometry":
   {"type":"Point",
    "coordinates":[21.7669277849139, 42.4612063294935]}},
  {"type":"Feature",
   "properties":
   {"name:sr":"11125 Београд 51",
    "opening_hours":"Mo-Fr 09:00-16:00; PH off",
    "addr:housenumber":"10",
    "name":"11125 Београд 51",
    "amenity":"post_office",
    "phone":"+381 11 3223-451",
    "ref":"11125",
    "name:sr-Latn":"11125 Beograd 51",
    "addr:pak":"106102",
    "addr:street":"Булевар Деспота Стефана"},
   "geometry":
   {"type":"Point",
    "coordinates":[20.4627491512207, 44.8164556289441]}},
  {"type":"Feature",
   "properties":
   {"name:sr":"22248 Јамена",
    "opening_hours":"Mo-Fr 07:00-10:30; PH off",
    "addr:housenumber":"24",
    "name":"22248 Јамена",
    "amenity":"post_office",
    "phone":"+381 22 734-110",
    "ref":"22248",
    "name:sr-Latn":"22248 Jamena",
    "addr:pak":"328904",
    "addr:street":"кнеза Лазара"},
   "geometry":
   {"type":"Point",
    "coordinates":[19.063394079672, 44.8843379170665]}},
  {"type":"Feature",
   "properties":
   {"amenity":"post_office",
    "name":"11412 Јагњило",
    "name:sr":"11412 Јагњило",
    "name:sr-Latn":"11412 Jagnjilo",
    "ref":"11412",
    "opening_hours":"Mo-Fr 07:00-14:00; PH off",
    "phone":"+381 11 8217-490",
    "addr:pak":"223609"},
   "geometry":
   {"type":"Point",
    "coordinates":[20.7299923283047, 44.3750704010853]}},
  {"type":"Feature",
   "properties":
   {"name:sr":"11140 Београд 117",
    "opening_hours":"Mo-Fr 10:00-16:00; Sa 10:00-14:00; PH off",
    "addr:housenumber":"63",
    "name":"11140 Београд 117",
    "amenity":"post_office",
    "phone":"+381 11 3565-439",
    "ref":"11140",
    "name:sr-Latn":"11140 Beograd 117",
    "addr:pak":"180512",
    "addr:street":"Кнеза Вишеслава"},
   "geometry":
   {"type":"Point",
    "coordinates":[20.4272925684309, 44.7443448219479]}},
  {"type":"Feature",
   "properties":
   {"name:sr":"11174 Београд 43",
    "opening_hours":"Mo-Fr 09:00-16:00; PH off",
    "addr:housenumber":"221",
    "name":"11174 Београд 43",
    "amenity":"post_office",
    "phone":"+381 11 3714-095;+381 11 6159-040",
    "ref":"11174",
    "name:sr-Latn":"11174 Beograd 43",
    "addr:pak":"191254",
    "addr:street":"Јурија Гагарина"},
   "geometry":
   {"type":"Point",
    "coordinates":[20.3771183196923, 44.7975043314933]}},
  {"type":"Feature",
   "properties":
   {"name:sr":"25282 Гаково",
    "opening_hours":"Mo-Fr 07:00-14:00; PH off",
    "addr:housenumber":"1Б",
    "name":"25282 Гаково",
    "amenity":"post_office",
    "phone":"+381 25 866-611",
    "ref":"25282",
    "name:sr-Latn":"25282 Gakovo",
    "addr:pak":"429301",
    "addr:street":"Жарка Зрењанина"},
   "geometry":
   {"type":"Point",
    "coordinates":[19.0598326974972, 45.9010887098524]}},
  {"type":"Feature",
   "properties":
   {"name:sr":"36310 Сјеница",
    "opening_hours":"Mo-Fr 07:30-19:30; Sa 08:00-15:00; PH off",
    "addr:housenumber":"1",
    "name":"36310 Сјеница",
    "amenity":"post_office",
    "phone":"+381 20 741-210;+381 20 741-240;+381 20 741-900",
    "ref":"36310",
    "name:sr-Latn":"36310 Sjenica",
    "addr:pak":"574441",
    "addr:street":"Милорада Јовановића"},
   "geometry":
   {"type":"Point",
    "coordinates":[20.0008041160321, 43.2730306181401]}},
  {"type":"Feature",
   "properties":
   {"amenity":"post_office",
    "name":"37206 Дворане",
    "name:sr":"37206 Дворане",
    "name:sr-Latn":"37206 Dvorane",
    "ref":"37206",
    "opening_hours":"Mo-Fr 07:00-10:00; PH off",
    "phone":"+381 37 698-100",
    "addr:pak":"676111"},
   "geometry":
   {"type":"Point",
    "coordinates":[21.4107766128012, 43.499331442512]}},
  {"type":"Feature",
   "properties":
   {"name:sr":"26113 Панчево 13",
    "opening_hours":
    "Mo-Fr 09:00-17:00; Sa 09:00-13:00; PH 08:00-12:00",
    "addr:housenumber":"8К",
    "name":"26113 Панчево 13",
    "amenity":"post_office",
    "phone":"+381 13 2300-005",
    "ref":"26113",
    "name:sr-Latn":"26113 Pančevo 13",
    "addr:pak":"301023",
    "addr:street":"Доситеја Обрадовића"},
   "geometry":
   {"type":"Point",
    "coordinates":[20.6405479373468, 44.8629721116705]}},
  {"type":"Feature",
   "properties":
   {"name:sr":"35221 Ракитово",
    "opening_hours":"Mo-Fr 07:00-10:00; PH off",
    "addr:housenumber":"1",
    "name":"35221 Ракитово",
    "amenity":"post_office",
    "phone":"+381 35 8200-035",
    "ref":"35221",
    "name:sr-Latn":"35221 Rakitovo",
    "addr:pak":"584153",
    "addr:street":"Драгана Симијоновића Сикија"},
   "geometry":
   {"type":"Point",
    "coordinates":[21.2945560667936, 43.9910749227589]}},
  {"type":"Feature",
   "properties":
   {"amenity":"post_office",
    "name":"15307 Лешница",
    "name:sr":"15307 Лешница",
    "name:sr-Latn":"15307 Lešnica",
    "ref":"15307",
    "opening_hours":"Mo-Sa 08:00-14:00; PH off",
    "phone":"+381 15 841-017",
    "addr:pak":"263779"},
   "geometry":
   {"type":"Point",
    "coordinates":[19.3126161056852, 44.6534646224934]}},
  {"type":"Feature",
   "properties":
   {"name:sr":"11431 Колари",
    "opening_hours":"Mo-Fr 07:00-14:00; PH off",
    "addr:housenumber":"2",
    "name":"11431 Колари",
    "amenity":"post_office",
    "phone":"+381 26 4711-014",
    "ref":"11431",
    "name:sr-Latn":"11431 Kolari",
    "addr:pak":"234424",
    "addr:street":"Смедеревска"},
   "geometry":
   {"type":"Point",
    "coordinates":[20.8979592310361, 44.5838280809459]}},
  {"type":"Feature",
   "properties":
   {"amenity":"post_office",
    "name":"18246 Равна Дубрава",
    "name:sr":"18246 Равна Дубрава",
    "name:sr-Latn":"18246 Ravna Dubrava",
    "ref":"18246",
    "opening_hours":"Tu,Th 07:00-10:00; PH off",
    "phone":"+381 18 866-306",
    "addr:pak":"693010"},
   "geometry":
   {"type":"Point",
    "coordinates":[22.1928336017527, 43.0775049373308]}},
  {"type":"Feature",
   "properties":
   {"name:sr":"23208 Елемир",
    "opening_hours":"Mo-Fr 07:30-13:30; Sa 07:30-11:30; PH off",
    "addr:housenumber":"32",
    "name":"23208 Елемир",
    "amenity":"post_office",
    "phone":"+381 23 593-453",
    "ref":"23208",
    "name:sr-Latn":"23208 Elemir",
    "addr:pak":"358004",
    "addr:street":"Жарка Зрењанина"},
   "geometry":
   {"type":"Point",
    "coordinates":[20.2998487412853, 45.439447763717]}},
  {"type":"Feature",
   "properties":
   {"amenity":"post_office",
    "name":"36323 Лескова",
    "name:sr":"36323 Лескова",
    "name:sr-Latn":"36323 Leskova",
    "ref":"36323",
    "opening_hours":"We,Fr 08:00-14:00; PH off",
    "phone":"+381 20 452-602",
    "addr:pak":"576420"},
   "geometry":
   {"type":"Point",
    "coordinates":[20.1704633182036, 43.0473107385401]}},
  {"type":"Feature",
   "properties":
   {"name:sr":"22000 Сремска Митровица",
    "opening_hours":"Mo-Fr 08:00-19:00; Sa 08:00-14:00; PH off",
    "addr:housenumber":"2",
    "name":"22000 Сремска Митровица",
    "amenity":"post_office",
    "phone":"+381 22 600-633;+381 22 600-613;+381 22 600-615",
    "ref":"22000",
    "name:sr-Latn":"22000 Sremska Mitrovica",
    "addr:pak":"320701",
    "addr:street":"Краља Петра првог"},
   "geometry":
   {"type":"Point",
    "coordinates":[19.6089543606697, 44.9690167734333]}},
  {"type":"Feature",
   "properties":
   {"name:sr":"18112 Ниш",
    "opening_hours":"Mo-Fr 10:00-17:00; Sa 08:00-14:00; PH off",
    "addr:housenumber":"999",
    "name":"18112 Ниш",
    "amenity":"post_office",
    "phone":"+381 18 518-152;+381 18 257-329",
    "ref":"18112",
    "name:sr-Latn":"18112 Niš",
    "addr:pak":"700309",
    "addr:street":"Обреновићева"},
   "geometry":
   {"type":"Point",
    "coordinates":[21.8937384343924, 43.3179703694799]}},
  {"type":"Feature",
   "properties":
   {"name:sr":"19210 Бор 1",
    "opening_hours":"Mo-Fr 07:00-19:00; Sa 08:00-14:00; PH off",
    "addr:housenumber":"1",
    "name":"19210 Бор 1",
    "amenity":"post_office",
    "phone":"+381 30 453-313;+381 30 453-323",
    "ref":"19210",
    "name:sr-Latn":"19210 Bor 1",
    "addr:pak":"601010",
    "addr:street":"Ђорђа Вајферта"},
   "geometry":
   {"type":"Point",
    "coordinates":[22.0984294516382, 44.0781560286896]}},
  {"type":"Feature",
   "properties":
   {"amenity":"post_office",
    "name":"12221 Мајиловац",
    "name:sr":"12221 Мајиловац",
    "name:sr-Latn":"12221 Majilovac",
    "ref":"12221",
    "opening_hours":"Mo-Fr 08:00-14:00; PH off",
    "phone":"+381 12 274906",
    "addr:pak":"295701"},
   "geometry":
   {"type":"Point",
    "coordinates":[21.3629925997307, 44.6922155719369]}},
  {"type":"Feature",
   "properties":
   {"name:sr":"11426 Мељак",
    "opening_hours":"Mo-Fr 09:00-15:00; Sa 09:00-14:30; PH off",
    "addr:housenumber":"32А",
    "name":"11426 Мељак",
    "amenity":"post_office",
    "phone":"+381 11 8340-033;+381 11 8340-609",
    "ref":"11426",
    "name:sr-Latn":"11426 Meljak",
    "addr:pak":"217921",
    "addr:street":"Маршала Тита"},
   "geometry":
   {"type":"Point",
    "coordinates":[20.3672455167855, 44.6222861572964]}},
  {"type":"Feature",
   "properties":
   {"amenity":"post_office",
    "name":"16214 Стајковце",
    "name:sr":"16214 Стајковце",
    "name:sr-Latn":"16214 Stajkovce",
    "ref":"16214",
    "opening_hours":"Mo-Fr 08:00-11:00; PH off",
    "phone":"+381 16 3869-012",
    "addr:pak":"645604"},
   "geometry":
   {"type":"Point",
    "coordinates":[22.0618576333383, 42.9856419042817]}},
  {"type":"Feature",
   "properties":
   {"name:sr":"11276 Јаково",
    "opening_hours":"Mo-Fr 08:00-14:00; PH off",
    "addr:housenumber":"12",
    "name":"11276 Јаково",
    "amenity":"post_office",
    "phone":"+381 11 3718-013;+381 11 8416-610",
    "ref":"11276",
    "name:sr-Latn":"11276 Jakovo",
    "addr:pak":"202042",
    "addr:street":"Проте Стаматовића"},
   "geometry":
   {"type":"Point",
    "coordinates":[20.2605372231527, 44.753339402779]}},
  {"type":"Feature",
   "properties":
   {"name:sr":"25270 Бездан",
    "opening_hours":"Mo-Fr 07:00-13:00; Sa 07:30-11:30; PH off",
    "addr:housenumber":"36",
    "name":"25270 Бездан",
    "amenity":"post_office",
    "phone":"+381 25 465-165",
    "ref":"25270",
    "name:sr-Latn":"25270 Bezdan",
    "addr:pak":"426002",
    "addr:street":"Жртава Фашизма"},
   "geometry":
   {"type":"Point",
    "coordinates":[18.9230206834918, 45.8522206400047]}},
  {"type":"Feature",
   "properties":
   {"name:sr":"23264 Фаркаждин",
    "opening_hours":"Mo-Fr 07:00-12:00; PH off",
    "addr:housenumber":"1",
    "name":"23264 Фаркаждин",
    "amenity":"post_office",
    "phone":"+381 23 3868-020",
    "ref":"23264",
    "name:sr-Latn":"23264 Farkaždin",
    "addr:pak":"356808",
    "addr:street":"Трг ослобођења"},
   "geometry":
   {"type":"Point",
    "coordinates":[20.4733043170521, 45.1886612712558]}},
  {"type":"Feature",
   "properties":
   {"name:sr":"11562 Јунковац",
    "opening_hours":"Mo-Fr 08:00-14:00; PH off",
    "addr:housenumber":"ББ",
    "name":"11562 Јунковац",
    "amenity":"post_office",
    "phone":"+381 11 8177-131",
    "ref":"11562",
    "name:sr-Latn":"11562 Junkovac",
    "addr:pak":"217302",
    "addr:street":"Трг ослобођења"},
   "geometry":
   {"type":"Point",
    "coordinates":[20.3517975337808, 44.4494101372633]}},
  {"type":"Feature",
   "properties":
   {"name:sr":"23109 Зрењанин",
    "opening_hours":"Mo-Fr 08:00-14:00; Sa 08:00-12:00; PH off",
    "addr:housenumber":"ББ",
    "name":"23109 Зрењанин",
    "amenity":"post_office",
    "phone":"+381 23 562-055",
    "ref":"23109",
    "name:sr-Latn":"23109 Zrenjanin",
    "addr:pak":"351703",
    "addr:street":"Београдска"},
   "geometry":
   {"type":"Point",
    "coordinates":[20.4153969613884, 45.3732503890008]}},
  {"type":"Feature",
   "properties":
   {"name:sr":"23271 Кумане",
    "opening_hours":"Mo-Fr 07:30-13:30; Sa 07:30-11:30; PH off",
    "addr:housenumber":"2",
    "name":"23271 Кумане",
    "amenity":"post_office",
    "phone":"+381 23 786-118",
    "ref":"23271",
    "name:sr-Latn":"23271 Kumane",
    "addr:pak":"366601",
    "addr:street":"Трг Слободе"},
   "geometry":
   {"type":"Point",
    "coordinates":[20.229656778794, 45.5369349762147]}},
  {"type":"Feature",
   "properties":
   {"name:sr":"23252 Бока",
    "opening_hours":"Mo-Fr 07:30-14:00; PH off",
    "addr:housenumber":"34",
    "name":"23252 Бока",
    "amenity":"post_office",
    "phone":"+381 23 846-700",
    "ref":"23252",
    "name:sr-Latn":"23252 Boka",
    "addr:pak":"368639",
    "addr:street":"Иве Лоле Рибара"},
   "geometry":
   {"type":"Point",
    "coordinates":[20.8284494865393, 45.3558250259714]}},
  {"type":"Feature",
   "properties":
   {"name:sr":"21466 Куцура",
    "opening_hours":"Mo-Fr 08:00-14:00; Sa 09:00-13:00; PH off",
    "addr:housenumber":"1Е",
    "name":"21466 Куцура",
    "amenity":"post_office",
    "phone":"+381 21 727-002",
    "ref":"21466",
    "name:sr-Latn":"21466 Kucura",
    "addr:pak":"398824",
    "addr:street":"Ослобођења"},
   "geometry":
   {"type":"Point",
    "coordinates":[19.5842907876252, 45.5201665236698]}},
  {"type":"Feature",
   "properties":
   {"amenity":"post_office",
    "name":"18412 Житорађа",
    "name:sr":"18412 Житорађа",
    "name:sr-Latn":"18412 Žitorađa",
    "ref":"18412",
    "opening_hours":"Mo-Fr 07:30-14:00; Sa 07:30-12:00; PH off",
    "phone":"+381 27 8362-120;+381 27 8362-130",
    "addr:pak":"658101"},
   "geometry":
   {"type":"Point",
    "coordinates":[21.7106860314834, 43.189098386391]}},
  {"type":"Feature",
   "properties":
   {"name:sr":"11505 Забрежје",
    "opening_hours":"Mo-Fr 08:00-14:00; Sa 08:00-12:00; PH off",
    "addr:housenumber":"1",
    "name":"11505 Забрежје",
    "amenity":"post_office",
    "phone":"+381 11 8755-919",
    "ref":"11505",
    "name:sr-Latn":"11505 Zabrežje",
    "addr:pak":"213620",
    "addr:street":"Савска"},
   "geometry":
   {"type":"Point",
    "coordinates":[20.2023060189878, 44.6832427795698]}},
  {"type":"Feature",
   "properties":
   {"amenity":"post_office",
    "name":"36206 Витановац",
    "name:sr":"36206 Витановац",
    "name:sr-Latn":"36206 Vitanovac",
    "ref":"36206",
    "opening_hours":"Mo-Fr 09:00-15:00; PH off",
    "phone":"+381 36 5871-112",
    "addr:pak":"566101"},
   "geometry":
   {"type":"Point",
    "coordinates":[20.8017011812741, 43.7285700310925]}},
  {"type":"Feature",
   "properties":
   {"name:sr":"24114 Суботица",
    "opening_hours":"Mo-Fr 08:00-14:00; PH off",
    "addr:housenumber":"1",
    "name":"24114 Суботица",
    "amenity":"post_office",
    "phone":"+381 24 555-792",
    "ref":"24114",
    "name:sr-Latn":"24114 Subotica",
    "addr:pak":"450229",
    "addr:street":"Сенћански пут"},
   "geometry":
   {"type":"Point",
    "coordinates":[19.6726374927787, 46.0962117435474]}},
  {"type":"Feature",
   "properties":
   {"name:sr":"14253 Осечина",
    "opening_hours":"Mo-Sa 08:00-14:00; PH off",
    "addr:housenumber":"1",
    "name":"14253 Осечина",
    "amenity":"post_office",
    "phone":"+381 14 294-057;+381 14 451-020",
    "ref":"14253",
    "name:sr-Latn":"14253 Osečina",
    "addr:pak":"255106",
    "addr:street":"Браће Недића"},
   "geometry":
   {"type":"Point",
    "coordinates":[19.6006187410831, 44.3730570481395]}},
  {"type":"Feature",
   "properties":
   {"name:sr":"19225 Сиколе",
    "opening_hours":"Mo,We,Fr 08:00-12:00; PH off",
    "addr:housenumber":"1",
    "name":"19225 Сиколе",
    "amenity":"post_office",
    "phone":"+381 19 475-822",
    "ref":"19225",
    "name:sr-Latn":"19225 Sikole",
    "addr:pak":"612904",
    "addr:street":"Вука Караџића"},
   "geometry":
   {"type":"Point",
    "coordinates":[22.3037525260331, 44.1758046033168]}},
  {"type":"Feature",
   "properties":
   {"name:sr":"35247 Плана",
    "opening_hours":"Mo-Fr 07:00-11:00; PH off",
    "addr:housenumber":"ББ",
    "name":"35247 Плана",
    "amenity":"post_office",
    "phone":"+381 35 532-400",
    "ref":"35247",
    "name:sr-Latn":"35247 Plana",
    "addr:pak":"593113",
    "addr:street":"Иве Андрића"},
   "geometry":
   {"type":"Point",
    "coordinates":[21.544870879492, 43.8208994722373]}},
  {"type":"Feature",
   "properties":
   {"amenity":"post_office",
    "name":"18355 Темска",
    "name:sr":"18355 Темска",
    "name:sr-Latn":"18355 Temska",
    "ref":"18355",
    "opening_hours":"Mo-Fr 07:00-10:00; PH off",
    "phone":"+381 10 371-117",
    "addr:pak":"624301"},
   "geometry":
   {"type":"Point",
    "coordinates":[22.5429469504597, 43.2613747980157]}},
  {"type":"Feature",
   "properties":
   {"name:sr":"11305 Смедерево 5",
    "opening_hours":"Mo-Fr 08:00-15:00; Sa 08:00-13:00; PH off",
    "addr:housenumber":"14",
    "name":"11305 Смедерево 5",
    "amenity":"post_office",
    "phone":"+381 26 634-054",
    "ref":"11305",
    "name:sr-Latn":"11305 Smederevo 5",
    "addr:pak":"230123",
    "addr:street":"Краља Петра првог"},
   "geometry":
   {"type":"Point",
    "coordinates":[20.9236692662787, 44.6660564116166]}},
  {"type":"Feature",
   "properties":
   {"name:sr":"24400 Сента",
    "opening_hours":"Mo-Fr 07:00-19:00; Sa 07:00-13:00; PH off",
    "addr:housenumber":"2",
    "name":"24400 Сента",
    "amenity":"post_office",
    "phone":"+381 24 815-700;+381 24 815-701;+381 24 815-707",
    "ref":"24400",
    "name:sr-Latn":"24400 Senta",
    "addr:pak":"446692",
    "addr:street":"Поштанска"},
   "geometry":
   {"type":"Point",
    "coordinates":[20.0884909116301, 45.9302500148784]}},
  {"type":"Feature",
   "properties":
   {"name:sr":"25220 Црвенка",
    "opening_hours":"Mo-Fr 07:00-19:00; Sa 08:00-12:00; PH off",
    "addr:housenumber":"125",
    "name":"25220 Црвенка",
    "amenity":"post_office",
    "phone":"+381 25 465-162",
    "ref":"25220",
    "name:sr-Latn":"25220 Crvenka",
    "addr:pak":"438601",
    "addr:street":"Маршала Тита"},
   "geometry":
   {"type":"Point",
    "coordinates":[19.4541125537327, 45.6591036462177]}},
  {"type":"Feature",
   "properties":
   {"name:sr":"31108 Ужице",
    "opening_hours":"Mo-Fr 08:00-16:00; PH off",
    "addr:housenumber":"3",
    "name":"31108 Ужице",
    "amenity":"post_office",
    "phone":"+381 31 ;+381 31 522-964",
    "ref":"31108",
    "name:sr-Latn":"31108 Užice",
    "addr:pak":"501403",
    "addr:street":"Ужичке Републике"},
   "geometry":
   {"type":"Point",
    "coordinates":[19.8344013908816, 43.856712469649]}},
  {"type":"Feature",
   "properties":
   {"name:sr":"19250 Мајданпек",
    "opening_hours":"Mo-Fr 07:00-19:00; Sa 08:00-13:00; PH off",
    "addr:housenumber":"44",
    "name":"19250 Мајданпек",
    "amenity":"post_office",
    "phone":"+381 30 453-331;+381 30 581-643",
    "ref":"19250",
    "name:sr-Latn":"19250 Majdanpek",
    "addr:pak":"605002",
    "addr:street":"Капетанска"},
   "geometry":
   {"type":"Point",
    "coordinates":[21.9408926231976, 44.4250114694462]}},
  {"type":"Feature",
   "properties":
   {"name:sr":"35256 Сикирица",
    "opening_hours":"Mo-Fr 08:00-11:00; PH off",
    "addr:housenumber":"ББ",
    "name":"35256 Сикирица",
    "amenity":"post_office",
    "phone":"+381 35 8548-500",
    "ref":"35256",
    "name:sr-Latn":"35256 Sikirica",
    "addr:pak":"592602",
    "addr:street":"Бранка Крсмановића"},
   "geometry":
   {"type":"Point",
    "coordinates":[21.4142089456463, 43.7803882303319]}},
  {"type":"Feature",
   "properties":
   {"name:sr":"11212 Овча",
    "opening_hours":"Mo-Fr 08:00-14:00; PH off",
    "addr:housenumber":"78А",
    "name":"11212 Овча",
    "amenity":"post_office",
    "phone":"+381 11 3319-988",
    "ref":"11212",
    "name:sr-Latn":"11212 Ovča",
    "addr:pak":"131810",
    "addr:street":"Михаја Еминескуа"},
   "geometry":
   {"type":"Point",
    "coordinates":[20.5366498550798, 44.8880397823303]}},
  {"type":"Feature",
   "properties":
   {"name:sr":"22414 Суботиште",
    "opening_hours":"Tu,Th 07:00-10:30; PH off",
    "addr:housenumber":"28",
    "name":"22414 Суботиште",
    "amenity":"post_office",
    "phone":"+381 22 482-511",
    "ref":"22414",
    "name:sr-Latn":"22414 Subotište",
    "addr:pak":"338307",
    "addr:street":"Каменова"},
   "geometry":
   {"type":"Point",
    "coordinates":[19.9608454088732, 44.8447354910519]}},
  {"type":"Feature",
   "properties":
   {"amenity":"post_office",
    "name":"12258 Клење",
    "name:sr":"12258 Клење",
    "name:sr-Latn":"12258 Klenje",
    "ref":"12258",
    "opening_hours":"Mo-Fr 07:00-12:00; PH off",
    "phone":"+381 12 887180",
    "addr:pak":"298601"},
   "geometry":
   {"type":"Point",
    "coordinates":[21.5300632865682, 44.6012837535058]}},
  {"type":"Feature",
   "properties":
   {"name:sr":"26333 Павлиш",
    "opening_hours":"Mo-Fr 07:00-14:00; PH off",
    "addr:housenumber":"85",
    "name":"26333 Павлиш",
    "amenity":"post_office",
    "phone":"+381 13 2891-146",
    "ref":"26333",
    "name:sr-Latn":"26333 Pavliš",
    "addr:pak":"312108",
    "addr:street":"Жарка Зрењанина"},
   "geometry":
   {"type":"Point",
    "coordinates":[21.2389089810076, 45.1052628628646]}},
  {"type":"Feature",
   "properties":
   {"amenity":"post_office",
    "name":"15312 Завлака",
    "name:sr":"15312 Завлака",
    "name:sr-Latn":"15312 Zavlaka",
    "ref":"15312",
    "opening_hours":"Mo-Sa 08:00-14:00; PH off",
    "phone":"+381 15 592-011",
    "addr:pak":"265019"},
   "geometry":
   {"type":"Point",
    "coordinates":[19.4840452052131, 44.4549622023404]}},
  {"type":"Feature",
   "properties":
   {"name:sr":"22322 Нови Карловци",
    "opening_hours":"Mo-Fr 07:00-14:00; PH off",
    "addr:housenumber":"24",
    "name":"22322 Нови Карловци",
    "amenity":"post_office",
    "phone":"+381 22 584-411",
    "ref":"22322",
    "name:sr-Latn":"22322 Novi Karlovci",
    "addr:pak":"348366",
    "addr:street":"Главна"},
   "geometry":
   {"type":"Point",
    "coordinates":[20.1780792342244, 45.0789372461826]}},
  {"type":"Feature",
   "properties":
   {"name:sr":"26234 Банатски Брестовац",
    "opening_hours":"Mo-Fr 07:00-14:00; PH off",
    "addr:housenumber":"7",
    "name":"26234 Банатски Брестовац",
    "amenity":"post_office",
    "phone":"+381 13 626-095",
    "ref":"26234",
    "name:sr-Latn":"26234 Banatski Brestovac",
    "addr:pak":"307618",
    "addr:street":"Маршала Тита"},
   "geometry":
   {"type":"Point",
    "coordinates":[20.8096839304948, 44.7280688652496]}},
  {"type":"Feature",
   "properties":
   {"name:sr":"12315 Рашанац",
    "opening_hours":"Mo-Fr 08:00-14:00; PH off",
    "addr:housenumber":"ББ",
    "name":"12315 Рашанац",
    "amenity":"post_office",
    "phone":"+381 12 340232",
    "ref":"12315",
    "name:sr-Latn":"12315 Rašanac",
    "addr:pak":"283316",
    "addr:street":"Пожаревачка"},
   "geometry":
   {"type":"Point",
    "coordinates":[21.3394997357285, 44.4552366587161]}},
  {"type":"Feature",
   "properties":
   {"amenity":"post_office",
    "name":"31258 Бачевци",
    "name:sr":"31258 Бачевци",
    "name:sr-Latn":"31258 Bačevci",
    "ref":"31258",
    "opening_hours":"Mo-Fr 08:00-11:00; PH off",
    "phone":"+381 31 856-720",
    "addr:pak":"507920"},
   "geometry":
   {"type":"Point",
    "coordinates":[19.5092820322766, 44.0890276454281]}},
  {"type":"Feature",
   "properties":
   {"name:sr":"22428 Попинци",
    "opening_hours":"Mo-Fr 07:00-10:30; PH off",
    "addr:housenumber":"4",
    "name":"22428 Попинци",
    "amenity":"post_office",
    "phone":"+381 22 484-512",
    "ref":"22428",
    "name:sr-Latn":"22428 Popinci",
    "addr:pak":"338107",
    "addr:street":"ЈНА"},
   "geometry":
   {"type":"Point",
    "coordinates":[20.0059900676309, 44.9279898938793]}},
  {"type":"Feature",
   "properties":
   {"amenity":"post_office",
    "name":"11509 Скела",
    "name:sr":"11509 Скела",
    "name:sr-Latn":"11509 Skela",
    "ref":"11509",
    "opening_hours":"Mo-Fr 08:00-14:00; PH off",
    "phone":"+381 11 8770-218",
    "addr:pak":"212925"},
   "geometry":
   {"type":"Point",
    "coordinates":[20.0533392015722, 44.6806062780686]}},
  {"type":"Feature",
   "properties":
   {"name:sr":"11271 Сурчин",
    "opening_hours":"Mo-Fr 08:00-19:00; Sa 08:00-14:00; PH off",
    "addr:housenumber":"73",
    "name":"11271 Сурчин",
    "amenity":"post_office",
    "phone":"+381 11 3718-005;+381 11 8440-389",
    "ref":"11271",
    "name:sr-Latn":"11271 Surčin",
    "addr:pak":"201802",
    "addr:street":"Војвођанска"},
   "geometry":
   {"type":"Point",
    "coordinates":[20.2690576314932, 44.7910656149513]}},
  {"type":"Feature",
   "properties":
   {"name:sr":"11224 Врчин",
    "opening_hours":"Mo-Fr 08:00-18:00; Sa 08:00-14:00; PH off",
    "addr:housenumber":"2",
    "name":"11224 Врчин",
    "amenity":"post_office",
    "phone":"+381 11 8054-363",
    "ref":"11224",
    "name:sr-Latn":"11224 Vrčin",
    "addr:pak":"158311",
    "addr:street":"Саве Ковачевића"},
   "geometry":
   {"type":"Point",
    "coordinates":[20.5920662535468, 44.6628833194222]}},
  {"type":"Feature",
   "properties":
   {"amenity":"post_office",
    "name":"31337 БАЊА КОД ПрибојА",
    "name:sr":"31337 БАЊА КОД ПрибојА",
    "name:sr-Latn":"31337 BANjA KOD PribojA",
    "ref":"31337",
    "opening_hours":"Mo-Fr 08:00-15:00; PH off",
    "phone":"+381 33 2448-896",
    "addr:pak":"515610"},
   "geometry":
   {"type":"Point",
    "coordinates":[19.5599313175855, 43.5458187836721]}},
  {"type":"Feature",
   "properties":
   {"amenity":"post_office",
    "name":"11408 Велика Крсна",
    "name:sr":"11408 Велика Крсна",
    "name:sr-Latn":"11408 Velika Krsna",
    "ref":"11408",
    "opening_hours":"Mo-Fr 07:00-14:00; PH off",
    "phone":"+381 11 8215-090",
    "addr:pak":"222605"},
   "geometry":
   {"type":"Point",
    "coordinates":[20.8014521011177, 44.4782159529166]}},
  {"type":"Feature",
   "properties":
   {"name:sr":"22304 Нови Бановци",
    "opening_hours":"Mo-Fr 07:00-14:00; PH off",
    "addr:housenumber":"91",
    "name":"22304 Нови Бановци",
    "amenity":"post_office",
    "phone":"+381 22 341-310",
    "ref":"22304",
    "name:sr-Latn":"22304 Novi Banovci",
    "addr:pak":"342339",
    "addr:street":"Светосавска"},
   "geometry":
   {"type":"Point",
    "coordinates":[20.280967165943, 44.9563932139591]}},
  {"type":"Feature",
   "properties":
   {"amenity":"post_office",
    "name":"18225 Катун",
    "name:sr":"18225 Катун",
    "name:sr-Latn":"18225 Katun",
    "ref":"18225",
    "opening_hours":"Mo-Fr 07:30-11:00; PH off",
    "phone":"+381 18 4848-106",
    "addr:pak":"684410"},
   "geometry":
   {"type":"Point",
    "coordinates":[21.7857485749102, 43.4930188337494]}},
  {"type":"Feature",
   "properties":
   {"name:sr":"16230 Лебане",
    "opening_hours":"Mo-Fr 07:00-14:00; Sa 08:00-13:00; PH off",
    "addr:housenumber":"99",
    "name":"16230 Лебане",
    "amenity":"post_office",
    "phone":"+381 16 843049;+381 16 843988",
    "ref":"16230",
    "name:sr-Latn":"16230 Lebane",
    "addr:pak":"647499",
    "addr:street":"Цара Душана"},
   "geometry":
   {"type":"Point",
    "coordinates":[21.7357899855819, 42.9168255270521]}},
  {"type":"Feature",
   "properties":
   {"name:sr":"11189 Београд 71",
    "opening_hours":"Mo-Fr 09:00-16:00; PH off",
    "addr:housenumber":"155",
    "name":"11189 Београд 71",
    "amenity":"post_office",
    "phone":"+381 11 2692-096;+381 11 2604-230",
    "ref":"11189",
    "name:sr-Latn":"11189 Beograd 71",
    "addr:pak":"190281",
    "addr:street":"Тошин бунар"},
   "geometry":
   {"type":"Point",
    "coordinates":[20.3990382169002, 44.8236901138582]}},
  {"type":"Feature",
   "properties":
   {"name:sr":"16220 Грделица",
    "opening_hours":"Mo-Fr 07:30-14:30; PH off",
    "addr:housenumber":"ББ",
    "name":"16220 Грделица",
    "amenity":"post_office",
    "phone":"+381 16 3426037;+381 16 3426724",
    "ref":"16220",
    "name:sr-Latn":"16220 Grdelica",
    "addr:pak":"644104",
    "addr:street":"Двадесетдеветог новембра"},
   "geometry":
   {"type":"Point",
    "coordinates":[22.0728487145605, 42.8923611556782]}},
  {"type":"Feature",
   "properties":
   {"name:sr":"22239 Шид",
    "opening_hours":"Mo-Fr 09:00-16:00; PH off",
    "addr:housenumber":"5",
    "name":"22239 Шид",
    "amenity":"post_office",
    "phone":"+381 22 711-797",
    "ref":"22239",
    "name:sr-Latn":"22239 Šid",
    "addr:pak":"326389",
    "addr:street":"Насеље Исток"},
   "geometry":
   {"type":"Point",
    "coordinates":[19.2412552544307, 45.1223856483712]}},
  {"type":"Feature",
   "properties":
   {"name:sr":"12206 Брадарац",
    "opening_hours":"Mo-Fr 07:00-13:00; PH off",
    "addr:housenumber":"ББ",
    "name":"12206 Брадарац",
    "amenity":"post_office",
    "phone":"+381 12 261512",
    "ref":"12206",
    "name:sr-Latn":"12206 Bradarac",
    "addr:pak":"294802",
    "addr:street":"Светосавска"},
   "geometry":
   {"type":"Point",
    "coordinates":[21.2292433841924, 44.6909294130624]}},
  {"type":"Feature",
   "properties":
   {"amenity":"post_office",
    "name":"16254 Богојевце",
    "name:sr":"16254 Богојевце",
    "name:sr-Latn":"16254 Bogojevce",
    "ref":"16254",
    "opening_hours":"Mo-Fr 07:00-13:00; PH off",
    "phone":"+381 16 732666",
    "addr:pak":"649004"},
   "geometry":
   {"type":"Point",
    "coordinates":[21.9591636296488, 43.0494337170925]}},
  {"type":"Feature",
   "properties":
   {"name:sr":"18400 Прокупље",
    "opening_hours":"Mo-Fr 07:00-19:00; Sa 07:30-15:00; PH off",
    "addr:housenumber":"6",
    "name":"18400 Прокупље",
    "amenity":"post_office",
    "phone":"+381 27 320-313;+381 27 320-315",
    "ref":"18400",
    "name:sr-Latn":"18400 Prokuplje",
    "addr:pak":"650401",
    "addr:street":"Југ Богданова"},
   "geometry":
   {"type":"Point",
    "coordinates":[21.586216624833, 43.2338018756831]}},
  {"type":"Feature",
   "properties":
   {"amenity":"post_office",
    "name":"32258 Кушићи",
    "name:sr":"32258 Кушићи",
    "name:sr-Latn":"32258 Kušići",
    "ref":"32258",
    "opening_hours":"Tu,Th 08:00-14:00; PH off",
    "phone":"+381 32 5678-200",
    "addr:pak":"532815"},
   "geometry":
   {"type":"Point",
    "coordinates":[20.1026450199964, 43.5014793362347]}},
  {"type":"Feature",
   "properties":
   {"amenity":"post_office",
    "name":"15324 Врхпоље",
    "name:sr":"15324 Врхпоље",
    "name:sr-Latn":"15324 Vrhpolje",
    "ref":"15324",
    "opening_hours":"Mo-Fr 08:00-11:00; PH off",
    "phone":"+381 15 567-019",
    "addr:pak":"269465"},
   "geometry":
   {"type":"Point",
    "coordinates":[19.4490160784016, 44.1438326038752]}},
  {"type":"Feature",
   "properties":
   {"name:sr":"24407 Кеви",
    "opening_hours":"Mo-Fr 07:00-11:00; PH off",
    "addr:housenumber":"2",
    "name":"24407 Кеви",
    "amenity":"post_office",
    "phone":"+381 24 846-020",
    "ref":"24407",
    "name:sr-Latn":"24407 Kevi",
    "addr:pak":"447210",
    "addr:street":"Арањ Јанош"},
   "geometry":
   {"type":"Point",
    "coordinates":[19.8777565871455, 45.8504498910726]}},
  {"type":"Feature",
   "properties":
   {"name:sr":"32101 Чачак 1",
    "opening_hours":"Mo-Fr 07:00-20:00; Sa 08:00-16:00; PH off",
    "addr:housenumber":"28",
    "name":"32101 Чачак 1",
    "amenity":"post_office",
    "phone":"+381 32 304-013;+381 32 304-015",
    "ref":"32101",
    "name:sr-Latn":"32101 Čačak 1",
    "addr:pak":"522008",
    "addr:street":"Градско Шеталиште"},
   "geometry":
   {"type":"Point",
    "coordinates":[20.3478128655271, 43.8913819407698]}},
  {"type":"Feature",
   "properties":
   {"name:sr":"11051 Београд 130",
    "opening_hours":"Mo-Fr 08:00-15:00; PH off",
    "addr:housenumber":"19",
    "name":"11051 Београд 130",
    "amenity":"post_office",
    "phone":"+381 11 7293-928",
    "ref":"11051",
    "name:sr-Latn":"11051 Beograd 130",
    "addr:pak":"141503",
    "addr:street":"Вељка Дугошевића"},
   "geometry":
   {"type":"Point",
    "coordinates":[20.4962064842608, 44.8059747770754]}},
  {"type":"Feature",
   "properties":
   {"name:sr":"23241 Лазарево",
    "opening_hours":"Mo-Fr 08:00-14:00; Sa 07:30-11:30; PH off",
    "addr:housenumber":"17",
    "name":"23241 Лазарево",
    "amenity":"post_office",
    "phone":"+381 23 896-527",
    "ref":"23241",
    "name:sr-Latn":"23241 Lazarevo",
    "addr:pak":"355508",
    "addr:street":"Жарка Зрењанина"},
   "geometry":
   {"type":"Point",
    "coordinates":[20.5383736555094, 45.3869946473324]}},
  {"type":"Feature",
   "properties":
   {"amenity":"post_office",
    "name":"17522 Биљача",
    "name:sr":"17522 Биљача",
    "name:sr-Latn":"17522 Biljača",
    "ref":"17522",
    "opening_hours":"Mo-Fr 08:00-12:00; PH off",
    "phone":"+381 17 647-510",
    "addr:pak":"634702"},
   "geometry":
   {"type":"Point",
    "coordinates":[21.7467801431491, 42.3554356804383]}},
  {"type":"Feature",
   "properties":
   {"name:sr":"26330 Уљма",
    "opening_hours":"Mo-Fr 07:00-14:00; PH off",
    "addr:housenumber":"96",
    "name":"26330 Уљма",
    "amenity":"post_office",
    "phone":"+381 13 898-122",
    "ref":"26330",
    "name:sr-Latn":"26330 Uljma",
    "addr:pak":"313007",
    "addr:street":"Вршачка"},
   "geometry":
   {"type":"Point",
    "coordinates":[21.1575389054566, 45.0437379502226]}},
  {"type":"Feature",
   "properties":
   {"amenity":"post_office",
    "name":"34232 Губеревац",
    "name:sr":"34232 Губеревац",
    "name:sr-Latn":"34232 Guberevac",
    "ref":"34232",
    "opening_hours":"Mo-Fr 07:00-11:00; PH off",
    "phone":"+381 34 518-388",
    "addr:pak":"558501"},
   "geometry":
   {"type":"Point",
    "coordinates":[20.7745254994649, 43.8360424507442]}},
  {"type":"Feature",
   "properties":
   {"amenity":"post_office",
    "name":"18436 Мерћез",
    "name:sr":"18436 Мерћез",
    "name:sr-Latn":"18436 Merćez",
    "ref":"18436",
    "opening_hours":"Mo,We 08:00-11:30; PH off",
    "phone":"+381 27 381-110",
    "addr:pak":"657501"},
   "geometry":
   {"type":"Point",
    "coordinates":[21.0631982830775, 43.2414982201439]}},
  {"type":"Feature",
   "properties":
   {"amenity":"post_office",
    "name":"16221 Велика Грабовница",
    "name:sr":"16221 Велика Грабовница",
    "name:sr-Latn":"16221 Velika Grabovnica",
    "ref":"16221",
    "opening_hours":"Mo-Fr 07:00-14:00; PH off",
    "phone":"+381 16 3481903",
    "addr:pak":"644310"},
   "geometry":
   {"type":"Point",
    "coordinates":[22.0111158245225, 42.9253730060464]}},
  {"type":"Feature",
   "properties":
   {"name:sr":"21237 Госпођинци",
    "opening_hours":"Mo-Fr 08:00-14:00; Sa 09:00-13:00; PH off",
    "addr:housenumber":"18",
    "name":"21237 Госпођинци",
    "amenity":"post_office",
    "phone":"+381 21 4807-285",
    "ref":"21237",
    "name:sr-Latn":"21237 Gospođinci",
    "addr:pak":"382501",
    "addr:street":"Краља Петра првог"},
   "geometry":
   {"type":"Point",
    "coordinates":[19.9885307966113, 45.4054248717897]}},
  {"type":"Feature",
   "properties":
   {"name:sr":"22416 Огар",
    "opening_hours":"Mo-Fr 07:00-10:30; PH off",
    "addr:housenumber":"1",
    "name":"22416 Огар",
    "amenity":"post_office",
    "phone":"+381 22 487-511",
    "ref":"22416",
    "name:sr-Latn":"22416 Ogar",
    "addr:pak":"338560",
    "addr:street":"Шумска"},
   "geometry":
   {"type":"Point",
    "coordinates":[19.947140466342, 44.7919787222042]}},
  {"type":"Feature",
   "properties":
   {"name:sr":"19214 Рготина",
    "opening_hours":"Mo-Fr 07:00-11:00; PH off",
    "addr:housenumber":"ББ",
    "name":"19214 Рготина",
    "amenity":"post_office",
    "phone":"+381 19 466-022",
    "ref":"19214",
    "name:sr-Latn":"19214 Rgotina",
    "addr:pak":"612606",
    "addr:street":"Светосавска"},
   "geometry":
   {"type":"Point",
    "coordinates":[22.2713902808305, 44.0087299102165]}},
  {"type":"Feature",
   "properties":
   {"name:sr":"11081 Београд 128",
    "opening_hours":"Mo-Fr 08:00-15:30; PH off",
    "addr:housenumber":"42А",
    "name":"11081 Београд 128",
    "amenity":"post_office",
    "phone":"+381 11 3376-015",
    "ref":"11081",
    "name:sr-Latn":"11081 Beograd 128",
    "addr:pak":"190457",
    "addr:street":"Булевар Николе Тесле"},
   "geometry":
   {"type":"Point",
    "coordinates":[20.419393882292, 44.8272073542263]}},
  {"type":"Feature",
   "properties":
   {"name:sr":"36321 Црквине",
    "opening_hours":"Mo-Fr 08:00-14:00; PH off",
    "addr:housenumber":"ББ",
    "name":"36321 Црквине",
    "amenity":"post_office",
    "phone":"+381 20 5723-040",
    "ref":"36321",
    "name:sr-Latn":"36321 Crkvine",
    "addr:pak":"577201",
    "addr:street":"Црквине"},
   "geometry":
   {"type":"Point",
    "coordinates":[20.3865382061126, 43.0523091504536]}},
  {"type":"Feature",
   "properties":
   {"name:sr":"11273 Београд 87",
    "opening_hours":"Mo-Fr 08:00-19:00; Sa 08:00-14:00; PH off",
    "addr:housenumber":"1",
    "name":"11273 Београд 87",
    "amenity":"post_office",
    "phone":"+381 11 3718-007;+381 11 7870-300",
    "ref":"11273",
    "name:sr-Latn":"11273 Beograd 87",
    "addr:pak":"201375",
    "addr:street":"Бихаћка"},
   "geometry":
   {"type":"Point",
    "coordinates":[20.2918609833127, 44.8937417775852]}},
  {"type":"Feature",
   "properties":
   {"name:sr":"34300 Аранђеловац",
    "opening_hours":
    "Mo-Fr 08:00-19:00; Sa 07:00-19:00; PH 08:00-14:00",
    "addr:housenumber":"28",
    "name":"34300 Аранђеловац",
    "amenity":"post_office",
    "phone":"+381 34 504-086;+381 34 504-087;+381 34 725-174",
    "ref":"34300",
    "name:sr-Latn":"34300 Aranđelovac",
    "addr:pak":"540106",
    "addr:street":"Илије Гарашанина"},
   "geometry":
   {"type":"Point",
    "coordinates":[20.5544903356526, 44.3097179021591]}},
  {"type":"Feature",
   "properties":
   {"name:sr":"23117 Зрењанин",
    "opening_hours":"Mo-Sa,PH 07:30-19:30",
    "addr:housenumber":"ББ",
    "name":"23117 Зрењанин",
    "amenity":"post_office",
    "phone":"+381 23 582-471",
    "ref":"23117",
    "name:sr-Latn":"23117 Zrenjanin",
    "addr:pak":"351454",
    "addr:street":"Јунака Милана Тепића"},
   "geometry":
   {"type":"Point",
    "coordinates":[20.3644376634626, 45.3798380626162]}},
  {"type":"Feature",
   "properties":
   {"name:sr":"31260 Косјерић",
    "opening_hours":"Mo-Fr 08:00-15:00; Sa 08:00-12:00; PH off",
    "addr:housenumber":"62",
    "name":"31260 Косјерић",
    "amenity":"post_office",
    "phone":"+381 31 590-895;+381 31 590-854",
    "ref":"31260",
    "name:sr-Latn":"31260 Kosjerić",
    "addr:pak":"508104",
    "addr:street":"Карађорђева"},
   "geometry":
   {"type":"Point",
    "coordinates":[19.9072910480414, 43.9987561630751]}},
  {"type":"Feature",
   "properties":
   {"name:sr":"11210 Београд 26",
    "opening_hours":"Mo-Fr 08:00-19:00; Sa 08:00-13:00; PH off",
    "addr:housenumber":"ББ",
    "name":"11210 Београд 26",
    "amenity":"post_office",
    "phone":"+381 11 3210-100;+381 11 3210-129",
    "ref":"11210",
    "name:sr-Latn":"11210 Beograd 26",
    "addr:pak":"134611",
    "addr:street":"Зрењанински пут"},
   "geometry":
   {"type":"Point",
    "coordinates":[20.4862748513547, 44.8476127981472]}},
  {"type":"Feature",
   "properties":
   {"name:sr":"21467 Савино Село",
    "opening_hours":"Mo-Fr 08:00-14:00; Sa 09:00-13:00; PH off",
    "addr:housenumber":"33",
    "name":"21467 Савино Село",
    "amenity":"post_office",
    "phone":"+381 21 720-002",
    "ref":"21467",
    "name:sr-Latn":"21467 Savino Selo",
    "addr:pak":"399301",
    "addr:street":"Маршала Тита"},
   "geometry":
   {"type":"Point",
    "coordinates":[19.5233979964142, 45.5065599579835]}},
  {"type":"Feature",
   "properties":
   {"amenity":"post_office",
    "name":"37212 Сталаћ",
    "name:sr":"37212 Сталаћ",
    "name:sr-Latn":"37212 Stalać",
    "ref":"37212",
    "opening_hours":"Mo-Fr 07:00-14:00; PH off",
    "phone":"+381 37 806-100",
    "addr:pak":"669303"},
   "geometry":
   {"type":"Point",
    "coordinates":[21.4155172791327, 43.6827142926259]}},
  {"type":"Feature",
   "properties":
   {"name:sr":"24101 Суботица",
    "opening_hours":"Mo-Fr 07:30-19:00; Sa 07:30-14:00; PH off",
    "addr:housenumber":"2",
    "name":"24101 Суботица",
    "amenity":"post_office",
    "phone":"+381 24 634-060;+381 24 634-061;+381 24 634-062",
    "ref":"24101",
    "name:sr-Latn":"24101 Subotica",
    "addr:pak":"459901",
    "addr:street":"Првомајска"},
   "geometry":
   {"type":"Point",
    "coordinates":[19.6653481542632, 46.0973794168873]}},
  {"type":"Feature",
   "properties":
   {"amenity":"post_office",
    "name":"31310 Чајетина",
    "name:sr":"31310 Чајетина",
    "name:sr-Latn":"31310 Čajetina",
    "ref":"31310",
    "opening_hours":"Mo-Fr 08:00-14:30; Sa 08:00-12:00; PH off",
    "phone":"+381 31 3831-332;+381 31 3831-330",
    "addr:pak":"508829"},
   "geometry":
   {"type":"Point",
    "coordinates":[19.7171761284002, 43.7504665329948]}},
  {"type":"Feature",
   "properties":
   {"amenity":"post_office",
    "name":"12226 Тополовник",
    "name:sr":"12226 Тополовник",
    "name:sr-Latn":"12226 Topolovnik",
    "ref":"12226",
    "opening_hours":"Mo-Fr 08:00-14:00; PH off",
    "phone":"+381 12 664209",
    "addr:pak":"296001"},
   "geometry":
   {"type":"Point",
    "coordinates":[21.4421992580633, 44.720075378312]}},
  {"type":"Feature",
   "properties":
   {"amenity":"post_office",
    "name":"18424 Белољин",
    "name:sr":"18424 Белољин",
    "name:sr-Latn":"18424 Beloljin",
    "ref":"18424",
    "opening_hours":"Mo-Fr 07:00-14:30; PH off",
    "phone":"+381 27 359-110",
    "addr:pak":"653605"},
   "geometry":
   {"type":"Point",
    "coordinates":[21.4017013590752, 43.2318474934337]}}]}
